UNKNOWN
version=1
nRows=685
nColumns=8
inDegrees=no
endheader
time	time	hip_flexion_r	knee_angle_r	hip_flexion_l	knee_angle_l	elbow_flex_r	elbow_flex_l
      0.00000000	      0.05000000	     -2.24405640	      4.15950430	      0.37056171	      5.49587087	     37.41734879	     36.36248163
      1.00000000	      0.10000000	     -2.24340825	      4.16226718	      0.37081868	      5.49804123	     37.41764933	     36.36269958
      2.00000000	      0.15000000	     -2.24154273	      4.16685930	      0.37150911	      5.50165062	     37.41730525	     36.36130168
      3.00000000	      0.20000000	     -2.24297558	      4.17050215	      0.37214458	      5.50595636	     37.40216872	     36.33705221
      4.00000000	      0.25000000	     -2.24205579	      4.17548218	      0.37215249	      5.51004791	     37.40109125	     36.33468784
      5.00000000	      0.30000000	     -2.28125850	      4.15005080	      0.32672037	      5.51345622	     37.26235662	     36.16506288
      6.00000000	      0.35000000	     -2.28206165	      4.15481854	      0.33207536	      5.51590683	     37.23596605	     36.13094563
      7.00000000	      0.40000000	     -2.29269952	      4.15842820	      0.32481993	      5.52171641	     37.18703150	     36.07045662
      8.00000000	      0.45000000	     -2.34326299	      4.11774430	      0.26794116	      5.52145874	     36.65445250	     35.50690024
      9.00000000	      0.50000000	     -2.35773291	      4.12583113	      0.25604096	      5.52772420	     36.60994867	     35.45061623
     10.00000000	      0.55000000	     -2.37651146	      4.13180804	      0.23620249	      5.53330452	     36.55340954	     35.38326655
     11.00000000	      0.60000000	     -2.43109524	      4.09031122	      0.15854208	      5.49104151	     36.13239662	     34.97558587
     12.00000000	      0.65000000	     -2.45272363	      4.10493487	      0.14112196	      5.50601789	     36.06817765	     34.90715403
     13.00000000	      0.70000000	     -2.48937373	      4.11671947	      0.10530319	      5.51795238	     35.97734306	     34.81679815
     14.00000000	      0.75000000	     -2.52891983	      4.09828681	      0.04971273	      5.48436803	     35.16737277	     34.11740814
     15.00000000	      0.80000000	     -2.55304222	      4.10661326	      0.00869315	      5.45091075	     35.66403415	     34.27195629
     16.00000000	      0.85000000	     -2.58789108	      4.11947429	     -0.02521294	      5.45972650	     35.56766750	     34.18815340
     17.00000000	      0.90000000	     -2.69024493	      4.11266696	     -0.14342446	      5.42172220	     35.33504029	     34.00434642
     18.00000000	      0.95000000	     -2.72118262	      4.12049976	     -0.18126498	      5.42049288	     35.22159240	     33.91354891
     19.00000000	      1.00000000	     -2.77330984	      4.13054993	     -0.24435761	      5.41514050	     35.08036425	     33.80912812
     20.00000000	      1.05000000	     -2.80583848	      4.08949721	     -0.28836892	      5.22636682	     34.99791503	     33.58164011
     21.00000000	      1.10000000	     -2.85616541	      4.11093090	     -0.34480032	      5.23454249	     34.88546830	     33.49404488
     22.00000000	      1.15000000	     -2.91181283	      4.13105198	     -0.41380253	      5.23088835	     34.76080497	     33.40354096
     23.00000000	      1.20000000	     -3.02487204	      4.13535843	     -0.56817971	      5.12694401	     34.58063812	     33.31042668
     24.00000000	      1.25000000	     -3.01550630	      4.08958287	     -0.58818709	      4.88254181	     34.76382472	     33.46302732
     25.00000000	      1.30000000	     -3.08965922	      4.11056467	     -0.69268201	      4.83751032	     34.63330981	     33.38656145
     26.00000000	      1.35000000	     -3.12119568	      4.13349287	     -0.73811795	      4.83860238	     34.52655128	     33.30449129
     27.00000000	      1.40000000	     -3.21063841	      4.13606138	     -0.89698267	      4.67292654	     34.36606118	     33.28587625
     28.00000000	      1.45000000	     -3.31607994	      4.07697233	     -0.98552656	      4.45442405	     34.51042776	     33.61528772
     29.00000000	      1.50000000	     -3.34040507	      4.10521128	     -1.02725833	      4.46447362	     34.40569057	     33.53040402
     30.00000000	      1.55000000	     -3.37840903	      4.10725341	     -1.16762815	      4.23648074	     34.24493109	     33.53195618
     31.00000000	      1.60000000	     -3.41096653	      4.11478558	     -1.20139462	      4.14150044	     34.25489305	     33.57286762
     32.00000000	      1.65000000	     -3.43242839	      4.13517549	     -1.23977775	      4.14721466	     34.16043043	     33.50746060
     33.00000000	      1.70000000	     -3.50545855	      4.15211877	     -1.33646901	      4.07508710	     33.99886474	     33.47133128
     34.00000000	      1.75000000	     -3.51165633	      4.16155188	     -1.36428242	      4.06332374	     33.91867862	     33.42609542
     35.00000000	      1.80000000	     -3.57452626	      4.16306365	     -1.45057560	      3.95551488	     33.73917940	     33.42515463
     36.00000000	      1.85000000	     -3.57181990	      4.16765368	     -1.46647308	      3.94410779	     33.67230735	     33.40121123
     37.00000000	      1.90000000	     -3.58491913	      4.17254218	     -1.48990133	      3.92585200	     33.58977448	     33.39303328
     38.00000000	      1.95000000	     -3.62779865	      4.15787024	     -1.54042902	      3.83151923	     33.38589770	     33.43354650
     39.00000000	      2.00000000	     -3.61694592	      4.15784824	     -1.53914099	      3.83355866	     33.36669070	     33.43827870
     40.00000000	      2.05000000	     -3.75393332	      4.09658858	     -1.62069431	      3.76467034	     33.21156130	     33.60841250
     41.00000000	      2.10000000	     -3.73810556	      4.09204515	     -1.59350875	      3.77767531	     33.18738219	     33.65607663
     42.00000000	      2.15000000	     -3.72462099	      4.09144875	     -1.58283599	      3.78899059	     33.19559341	     33.70488779
     43.00000000	      2.20000000	     -3.69496315	      4.07669399	     -1.52171136	      3.82559912	     33.17168415	     33.78846828
     44.00000000	      2.25000000	     -3.68905283	      4.08091529	     -1.48994527	      3.91265367	     33.12762759	     33.82610243
     45.00000000	      2.30000000	     -3.67006747	      4.07614980	     -1.46998066	      3.91827885	     33.16995243	     33.89916629
     46.00000000	      2.35000000	     -3.62109793	      4.05425713	     -1.39624238	      3.95801469	     33.20075979	     34.01909344
     47.00000000	      2.40000000	     -3.61057492	      4.05200043	     -1.37997594	      3.97623001	     33.24435077	     34.10531179
     48.00000000	      2.45000000	     -3.57119742	      4.03395063	     -1.32238252	      4.00298217	     33.29219895	     34.22517125
     49.00000000	      2.50000000	     -3.71661590	      4.03701312	     -1.54614062	      4.16556945	     33.30954915	     34.24254029
     50.00000000	      2.55000000	     -3.69273905	      4.03100574	     -1.52034018	      4.16157964	     33.36537809	     34.34069147
     51.00000000	      2.60000000	     -3.66592856	      4.02184639	     -1.48849343	      4.16244316	     33.41659518	     34.43780700
     52.00000000	      2.65000000	     -3.63679341	      4.00858144	     -1.45105777	      4.16649334	     33.46449429	     34.53805119
     53.00000000	      2.70000000	     -3.62721329	      3.98307066	     -1.47114278	      4.19476873	     33.28621087	     34.98419176
     54.00000000	      2.75000000	     -3.61658495	      3.97780903	     -1.45609544	      4.19721729	     33.32922620	     35.03506464
     55.00000000	      2.80000000	     -3.60401411	      3.96564419	     -1.43943022	      4.19954174	     33.36183460	     35.07588757
     56.00000000	      2.85000000	     -3.59518001	      3.93955064	     -1.42793685	      4.20019909	     33.36444990	     35.08498937
     57.00000000	      2.90000000	     -3.60558993	      3.93814765	     -1.43610475	      4.20305672	     33.37807488	     35.08661757
     58.00000000	      2.95000000	     -3.61289817	      3.92693154	     -1.44804323	      4.19946749	     33.38232377	     35.06187079
     59.00000000	      3.00000000	     -3.64564413	      3.84763455	     -1.49034892	      4.13766516	     33.26495815	     34.82511744
     60.00000000	      3.05000000	     -3.65390362	      3.85535112	     -1.49818978	      4.14215547	     33.26637346	     34.80230860
     61.00000000	      3.10000000	     -3.70734571	      3.75909248	     -1.55938401	      4.03529827	     32.95369948	     34.20081859
     62.00000000	      3.15000000	     -3.73237700	      3.75498974	     -1.60152496	      4.02032731	     32.94810271	     34.10742787
     63.00000000	      3.20000000	     -3.75964509	      3.74374418	     -1.64065627	      3.99645151	     32.91804709	     33.97365509
     64.00000000	      3.25000000	     -3.77419880	      3.68412778	     -1.66355198	      3.90900088	     32.73005604	     33.55447295
     65.00000000	      3.30000000	     -3.78966983	      3.69260786	     -1.69027381	      3.91536906	     32.71797289	     33.48556399
     66.00000000	      3.35000000	     -3.81298761	      3.68489049	     -1.72986370	      3.89581660	     32.68807299	     33.34934073
     67.00000000	      3.40000000	     -3.82683558	      3.67275020	     -1.75685276	      3.87299484	     32.64569881	     33.21367964
     68.00000000	      3.45000000	     -3.84538746	      3.62936775	     -1.78905256	      3.81156211	     32.54333498	     32.95631054
     69.00000000	      3.50000000	     -3.84379556	      3.63716376	     -1.78802865	      3.81912790	     32.54394221	     32.95471056
     70.00000000	      3.55000000	     -3.86750740	      3.61425562	     -1.82010253	      3.79247752	     32.46427409	     32.75723309
     71.00000000	      3.60000000	     -3.86529709	      3.62075086	     -1.81981565	      3.79931067	     32.46434867	     32.75647660
     72.00000000	      3.65000000	     -3.86836558	      3.52941262	     -1.81841455	      3.72289767	     32.25786572	     32.41157421
     73.00000000	      3.70000000	     -3.86648115	      3.53634334	     -1.81735248	      3.73011455	     32.25823751	     32.41167971
     74.00000000	      3.75000000	     -3.86116129	      3.53724423	     -1.81424784	      3.73754972	     32.24956374	     32.40370180
     75.00000000	      3.80000000	     -3.86032392	      3.54452462	     -1.81402998	      3.74508333	     32.25020659	     32.40523336
     76.00000000	      3.85000000	     -3.85193501	      3.54397162	     -1.81517839	      3.75252310	     32.24874962	     32.41396158
     77.00000000	      3.90000000	     -3.84322359	      3.53892012	     -1.80782829	      3.75580910	     32.24904409	     32.42338975
     78.00000000	      3.95000000	     -3.83691636	      3.53896116	     -1.80620515	      3.76231713	     32.24904668	     32.43358806
     79.00000000	      4.00000000	     -3.82821467	      3.53498999	     -1.79915699	      3.76713575	     32.25336691	     32.45047888
     80.00000000	      4.05000000	     -3.81522534	      3.51885133	     -1.78320975	      3.77041510	     32.26491781	     32.48137472
     81.00000000	      4.10000000	     -3.81526488	      3.52695419	     -1.78197430	      3.77852348	     32.26608567	     32.48474746
     82.00000000	      4.15000000	     -3.80279658	      3.52447851	     -1.78052700	      3.78749321	     32.27497171	     32.51138499
     83.00000000	      4.20000000	     -3.80192152	      3.53177796	     -1.77906109	      3.79482104	     32.27718541	     32.51491007
     84.00000000	      4.25000000	     -3.78485126	      3.52042537	     -1.76720887	      3.79885015	     32.30772385	     32.55896374
     85.00000000	      4.30000000	     -3.78386770	      3.52876232	     -1.76564145	      3.80702017	     32.31042401	     32.56216144
     86.00000000	      4.35000000	     -3.78142666	      3.53772289	     -1.76477126	      3.81606655	     32.31350436	     32.56603290
     87.00000000	      4.40000000	     -3.77769895	      3.54789966	     -1.76405997	      3.82632543	     32.31725936	     32.57025339
     88.00000000	      4.45000000	     -3.97348362	      3.33098835	     -1.84780968	      3.90909477	     32.83667714	     32.96031516
     89.00000000	      4.50000000	     -3.97134782	      3.34101498	     -1.84669083	      3.91729514	     32.83808090	     32.96123029
     90.00000000	      4.55000000	     -3.96816621	      3.35229256	     -1.84503255	      3.92629049	     32.83986268	     32.96168461
     91.00000000	      4.60000000	     -3.95926364	      3.36389489	     -1.84012766	      3.93206006	     32.84623152	     32.95013686
     92.00000000	      4.65000000	     -3.95742642	      3.37327864	     -1.83870871	      3.93968137	     32.84853049	     32.94987304
     93.00000000	      4.70000000	     -4.01558589	      3.35582582	     -1.87807953	      3.93344313	     33.07268364	     32.58253729
     94.00000000	      4.75000000	     -4.01372719	      3.36664438	     -1.87583241	      3.94232423	     33.07497698	     32.58310594
     95.00000000	      4.80000000	     -4.00986296	      3.37893646	     -1.86891137	      3.95332543	     33.08326116	     32.57176268
     96.00000000	      4.85000000	     -4.00796111	      3.38761386	     -1.86743238	      3.96096765	     33.08554247	     32.57099849
     97.00000000	      4.90000000	     -4.00819391	      3.39651790	     -1.86393124	      3.97363979	     33.09611888	     32.54956062
     98.00000000	      4.95000000	     -4.00688911	      3.40403091	     -1.86309057	      3.98046443	     33.09820089	     32.54857014
     99.00000000	      5.00000000	     -4.01040775	      3.41103268	     -1.86078176	      3.99471783	     33.10925965	     32.52038188
    100.00000000	      5.05000000	     -4.00957194	      3.41649572	     -1.86041751	      3.99989625	     33.11067896	     32.51964030
    101.00000000	      5.10000000	     -4.01673826	      3.42173109	     -1.85903532	      4.01277141	     33.11907841	     32.49365175
    102.00000000	      5.15000000	     -4.01594794	      3.42547581	     -1.85909155	      4.01658165	     33.11993778	     32.49304063
    103.00000000	      5.20000000	     -4.01541205	      3.43009769	     -1.85905997	      4.02115368	     33.12120376	     32.49205676
    104.00000000	      5.25000000	     -4.02566260	      3.43467967	     -1.85765640	      4.03475132	     33.12613942	     32.46582470
    105.00000000	      5.30000000	     -4.02496775	      3.43764918	     -1.85790614	      4.03793690	     33.12664044	     32.46527766
    106.00000000	      5.35000000	     -3.95556010	      3.42343328	     -1.74896694	      4.13567044	     33.01263744	     32.04427902
    107.00000000	      5.40000000	     -3.95532779	      3.42662213	     -1.74877699	      4.13817088	     33.01327895	     32.04471260
    108.00000000	      5.45000000	     -3.95543129	      3.43051265	     -1.74897035	      4.14129901	     33.01415528	     32.04523720
    109.00000000	      5.50000000	     -3.96246263	      3.43898806	     -1.75234224	      4.14720061	     33.01647573	     32.04572821
    110.00000000	      5.55000000	     -3.96216835	      3.44222075	     -1.75236447	      4.14994304	     33.01680195	     32.04621572
    111.00000000	      5.60000000	     -3.96358273	      3.44824071	     -1.75479905	      4.15602640	     33.01517844	     32.04744900
    112.00000000	      5.65000000	     -3.96334737	      3.45157446	     -1.75459250	      4.15884525	     33.01543996	     32.04800404
    113.00000000	      5.70000000	     -3.96330490	      3.45777905	     -1.75497897	      4.16576287	     33.01189416	     32.05110124
    114.00000000	      5.75000000	     -3.96295860	      3.46114782	     -1.75451553	      4.16860158	     33.01205939	     32.05179180
    115.00000000	      5.80000000	     -3.96267407	      3.46499888	     -1.75394190	      4.17189379	     33.01227582	     32.05286806
    116.00000000	      5.85000000	     -3.95305387	      3.47315967	     -1.74793216	      4.18227245	     33.00362116	     32.06651881
    117.00000000	      5.90000000	     -3.95239945	      3.47745484	     -1.74650414	      4.18567001	     33.00378911	     32.06755039
    118.00000000	      5.95000000	     -3.77866268	      3.63411115	     -1.61088918	      4.26012135	     32.74914151	     32.10422718
    119.00000000	      6.00000000	     -3.77672505	      3.64019495	     -1.60916716	      4.26515276	     32.75014367	     32.10642133
    120.00000000	      6.05000000	     -3.77234900	      3.64950716	     -1.60563551	      4.27292615	     32.75198705	     32.11013499
    121.00000000	      6.10000000	     -3.73268715	      3.64990503	     -1.57590805	      4.26019840	     32.76875420	     32.15500554
    122.00000000	      6.15000000	     -3.73142477	      3.65650767	     -1.57367967	      4.26526604	     32.76959327	     32.15735080
    123.00000000	      6.20000000	     -3.72449430	      3.66846987	     -1.56945862	      4.27501295	     32.77174242	     32.16257451
    124.00000000	      6.25000000	     -3.68358280	      3.67198834	     -1.54281626	      4.25042091	     32.79193225	     32.21877578
    125.00000000	      6.30000000	     -3.68120799	      3.67817866	     -1.54201566	      4.25545079	     32.79279283	     32.22120261
    126.00000000	      6.35000000	     -3.65659955	      3.68927214	     -1.53161784	      4.25086047	     32.80144848	     32.24742626
    127.00000000	      6.40000000	     -3.62464242	      3.71490785	     -1.52810509	      4.21743010	     32.82592655	     32.32185873
    128.00000000	      6.45000000	     -3.62249610	      3.71989656	     -1.52836009	      4.22168150	     32.82663058	     32.32363921
    129.00000000	      6.50000000	     -3.61742566	      3.72708086	     -1.52777456	      4.22748032	     32.82771674	     32.32684060
    130.00000000	      6.55000000	     -3.57129069	      3.74775108	     -1.51846050	      4.19122852	     32.85283616	     32.37848274
    131.00000000	      6.60000000	     -3.56947335	      3.75323825	     -1.51862949	      4.19552362	     32.85362225	     32.38041999
    132.00000000	      6.65000000	     -3.56479237	      3.76027697	     -1.51863271	      4.20074563	     32.85455517	     32.38342856
    133.00000000	      6.70000000	     -3.51824464	      3.79241602	     -1.52263928	      4.15105178	     32.87947929	     32.43508468
    134.00000000	      6.75000000	     -3.51662581	      3.79848442	     -1.52285267	      4.15584675	     32.88008431	     32.43682811
    135.00000000	      6.80000000	     -3.51264153	      3.80546646	     -1.52312186	      4.16092655	     32.88052769	     32.43922158
    136.00000000	      6.85000000	     -3.47599923	      3.87231284	     -1.56674152	      4.08460444	     32.89611364	     32.50571352
    137.00000000	      6.90000000	     -3.47456855	      3.87787611	     -1.56678989	      4.08963249	     32.89639617	     32.50696967
    138.00000000	      6.95000000	     -3.47205641	      3.88412288	     -1.56635963	      4.09513978	     32.89661330	     32.50843780
    139.00000000	      7.00000000	     -3.46858750	      3.89076411	     -1.56549363	      4.10086343	     32.89683188	     32.51001253
    140.00000000	      7.05000000	     -3.46443608	      3.89766131	     -1.56425507	      4.10668261	     32.89713037	     32.51162622
    141.00000000	      7.10000000	     -3.45888800	      3.90451314	     -1.56257105	      4.11198191	     32.89726332	     32.51331358
    142.00000000	      7.15000000	     -3.45437195	      3.91072307	     -1.56084769	      4.11687363	     32.89770129	     32.51473937
    143.00000000	      7.20000000	     -3.45004087	      3.91748397	     -1.55904505	      4.12232966	     32.89843207	     32.51623544
    144.00000000	      7.25000000	     -3.44567613	      3.92371830	     -1.55715452	      4.12729211	     32.89916752	     32.51763385
    145.00000000	      7.30000000	     -3.44147103	      3.92972369	     -1.55524856	      4.13211951	     32.90000480	     32.51898923
    146.00000000	      7.35000000	     -3.43738730	      3.93523985	     -1.55332125	      4.13657597	     32.90088709	     32.52027289
    147.00000000	      7.40000000	     -3.43352925	      3.94034592	     -1.55140659	      4.14079121	     32.90184060	     32.52150308
    148.00000000	      7.45000000	     -3.42988767	      3.94499051	     -1.54948896	      4.14475215	     32.90286220	     32.52268310
    149.00000000	      7.50000000	     -3.42661845	      3.94932488	     -1.54760749	      4.14866238	     32.90397380	     32.52382526
    150.00000000	      7.55000000	     -3.42380000	      3.95347263	     -1.54578631	      4.15267446	     32.90517750	     32.52493200
    151.00000000	      7.60000000	     -3.42151178	      3.95765927	     -1.54405739	      4.15700327	     32.90647445	     32.52600930
    152.00000000	      7.65000000	     -3.41974181	      3.96202535	     -1.54241417	      4.16176907	     32.90787055	     32.52706042
    153.00000000	      7.70000000	     -3.41830059	      3.96573934	     -1.54051962	      4.16663519	     32.90952197	     32.52806008
    154.00000000	      7.75000000	     -3.86292241	      3.67249876	     -1.93617960	      3.97955843	     32.75566534	     32.28974860
    155.00000000	      7.80000000	     -3.86184810	      3.67984234	     -1.93469374	      3.98663313	     32.75737391	     32.29064574
    156.00000000	      7.85000000	     -3.86136196	      3.68759207	     -1.93297170	      3.99436841	     32.75934274	     32.29137603
    157.00000000	      7.90000000	     -3.86151413	      3.69576532	     -1.93096014	      4.00279517	     32.76154660	     32.29192243
    158.00000000	      7.95000000	     -3.82172573	      3.52787763	     -1.83388552	      3.97962137	     32.82678287	     32.20711514
    159.00000000	      8.00000000	     -3.82141515	      3.53749570	     -1.83227205	      3.98816490	     32.82864123	     32.20787787
    160.00000000	      8.05000000	     -3.82209396	      3.54730571	     -1.83006930	      3.99725957	     32.83098302	     32.20784744
    161.00000000	      8.10000000	     -3.83914653	      3.51978865	     -1.83601850	      4.00666378	     32.84877670	     32.18118684
    162.00000000	      8.15000000	     -3.83918822	      3.52975883	     -1.83406089	      4.01553764	     32.85114513	     32.18148596
    163.00000000	      8.20000000	     -3.87779474	      3.35480643	     -1.83897019	      3.93721122	     33.02398648	     32.05332659
    164.00000000	      8.25000000	     -3.87817088	      3.36621991	     -1.83768518	      3.94675119	     33.02623300	     32.05428667
    165.00000000	      8.30000000	     -3.88461910	      3.37416572	     -1.83800342	      3.95771557	     33.03505131	     32.04360521
    166.00000000	      8.35000000	     -3.90265863	      3.37096798	     -1.85196119	      3.96440462	     33.06539142	     32.01661125
    167.00000000	      8.40000000	     -3.90085655	      3.38213342	     -1.85146034	      3.97422569	     33.06815151	     32.01663879
    168.00000000	      8.45000000	     -3.92079568	      3.34761762	     -1.87819061	      3.95521009	     33.17302581	     31.94533372
    169.00000000	      8.50000000	     -3.92201569	      3.36005440	     -1.87431115	      3.96448098	     33.17621719	     31.94571196
    170.00000000	      8.55000000	     -3.92555273	      3.37139458	     -1.86190308	      3.97043112	     33.18798936	     31.93384795
    171.00000000	      8.60000000	     -3.92703557	      3.37989311	     -1.85505957	      3.97520122	     33.20289884	     31.91743543
    172.00000000	      8.65000000	     -3.93168083	      3.38858030	     -1.85702108	      3.97926120	     33.22766170	     31.89396058
    173.00000000	      8.70000000	     -3.93547880	      3.39849450	     -1.86059405	      3.98194299	     33.25517324	     31.87098441
    174.00000000	      8.75000000	     -3.93751758	      3.41033428	     -1.85847079	      3.98489357	     33.27566444	     31.85127839
    175.00000000	      8.80000000	     -3.90441072	      3.39461505	     -1.90211361	      3.81116326	     33.67396002	     31.69454120
    176.00000000	      8.85000000	     -3.90640735	      3.41176081	     -1.89822154	      3.82460328	     33.66871174	     31.69132434
    177.00000000	      8.90000000	     -3.90734553	      3.43076034	     -1.89612318	      3.83797544	     33.66148586	     31.68376016
    178.00000000	      8.95000000	     -3.90770691	      3.45224686	     -1.89597170	      3.85106636	     33.65352040	     31.67420549
    179.00000000	      9.00000000	     -3.90711984	      3.47368571	     -1.89597430	      3.86260178	     33.64629276	     31.66488829
    180.00000000	      9.05000000	     -3.90457782	      3.49840239	     -1.89660863	      3.87378755	     33.63644113	     31.65370249
    181.00000000	      9.10000000	     -3.76669218	      3.62589839	     -1.81932542	      3.87311270	     33.39610730	     31.83822694
    182.00000000	      9.15000000	     -3.76656443	      3.63571912	     -1.81763613	      3.88171418	     33.39770722	     31.83832964
    183.00000000	      9.20000000	     -3.77068903	      3.65184223	     -1.81113379	      3.89112924	     33.39778642	     31.82762119
    184.00000000	      9.25000000	     -3.76668973	      3.67378250	     -1.81625660	      3.89954641	     33.38766905	     31.80841613
    185.00000000	      9.30000000	     -3.76611956	      3.68311280	     -1.81568868	      3.90751638	     33.38894151	     31.80845273
    186.00000000	      9.35000000	     -3.75616103	      3.71122512	     -1.81578105	      3.91214943	     33.37142543	     31.78473119
    187.00000000	      9.40000000	     -3.75595576	      3.72016585	     -1.81506880	      3.91945129	     33.37245864	     31.78478045
    188.00000000	      9.45000000	     -3.74921447	      3.74553756	     -1.81162318	      3.92244062	     33.35542476	     31.76784354
    189.00000000	      9.50000000	     -3.74843741	      3.75396579	     -1.81103448	      3.92932965	     33.35603682	     31.76790895
    190.00000000	      9.55000000	     -3.68506586	      3.87632645	     -1.79722677	      3.88111144	     32.83191636	     31.62452763
    191.00000000	      9.60000000	     -3.68513160	      3.88374524	     -1.79589749	      3.88784026	     32.83432611	     31.62500862
    192.00000000	      9.65000000	     -3.68628139	      3.89611515	     -1.78746881	      3.89349523	     32.84593869	     31.62345605
    193.00000000	      9.70000000	     -3.68614434	      3.90370326	     -1.78651465	      3.90026251	     32.84844149	     31.62404790
    194.00000000	      9.75000000	     -3.66996383	      3.91642301	     -1.76668155	      3.89771861	     32.85935141	     31.62455066
    195.00000000	      9.80000000	     -3.67016108	      3.92567894	     -1.76599809	      3.90554759	     32.86160144	     31.62466917
    196.00000000	      9.85000000	     -3.67584263	      3.93899997	     -1.76054335	      3.91439720	     32.86490371	     31.62533831
    197.00000000	      9.90000000	     -3.84826927	      3.94526275	     -1.91120237	      3.84207356	     32.67708514	     31.43505296
    198.00000000	      9.95000000	     -3.84943888	      3.95403829	     -1.90686317	      3.84857227	     32.67995693	     31.43582741
    199.00000000	     10.00000000	     -3.83176996	      3.96504614	     -1.87617194	      3.84502909	     32.68232969	     31.44907305
    200.00000000	     10.05000000	     -3.83171244	      3.97552488	     -1.86170701	      3.84615198	     32.68315810	     31.45207703
    201.00000000	     10.10000000	     -3.77463980	      4.00870822	     -1.82141170	      3.79862437	     32.55926421	     31.47761926
    202.00000000	     10.15000000	     -3.77653682	      4.01913445	     -1.81056303	      3.80250732	     32.56160061	     31.47958658
    203.00000000	     10.20000000	     -3.74370586	      4.02439684	     -1.77247264	      3.77587809	     32.53105252	     31.51713472
    204.00000000	     10.25000000	     -3.74917317	      4.03567435	     -1.76155736	      3.77908248	     32.53110667	     31.51875297
    205.00000000	     10.30000000	     -3.74976753	      4.04590602	     -1.74524186	      3.77904890	     32.52899625	     31.52655306
    206.00000000	     10.35000000	     -3.81090251	      4.05298597	     -1.77826748	      3.65182118	     32.14421230	     31.71784979
    207.00000000	     10.40000000	     -3.81365458	      4.06334191	     -1.76418048	      3.65554485	     32.15050192	     31.71878645
    208.00000000	     10.45000000	     -3.81315927	      4.07279660	     -1.74796454	      3.65773820	     32.15509978	     31.72469830
    209.00000000	     10.50000000	     -3.76367289	      4.09735090	     -1.71477990	      3.62481941	     32.04645260	     31.85039835
    210.00000000	     10.55000000	     -3.76687295	      4.10863245	     -1.69914475	      3.62723538	     32.04701817	     31.85752186
    211.00000000	     10.60000000	     -3.76461533	      4.12017733	     -1.68398945	      3.63024046	     32.04585517	     31.86941209
    212.00000000	     10.65000000	     -3.71125240	      4.17311925	     -1.66068335	      3.58903114	     31.82705560	     32.11150060
    213.00000000	     10.70000000	     -3.71131715	      4.18345589	     -1.65401720	      3.59800814	     31.83076818	     32.11339473
    214.00000000	     10.75000000	     -3.71365484	      4.19736779	     -1.64039957	      3.60721808	     31.83600430	     32.11637530
    215.00000000	     10.80000000	     -3.71482530	      4.20982498	     -1.63070659	      3.61594338	     31.84064027	     32.11980146
    216.00000000	     10.85000000	     -3.71563429	      4.22706216	     -1.62126851	      3.62660544	     31.84636537	     32.12868441
    217.00000000	     10.90000000	     -3.70565786	      4.25936421	     -1.62074173	      3.64441801	     31.84941201	     32.15573595
    218.00000000	     10.95000000	     -3.70015384	      4.27272320	     -1.61806420	      3.65493288	     31.85354463	     32.16604683
    219.00000000	     11.00000000	     -3.68243308	      4.31830158	     -1.60643525	      3.68819794	     31.87302632	     32.20226074
    220.00000000	     11.05000000	     -3.67393857	      4.33368070	     -1.60828679	      3.70419397	     31.88168806	     32.21638442
    221.00000000	     11.10000000	     -3.60282395	      4.48844996	     -1.55160356	      3.86923210	     32.06998045	     32.28414025
    222.00000000	     11.15000000	     -3.59122630	      4.49893411	     -1.55432088	      3.88191783	     32.08134418	     32.29831514
    223.00000000	     11.20000000	     -3.57253961	      4.51256294	     -1.55046691	      3.89634621	     32.10610644	     32.32036061
    224.00000000	     11.25000000	     -3.53344688	      4.53872975	     -1.51230936	      3.93384934	     32.18356914	     32.34419281
    225.00000000	     11.30000000	     -3.51666860	      4.54852013	     -1.52360103	      3.95445578	     32.19589577	     32.36091191
    226.00000000	     11.35000000	     -3.41128763	      4.67256048	     -1.43863851	      4.19179535	     32.78088071	     32.21758386
    227.00000000	     11.40000000	     -3.39323647	      4.67791678	     -1.44691354	      4.20335853	     32.78423573	     32.24458124
    228.00000000	     11.45000000	     -3.26922099	      4.76670878	     -1.44422369	      4.22766599	     32.90631705	     32.44427411
    229.00000000	     11.50000000	     -3.25139995	      4.77316802	     -1.45041147	      4.24018282	     32.91236051	     32.47755965
    230.00000000	     11.55000000	     -3.21009730	      4.79266992	     -1.40792183	      4.26343746	     32.95150606	     32.56551985
    231.00000000	     11.60000000	     -3.15816033	      4.89783512	     -1.37203540	      4.40508747	     33.23141745	     32.63254307
    232.00000000	     11.65000000	     -3.13576091	      4.90393270	     -1.36007915	      4.40882658	     33.24267304	     32.67723607
    233.00000000	     11.70000000	     -3.10366619	      4.93850577	     -1.34290043	      4.42947146	     33.28003285	     32.73388287
    234.00000000	     11.75000000	     -3.09584742	      4.94747861	     -1.35219820	      4.43990240	     33.28534829	     32.74803348
    235.00000000	     11.80000000	     -3.08415461	      4.96329457	     -1.35610292	      4.44789772	     33.30020335	     32.76782099
    236.00000000	     11.85000000	     -2.98170531	      5.24584309	     -1.36369014	      4.52195158	     33.62094456	     32.79705411
    237.00000000	     11.90000000	     -2.97973490	      5.25008904	     -1.36485910	      4.52744077	     33.62211853	     32.79848150
    238.00000000	     11.95000000	     -2.97815024	      5.25504389	     -1.36586190	      4.53285959	     33.62400362	     32.79886855
    239.00000000	     12.00000000	     -2.97233884	      5.27841262	     -1.36384013	      4.53537615	     33.64052024	     32.77620732
    240.00000000	     12.05000000	     -2.88303399	      5.53282031	     -1.38872675	      4.50640097	     33.75766291	     32.66696077
    241.00000000	     12.10000000	     -2.88552096	      5.54344829	     -1.38224234	      4.51172518	     33.76319115	     32.64873234
    242.00000000	     12.15000000	     -2.87382107	      5.58507423	     -1.39644530	      4.51529529	     33.79069452	     32.57017421
    243.00000000	     12.20000000	     -2.86101355	      5.62141281	     -1.39141493	      4.51825203	     33.80616652	     32.51417221
    244.00000000	     12.25000000	     -2.84267739	      5.68473388	     -1.39944009	      4.50864378	     33.83474177	     32.41870247
    245.00000000	     12.30000000	     -2.82539418	      5.72883527	     -1.39051443	      4.51134877	     33.84490764	     32.35082522
    246.00000000	     12.35000000	     -2.83682128	      5.75325413	     -1.37653712	      4.53057406	     33.85204812	     32.34151859
    247.00000000	     12.40000000	     -2.76903440	      5.84389542	     -1.37424001	      4.38535021	     33.74010301	     32.06384372
    248.00000000	     12.45000000	     -2.77779402	      5.86504628	     -1.35987279	      4.40910184	     33.74622147	     32.05876475
    249.00000000	     12.50000000	     -2.75692822	      5.86545123	     -1.34167920	      4.42458912	     33.75854559	     31.98324596
    250.00000000	     12.55000000	     -2.75389433	      5.81198241	     -1.31756138	      4.39381402	     33.70726748	     31.87659783
    251.00000000	     12.60000000	     -2.75721038	      5.82331818	     -1.30918597	      4.40751121	     33.70995530	     31.87538023
    252.00000000	     12.65000000	     -2.76427219	      5.84291332	     -1.28950357	      4.43142549	     33.71438042	     31.87199207
    253.00000000	     12.70000000	     -2.90802105	      5.54917391	     -1.28544836	      4.38046793	     33.57389768	     31.63424060
    254.00000000	     12.75000000	     -2.90764734	      5.55535467	     -1.27950574	      4.38875257	     33.57506604	     31.63448996
    255.00000000	     12.80000000	     -2.90560052	      5.56757630	     -1.26759310	      4.40676202	     33.57789250	     31.63551654
    256.00000000	     12.85000000	     -2.89489693	      5.57900131	     -1.25309636	      4.43199656	     33.58353167	     31.63764823
    257.00000000	     12.90000000	     -2.89164328	      5.58487008	     -1.24462308	      4.44356452	     33.58590680	     31.64009303
    258.00000000	     12.95000000	     -2.97266719	      5.18130448	     -1.15469851	      4.46327173	     33.49171065	     31.56484989
    259.00000000	     13.00000000	     -2.95759561	      5.19530439	     -1.14497472	      4.48612908	     33.49431987	     31.57312681
    260.00000000	     13.05000000	     -2.93458037	      5.21362849	     -1.12407542	      4.51779081	     33.50024548	     31.58769580
    261.00000000	     13.10000000	     -2.89555002	      5.23358143	     -1.07646425	      4.56056974	     33.51037170	     31.61417988
    262.00000000	     13.15000000	     -3.01739590	      4.83571898	     -1.05652236	      4.55353979	     33.47179276	     31.54830992
    263.00000000	     13.20000000	     -2.99343416	      4.86407096	     -1.04380719	      4.59286814	     33.47902029	     31.56401218
    264.00000000	     13.25000000	     -3.00440777	      4.81122181	     -1.02960320	      4.60342385	     33.48293084	     31.59641562
    265.00000000	     13.30000000	     -2.98805715	      4.82372152	     -1.02980726	      4.62711077	     33.48520616	     31.60407466
    266.00000000	     13.35000000	     -3.14763849	      4.53713050	     -1.07164664	      4.66954719	     33.53263611	     31.53302082
    267.00000000	     13.40000000	     -3.13201814	      4.55057568	     -1.07159702	      4.68719824	     33.53349179	     31.54150940
    268.00000000	     13.45000000	     -3.11567336	      4.56067283	     -1.07347779	      4.70251167	     33.53276478	     31.55131852
    269.00000000	     13.50000000	     -3.09705583	      4.57031381	     -1.07572759	      4.71887134	     33.53159254	     31.56316834
    270.00000000	     13.55000000	     -3.10217743	      4.49873030	     -1.04393144	      4.68841334	     33.50484999	     31.61782789
    271.00000000	     13.60000000	     -3.20777568	      4.28246479	     -1.08422670	      4.73756638	     33.56800188	     31.55685165
    272.00000000	     13.65000000	     -3.19182522	      4.28869831	     -1.08854986	      4.74699574	     33.56283541	     31.56616914
    273.00000000	     13.70000000	     -3.18014530	      4.29055916	     -1.09214732	      4.75180298	     33.55628417	     31.57582903
    274.00000000	     13.75000000	     -3.17790942	      4.29454224	     -1.09128366	      4.75547239	     33.55491589	     31.57931114
    275.00000000	     13.80000000	     -3.19236782	      4.26481146	     -1.10617831	      4.73211099	     33.53037509	     31.59969433
    276.00000000	     13.85000000	     -3.18970362	      4.26844006	     -1.10644901	      4.73592118	     33.53018950	     31.60140373
    277.00000000	     13.90000000	     -3.17856167	      4.26786182	     -1.11469125	      4.73994246	     33.52656994	     31.60554111
    278.00000000	     13.95000000	     -3.17743778	      4.27106031	     -1.11553268	      4.74317029	     33.52689025	     31.60681840
    279.00000000	     14.00000000	     -3.21839090	      4.18420102	     -1.15771332	      4.67871555	     33.51169627	     31.56910783
    280.00000000	     14.05000000	     -3.21659781	      4.18773875	     -1.15828280	      4.68224615	     33.51280779	     31.57049059
    281.00000000	     14.10000000	     -3.24629970	      4.11154772	     -1.14713943	      4.67247304	     33.29978522	     31.85298143
    282.00000000	     14.15000000	     -3.24503260	      4.11612076	     -1.14817640	      4.67659789	     33.30112253	     31.85397821
    283.00000000	     14.20000000	     -3.26378906	      4.12167965	     -1.17695704	      4.67499980	     33.29948577	     31.84772747
    284.00000000	     14.25000000	     -3.26260068	      4.12679565	     -1.17829153	      4.67949271	     33.30106586	     31.84843043
    285.00000000	     14.30000000	     -3.27490220	      4.13596089	     -1.19110209	      4.68150427	     33.30576865	     31.84475380
    286.00000000	     14.35000000	     -3.27523476	      4.14204773	     -1.19343851	      4.68673109	     33.30720948	     31.84514591
    287.00000000	     14.40000000	     -3.29772842	      4.15577662	     -1.21517108	      4.69047091	     33.30896447	     31.83543941
    288.00000000	     14.45000000	     -3.26641618	      4.28194855	     -1.29134344	      4.55280287	     33.21400389	     31.88565371
    289.00000000	     14.50000000	     -3.26790033	      4.28887125	     -1.29307313	      4.55942626	     33.21613393	     31.88614936
    290.00000000	     14.55000000	     -3.29662722	      4.30755511	     -1.30867855	      4.57326923	     33.21892570	     31.87625086
    291.00000000	     14.60000000	     -3.32824765	      4.37515809	     -1.36125725	      4.59851237	     33.16714328	     31.90169999
    292.00000000	     14.65000000	     -3.34451788	      4.39620837	     -1.36514176	      4.60655316	     33.16850550	     31.89684825
    293.00000000	     14.70000000	     -3.36183146	      4.51672358	     -1.40777592	      4.63247286	     33.12543735	     31.94603689
    294.00000000	     14.75000000	     -3.26146934	      4.79561244	     -1.38124783	      4.63176732	     33.17086073	     32.09943228
    295.00000000	     14.80000000	     -3.30787930	      4.82734694	     -1.40120717	      4.66951720	     33.14512226	     32.08321793
    296.00000000	     14.85000000	     -3.36686425	      4.88105734	     -1.42702058	      4.72347475	     33.10677574	     32.08383775
    297.00000000	     14.90000000	     -3.21968964	      5.18780251	     -1.29181773	      4.83907940	     33.22973310	     32.34114627
    298.00000000	     14.95000000	     -3.29688426	      5.23856142	     -1.31349893	      4.90598955	     33.17997919	     32.32164677
    299.00000000	     15.00000000	     -3.38774814	      5.31353664	     -1.33330034	      5.00174357	     33.11720460	     32.32996895
    300.00000000	     15.05000000	     -3.47272359	      5.39491266	     -1.33833386	      5.10114627	     33.06007295	     32.34158532
    301.00000000	     15.10000000	     -3.23608883	      5.74202486	     -1.03442037	      5.38933358	     33.21618231	     32.67537790
    302.00000000	     15.15000000	     -3.38003335	      5.83644478	     -1.03556721	      5.56377319	     33.12584591	     32.73719569
    303.00000000	     15.20000000	     -3.51110447	      5.97263534	     -0.98671210	      5.81446719	     33.09633735	     32.87008365
    304.00000000	     15.25000000	     -3.67578960	      6.04760903	     -0.94461347	      5.99745422	     32.98807811	     32.89509348
    305.00000000	     15.30000000	     -3.81559713	      6.16175811	     -0.79602638	      6.34085828	     32.89687554	     33.06843846
    306.00000000	     15.35000000	     -3.94463961	      6.26003758	     -0.58820999	      6.74947536	     32.79577109	     33.27753050
    307.00000000	     15.40000000	     -4.13209596	      6.35194454	     -0.48457392	      6.89581166	     32.68868086	     33.22418582
    308.00000000	     15.45000000	     -4.31419411	      6.39292157	     -0.15289493	      7.46811618	     32.47276561	     33.50365220
    309.00000000	     15.50000000	     -4.51244919	      6.42558579	      0.15761995	      7.89818896	     32.25740455	     33.64821339
    310.00000000	     15.55000000	     -4.71695512	      6.59800025	      0.42222422	      8.15708080	     32.16128752	     33.63686391
    311.00000000	     15.60000000	     -4.97075385	      6.39579801	      0.91988254	      8.72639213	     31.75503529	     33.82335276
    312.00000000	     15.65000000	     -5.23304602	      6.38627878	      1.33712800	      9.09893837	     31.44973039	     33.85258730
    313.00000000	     15.70000000	     -5.47920819	      6.55247608	      1.77508047	      9.36854733	     31.32697504	     33.86134979
    314.00000000	     15.75000000	     -5.78613045	      6.50504192	      2.34068560	      9.70953596	     31.06686449	     33.90019338
    315.00000000	     15.80000000	     -6.15261758	      6.30930716	      2.98309961	     10.07706090	     30.70212641	     33.87874558
    316.00000000	     15.85000000	     -6.46068203	      6.35051762	      3.58708799	     10.27090933	     30.54287263	     33.83533747
    317.00000000	     15.90000000	     -6.81533405	      6.25471076	      4.12692423	     10.43085529	     30.20535694	     33.58917060
    318.00000000	     15.95000000	     -7.16736563	      6.18574242	      4.85904807	     10.55079783	     30.03764616	     33.49254323
    319.00000000	     16.00000000	     -7.43180490	      6.39925071	      5.57325338	     10.59545519	     30.08162092	     33.46910909
    320.00000000	     16.05000000	     -7.87672281	      6.05473513	      6.34782142	     10.56718479	     29.78225501	     33.19083219
    321.00000000	     16.10000000	     -8.23452186	      6.00680647	      7.07387508	     10.44157574	     29.69513507	     33.00086594
    322.00000000	     16.15000000	     -8.60129800	      5.98792504	      7.73184792	     10.22646602	     29.65329944	     32.73709132
    323.00000000	     16.20000000	     -8.88243251	      6.10952385	      8.48454643	     10.13233981	     29.75940327	     32.70166263
    324.00000000	     16.25000000	     -9.38229215	      6.01673129	      8.86547242	      9.69127077	     29.76549934	     32.22128853
    325.00000000	     16.30000000	     -9.63711670	      6.13728459	      9.59150551	      9.56581578	     29.90609533	     32.18718030
    326.00000000	     16.35000000	     -9.96393804	      6.11269035	     10.14721133	      9.08850583	     30.03337719	     31.75973903
    327.00000000	     16.40000000	    -10.20471359	      6.25780875	     10.79429885	      8.98019872	     30.19008888	     31.76302231
    328.00000000	     16.45000000	    -10.42177533	      6.37994084	     11.37798295	      8.82361871	     30.37913598	     31.71408827
    329.00000000	     16.50000000	    -11.00020636	      6.44503418	     11.31012448	      8.13732682	     30.51819215	     30.98691394
    330.00000000	     16.55000000	    -11.16942211	      6.59827275	     11.80335977	      8.05495942	     30.69618088	     31.00764188
    331.00000000	     16.60000000	    -11.45235694	      6.87708448	     11.96234838	      7.68171419	     30.89745567	     30.52880810
    332.00000000	     16.65000000	    -11.56571574	      7.04371301	     12.32941145	      7.61763147	     31.09518339	     30.55413594
    333.00000000	     16.70000000	    -11.82571188	      7.41766506	     12.33084033	      7.37202380	     31.26044700	     30.13371641
    334.00000000	     16.75000000	    -11.87538420	      7.61295817	     12.56826486	      7.33083557	     31.44766061	     30.16963533
    335.00000000	     16.80000000	    -11.85940100	      7.88958419	     12.72675885	      7.29085728	     31.67883236	     30.13929764
    336.00000000	     16.85000000	    -11.81130473	      8.30587137	     12.75729676	      7.25444143	     31.90599408	     29.99661882
    337.00000000	     16.90000000	    -12.03410400	      9.02183942	     12.42005039	      7.06467606	     31.83198701	     29.45770955
    338.00000000	     16.95000000	    -11.91346225	      9.26955716	     12.43009034	      7.06768221	     32.02505413	     29.48553037
    339.00000000	     17.00000000	    -11.75025837	      9.96944133	     12.18879023	      6.98539015	     32.07363942	     29.16143097
    340.00000000	     17.05000000	    -11.53884172	     10.36684436	     12.02407850	      6.96922658	     32.22978229	     29.09797943
    341.00000000	     17.10000000	    -11.58981451	     10.83579346	     11.65866946	      6.85829705	     32.12780515	     28.91850332
    342.00000000	     17.15000000	    -11.21560319	     11.24079804	     11.46673336	      6.83592139	     32.31177679	     28.85388340
    343.00000000	     17.20000000	    -10.82965458	     11.56088129	     11.25058328	      6.80489130	     32.45283648	     28.82934623
    344.00000000	     17.25000000	    -10.55051164	     12.18781604	     10.85126974	      6.56994366	     32.35311634	     28.47864761
    345.00000000	     17.30000000	    -10.06334454	     12.47998506	     10.56061415	      6.51100273	     32.48607430	     28.43263001
    346.00000000	     17.35000000	     -9.51768812	     12.82354425	     10.19997715	      6.33504085	     32.54183898	     28.30994202
    347.00000000	     17.40000000	     -8.96030774	     13.09860163	      9.81896960	      6.11211005	     32.53915133	     28.15427809
    348.00000000	     17.45000000	     -8.39969983	     13.26453337	      9.44025013	      5.91230456	     32.54730644	     28.03108389
    349.00000000	     17.50000000	     -7.78788461	     13.27167983	      9.16316996	      5.91649735	     32.65065224	     28.08432985
    350.00000000	     17.55000000	     -7.12316117	     13.38031236	      8.70657020	      5.55671366	     32.65087367	     27.88765430
    351.00000000	     17.60000000	     -6.53991796	     13.25909867	      8.31186306	      5.27454254	     32.61785068	     27.72743573
    352.00000000	     17.65000000	     -5.83201716	     13.16647742	      8.04887059	      5.34597835	     32.71104936	     27.82363282
    353.00000000	     17.70000000	     -5.21357599	     12.84606373	      7.61899056	      4.93063117	     32.72050965	     27.66381841
    354.00000000	     17.75000000	     -4.62586206	     12.45275460	      7.26797434	      4.74809579	     32.79446246	     27.60702862
    355.00000000	     17.80000000	     -3.87031094	     12.32675445	      7.02175576	      4.84859560	     32.87237626	     27.71735712
    356.00000000	     17.85000000	     -3.36093553	     11.74317247	      6.63415203	      4.60695696	     33.12516667	     27.40375094
    357.00000000	     17.90000000	     -2.59781748	     11.58145345	      6.42183149	      4.69726304	     33.20909191	     27.53060139
    358.00000000	     17.95000000	     -1.86695963	     11.35639503	      6.20475688	      4.72606073	     33.26549020	     27.64479806
    359.00000000	     18.00000000	     -1.36685569	     10.54503356	      5.83903376	      4.27979448	     33.28292087	     27.67920301
    360.00000000	     18.05000000	     -0.82955798	     10.07954384	      5.58720087	      4.16905966	     33.38774044	     27.77867294
    361.00000000	     18.10000000	     -0.33110633	      9.63986194	      5.35109717	      4.09329305	     33.48201273	     27.86620580
    362.00000000	     18.15000000	      0.18880618	      9.35375279	      5.15939836	      4.08732358	     33.53891416	     27.97635956
    363.00000000	     18.20000000	      0.63989824	      8.99286415	      4.96903832	      4.02494996	     33.58793130	     28.06344813
    364.00000000	     18.25000000	      1.09792900	      8.70369304	      4.75601518	      3.99103870	     33.92863270	     27.85573571
    365.00000000	     18.30000000	      1.52371277	      8.47685952	      4.62105714	      3.95093158	     33.91569109	     27.93172708
    366.00000000	     18.35000000	      1.94610032	      8.41179640	      4.55187393	      4.02580229	     33.98481850	     28.02081021
    367.00000000	     18.40000000	      2.24379502	      8.17034426	      4.42611098	      3.92641574	     33.87321991	     28.07435180
    368.00000000	     18.45000000	      2.56990340	      8.09305528	      4.37934234	      3.95074526	     33.91965243	     28.13598088
    369.00000000	     18.50000000	      2.78925837	      7.94541879	      4.28666215	      3.87916371	     33.72413349	     28.08376476
    370.00000000	     18.55000000	      3.02593477	      7.87252338	      4.25548953	      3.87584656	     33.71750795	     28.09202803
    371.00000000	     18.60000000	      3.13145756	      7.78760377	      4.12494526	      3.78624084	     33.39252470	     27.81728705
    372.00000000	     18.65000000	      3.14414701	      7.68784186	      3.94665399	      3.70655893	     33.07365830	     27.37903563
    373.00000000	     18.70000000	      3.15151112	      7.53412379	      3.80810084	      3.67491260	     33.07860784	     27.21470235
    374.00000000	     18.75000000	      3.39141461	      7.56283490	      3.89307932	      3.64908462	     32.87265213	     27.23245636
    375.00000000	     18.80000000	      3.59131912	      7.51282768	      3.99330894	      3.63294756	     32.91633294	     27.30514111
    376.00000000	     18.85000000	      3.62034349	      7.53922011	      3.86066896	      3.47001926	     32.01033265	     26.73057191
    377.00000000	     18.90000000	      3.79347520	      7.45996479	      4.00409993	      3.46095991	     32.06403907	     26.83707394
    378.00000000	     18.95000000	      3.69657381	      7.41332019	      3.84289400	      3.31436167	     31.14226568	     26.33951268
    379.00000000	     19.00000000	      3.55551912	      7.23346847	      3.73367003	      3.22431880	     30.71750916	     26.01235837
    380.00000000	     19.05000000	      3.65157159	      7.19447429	      3.76754255	      3.10041374	     30.25353278	     25.85050722
    381.00000000	     19.10000000	      3.49980197	      6.99372753	      3.68366596	      2.99334139	     29.70903563	     25.66800432
    382.00000000	     19.15000000	      3.45322155	      6.90348555	      3.63622782	      2.83516337	     29.21202440	     25.51040306
    383.00000000	     19.20000000	      3.60499342	      6.83177023	      3.73441423	      2.69812242	     28.64900382	     25.29575782
    384.00000000	     19.25000000	      3.66541616	      6.72623719	      3.77650302	      2.54464256	     28.08616970	     25.14158266
    385.00000000	     19.30000000	      3.74152413	      6.60499691	      3.86253727	      2.40631772	     27.58287551	     25.03028645
    386.00000000	     19.35000000	      3.56460866	      6.36264314	      3.78808811	      2.24982370	     27.07603234	     24.75860734
    387.00000000	     19.40000000	      3.85978781	      6.30558623	      4.05918395	      2.14649945	     26.73202843	     24.70177860
    388.00000000	     19.45000000	      3.96481043	      6.19359418	      4.14148370	      1.99650399	     26.02249856	     24.49646831
    389.00000000	     19.50000000	      4.46323178	      5.96705807	      4.64697089	      1.78166395	     26.23765767	     24.61555945
    390.00000000	     19.55000000	      4.35242415	      5.93524192	      4.54116754	      1.74560170	     24.95680881	     24.20981472
    391.00000000	     19.60000000	      4.44112303	      5.72553863	      4.68534472	      1.63106866	     24.41974675	     24.08261284
    392.00000000	     19.65000000	      4.20760696	      5.36913059	      4.61481440	      1.48926162	     24.00238925	     23.78112926
    393.00000000	     19.70000000	      4.69780932	      5.32820585	      5.10295061	      1.44556985	     23.66671553	     23.65611660
    394.00000000	     19.75000000	      5.09941758	      5.19268115	      5.53980781	      1.40117231	     23.23082944	     23.47960112
    395.00000000	     19.80000000	      5.17592339	      4.97474562	      5.62814549	      1.29065018	     22.44923809	     23.20232239
    396.00000000	     19.85000000	      5.47150787	      4.79854601	      5.98022946	      1.24695757	     21.99757688	     22.99366112
    397.00000000	     19.90000000	      6.24806891	      4.68129520	      6.86377009	      1.28490785	     22.12933566	     22.95716953
    398.00000000	     19.95000000	      6.66009224	      4.61812395	      7.25731984	      1.27056103	     21.23425940	     22.48410806
    399.00000000	     20.00000000	      6.97881322	      4.48472940	      7.60698649	      1.29387051	     21.01017064	     22.12929474
    400.00000000	     20.05000000	      7.82164162	      4.43100692	      8.54627232	      1.38249072	     20.96588317	     21.98157052
    401.00000000	     20.10000000	      8.20715587	      4.27127481	      8.91476237	      1.33921788	     20.11256217	     21.59298849
    402.00000000	     20.15000000	      8.99698680	      4.20181501	      9.74872956	      1.38146687	     19.67541723	     21.24445025
    403.00000000	     20.20000000	      9.75218468	      4.12687299	     10.54088332	      1.42593677	     19.22036562	     20.91288233
    404.00000000	     20.25000000	     10.56196090	      4.06691950	     11.37984565	      1.49691585	     18.81517630	     20.58295015
    405.00000000	     20.30000000	     11.38389111	      4.00491911	     12.23526323	      1.54697383	     18.42842315	     20.26972406
    406.00000000	     20.35000000	     12.34376574	      4.00006901	     13.31225981	      1.67079004	     18.70164491	     20.23232396
    407.00000000	     20.40000000	     13.12816742	      3.90416164	     14.07962021	      1.68507053	     17.65853467	     19.61599884
    408.00000000	     20.45000000	     14.07385016	      3.91089646	     15.11314691	      1.81715253	     17.90402717	     19.57740478
    409.00000000	     20.50000000	     14.89819248	      3.99996829	     15.87801009	      1.91095493	     17.12850098	     19.18273539
    410.00000000	     20.55000000	     15.78298773	      3.95476091	     16.84705450	      1.99546208	     17.07662393	     19.00466793
    411.00000000	     20.60000000	     16.64387864	      3.91702180	     17.77681818	      2.07344137	     17.00008287	     18.82768897
    412.00000000	     20.65000000	     17.48663398	      3.87287307	     18.67444201	      2.13391040	     16.75467759	     18.62517141
    413.00000000	     20.70000000	     18.32580983	      3.82689512	     19.52270605	      2.18017482	     16.27233513	     18.37296980
    414.00000000	     20.75000000	     19.16563943	      3.77740088	     20.33046689	      2.17995115	     15.62903375	     18.11899617
    415.00000000	     20.80000000	     19.89062740	      3.76022799	     21.09633024	      2.23041338	     15.75574649	     18.07239897
    416.00000000	     20.85000000	     20.66459368	      3.74539110	     21.87794201	      2.27592794	     15.39643151	     17.91845705
    417.00000000	     20.90000000	     21.35151746	      3.70497447	     22.56585320	      2.28571694	     15.35395511	     17.84386463
    418.00000000	     20.95000000	     22.19531125	      3.67863216	     23.38639809	      2.29456502	     14.81954112	     17.67968977
    419.00000000	     21.00000000	     23.06076994	      3.72847268	     24.17678271	      2.36461273	     14.45947440	     17.44253455
    420.00000000	     21.05000000	     23.79093591	      3.70611287	     24.92679808	      2.35391445	     14.40159585	     17.48638865
    421.00000000	     21.10000000	     24.39416813	      3.69407849	     25.52199467	      2.39833452	     14.12628864	     17.02203467
    422.00000000	     21.15000000	     25.22414882	      3.73119483	     26.35628058	      2.47648982	     13.90305885	     17.15488122
    423.00000000	     21.20000000	     25.49740046	      3.65698484	     26.62009738	      2.43088111	     13.43973040	     16.40757276
    424.00000000	     21.25000000	     25.80973677	      3.57732742	     26.92627315	      2.35445398	     13.58778034	     16.54535260
    425.00000000	     21.30000000	     26.78347019	      3.60171954	     27.92673571	      2.45051578	     13.22185034	     17.34633626
    426.00000000	     21.35000000	     26.72713923	      3.60780465	     27.84072509	      2.48971847	     13.20977171	     14.51244343
    427.00000000	     21.40000000	     27.17013798	      3.57629131	     28.28171334	      2.48158758	     13.18040472	     15.04715947
    428.00000000	     21.45000000	     27.87984752	      3.62218325	     28.97510620	      2.56662366	     12.97259880	      8.94382918
    429.00000000	     21.50000000	     28.11732390	      3.57859839	     29.20170191	      2.53396229	     13.08199350	      9.19980416
    430.00000000	     21.55000000	     28.53541877	      3.57866091	     29.63127068	      2.58169960	     12.97493511	      9.81847125
    431.00000000	     21.60000000	     28.75510004	      3.54183992	     29.83957786	      2.56497577	     13.05058316	     10.03156235
    432.00000000	     21.65000000	     29.18958870	      3.53924482	     30.29680048	      2.66521365	     12.83136104	     10.48693012
    433.00000000	     21.70000000	     29.35109558	      3.51120491	     30.44562253	      2.64616514	     12.93573178	     10.66087146
    434.00000000	     21.75000000	     29.28752398	      3.42690515	     30.37438705	      2.66350220	     12.87731251	     11.93126114
    435.00000000	     21.80000000	     29.43613015	      3.41290668	     30.50954209	      2.66243840	     12.97146823	     12.11001994
    436.00000000	     21.85000000	     29.59630962	      3.41295596	     30.66085371	      2.68136126	     13.01694975	     12.38174957
    437.00000000	     21.90000000	     29.72395633	      3.40645206	     30.77627353	      2.69635382	     13.08358357	     12.55120003
    438.00000000	     21.95000000	     29.84697002	      3.40626754	     30.88755482	      2.71966932	     13.13990517	     12.74537581
    439.00000000	     22.00000000	     29.94750532	      3.40356147	     30.97756826	      2.74203617	     13.17837074	     12.91257977
    440.00000000	     22.05000000	     30.02629468	      3.40403227	     31.04010057	      2.77177088	     13.21123000	     13.07067516
    441.00000000	     22.10000000	     29.92203003	      3.35066473	     30.91167144	      2.78087499	     13.11982650	     13.27262519
    442.00000000	     22.15000000	     29.97491684	      3.36047003	     30.95992494	      2.81093618	     13.18765266	     13.37064012
    443.00000000	     22.20000000	     29.82549060	      3.33695338	     30.77811163	      2.80456869	     13.19939028	     13.33911867
    444.00000000	     22.25000000	     29.85505745	      3.36854508	     30.80384170	      2.85670419	     13.27616188	     13.43222601
    445.00000000	     22.30000000	     29.68874655	      3.37990913	     30.61738448	      2.88662139	     13.29408787	     13.25713898
    446.00000000	     22.35000000	     29.48727379	      3.37821910	     30.40576779	      2.88289789	     13.31510151	     13.12266764
    447.00000000	     22.40000000	     29.21866612	      3.36799754	     30.11894507	      2.86815238	     13.33060180	     12.92387444
    448.00000000	     22.45000000	     28.96162816	      3.37676987	     29.85413835	      2.88952381	     13.35098323	     12.68371420
    449.00000000	     22.50000000	     28.67397963	      3.39854822	     29.56743834	      2.92160385	     13.35208226	     12.36055974
    450.00000000	     22.55000000	     28.28123672	      3.39589923	     29.16826010	      2.91087375	     13.39505856	     11.89180115
    451.00000000	     22.60000000	     27.84555688	      3.39799930	     28.73200022	      2.90896555	     13.44083559	     11.39812441
    452.00000000	     22.65000000	     27.36539415	      3.40633693	     28.26153387	      2.91780902	     13.49053240	     10.81001852
    453.00000000	     22.70000000	     26.52613051	      3.30789173	     27.43070054	      2.78680998	     13.74072744	     10.32266355
    454.00000000	     22.75000000	     26.10839262	      3.38358904	     27.03252293	      2.88567065	     13.66324478	      9.46263405
    455.00000000	     22.80000000	     25.48492285	      3.39204243	     26.42864629	      2.88331949	     13.78620392	      8.48042616
    456.00000000	     22.85000000	     24.84084547	      3.41784677	     25.80308414	      2.91816975	     13.86995653	      7.66332328
    457.00000000	     22.90000000	     23.96361408	      3.40465929	     24.96658648	      2.86181094	     14.21667072	      6.70004939
    458.00000000	     22.95000000	     23.87402209	      3.46057355	     24.93293872	      2.93485505	     13.93836965	      3.52098170
    459.00000000	     23.00000000	     23.03250196	      3.53038660	     24.10104879	      2.98253285	     14.08801143	      2.50756678
    460.00000000	     23.05000000	     22.34563289	      3.58984794	     23.42510366	      3.03797511	     14.08026329	      2.10348203
    461.00000000	     23.10000000	     21.23086623	      3.57821076	     22.41203809	      3.00674757	     14.43868155	      1.60044002
    462.00000000	     23.15000000	     20.59922665	      3.67609105	     21.76579946	      3.05664468	     14.39921468	      1.49723316
    463.00000000	     23.20000000	     19.90067043	      3.77253501	     21.05374316	      3.09824520	     14.44377188	      1.38895148
    464.00000000	     23.25000000	     19.13742585	      3.85471857	     20.28822203	      3.11703876	     14.60124071	      1.27405153
    465.00000000	     23.30000000	     18.33697320	      3.94795515	     19.48780852	      3.14155044	     14.81426385	      1.17703099
    466.00000000	     23.35000000	     17.38022648	      4.00550330	     18.64405470	      3.16146734	     15.73701912	      1.08678265
    467.00000000	     23.40000000	     16.57434508	      4.13563131	     17.80549629	      3.21001669	     15.72233697	      1.03068270
    468.00000000	     23.45000000	     15.72694763	      4.24659002	     16.93339474	      3.22762152	     15.85155219	      0.96857666
    469.00000000	     23.50000000	     14.84849921	      4.34340390	     16.04800303	      3.23762558	     16.22233089	      0.93085169
    470.00000000	     23.55000000	     13.96502161	      4.46122675	     15.14575537	      3.26227241	     16.55813664	      0.88973381
    471.00000000	     23.60000000	     13.15830329	      4.53592048	     14.46869738	      3.31730560	     17.84303572	      0.83644084
    472.00000000	     23.65000000	     12.23792346	      4.67344791	     13.47890890	      3.34824557	     17.84152814	      0.82779121
    473.00000000	     23.70000000	     11.33591363	      4.74600359	     12.54099825	      3.31884440	     18.24329791	      0.79273786
    474.00000000	     23.75000000	     10.63896539	      4.85002399	     11.87734111	      3.34976482	     19.41226485	      0.78251674
    475.00000000	     23.80000000	      9.67488924	      4.97263065	     10.84887601	      3.37371281	     19.40991119	      0.78308776
    476.00000000	     23.85000000	      8.94704185	      4.98383906	     10.15619803	      3.33804143	     20.38976356	      0.75755203
    477.00000000	     23.90000000	      8.01232532	      5.10180823	      9.14516109	      3.35826630	     20.46378486	      0.76607515
    478.00000000	     23.95000000	      7.29402746	      5.08634930	      8.45953586	      3.32577660	     21.24922473	      0.76295753
    479.00000000	     24.00000000	      6.62851562	      5.14483757	      7.80047616	      3.35074677	     21.89244354	      0.76947947
    480.00000000	     24.05000000	      5.73199459	      5.28568935	      6.84564832	      3.42337639	     21.94603977	      0.79595351
    481.00000000	     24.10000000	      5.38850669	      5.30154120	      6.58727200	      3.47042015	     23.03474677	      0.80064423
    482.00000000	     24.15000000	      4.73604961	      5.34169876	      5.94439413	      3.52087804	     23.41882106	      0.81137079
    483.00000000	     24.20000000	      3.92231796	      5.42285329	      5.08360628	      3.57588465	     23.50294579	      0.83407179
    484.00000000	     24.25000000	      3.74011240	      5.47869996	      4.98656666	      3.70795745	     24.41785391	      0.84353153
    485.00000000	     24.30000000	      2.95057566	      5.56203273	      4.14375895	      3.78732693	     24.40776500	      0.87494819
    486.00000000	     24.35000000	      2.77430478	      5.55574501	      4.06847163	      3.91020740	     25.22080956	      0.88475473
    487.00000000	     24.40000000	      2.54624744	      5.70381965	      3.85346195	      4.11519589	     25.63872404	      0.91267866
    488.00000000	     24.45000000	      2.23453143	      5.78330367	      3.53448698	      4.23011703	     25.91823301	      0.93396423
    489.00000000	     24.50000000	      1.78838726	      5.79279724	      3.13019580	      4.37245333	     26.29393606	      0.96564714
    490.00000000	     24.55000000	      1.51460731	      5.86266282	      2.89464437	      4.57522945	     26.64369149	      1.00213428
    491.00000000	     24.60000000	      1.02073438	      5.94729399	      2.38082756	      4.72464969	     26.69722175	      1.03748484
    492.00000000	     24.65000000	      1.15732064	      6.08487056	      2.55222926	      5.00102218	     27.22132176	      1.08926005
    493.00000000	     24.70000000	      0.88342889	      6.12245898	      2.33230690	      5.20662145	     27.49047711	      1.13918772
    494.00000000	     24.75000000	      0.43502990	      6.18858552	      1.86566704	      5.34269267	     27.47461390	      1.19343719
    495.00000000	     24.80000000	      0.48452213	      6.24773440	      1.99259657	      5.61277282	     27.88970108	      1.26048778
    496.00000000	     24.85000000	      0.10079114	      6.33326313	      1.57170617	      5.74291065	     27.82024631	      1.30931066
    497.00000000	     24.90000000	      0.10442943	      6.36021258	      1.64706850	      5.96060442	     28.11733231	      1.39483133
    498.00000000	     24.95000000	      0.19658295	      6.54280926	      1.74482633	      6.21518103	     28.30918942	      1.45368005
    499.00000000	     25.00000000	     -0.19826290	      6.67502634	      1.32442742	      6.36423723	     28.12377927	      1.41193890
    500.00000000	     25.05000000	     -0.23500909	      6.58742459	      1.33656399	      6.43119868	     28.38062880	      1.58960027
    501.00000000	     25.10000000	     -0.27498480	      6.73440320	      1.27157659	      6.56331683	     28.58563384	      1.62465627
    502.00000000	     25.15000000	     -0.57980844	      6.82338789	      0.95352480	      6.66481212	     28.43540291	      1.57470342
    503.00000000	     25.20000000	     -0.75755260	      6.77383931	      0.76299661	      6.65693059	     28.46727226	      1.65730968
    504.00000000	     25.25000000	     -0.98019721	      6.86560046	      0.53823200	      6.75916095	     28.35794763	      1.61656086
    505.00000000	     25.30000000	     -1.16458118	      6.91926125	      0.34072240	      6.81866944	     28.27756949	      1.59481020
    506.00000000	     25.35000000	     -0.95497837	      6.87225753	      0.60622610	      6.87103583	     28.63320270	      1.70607292
    507.00000000	     25.40000000	     -1.13201679	      6.95227390	      0.42464965	      6.94362139	     28.53953598	      1.65361523
    508.00000000	     25.45000000	     -1.28120494	      6.98983020	      0.27478891	      6.97436170	     28.48059183	      1.62676536
    509.00000000	     25.50000000	     -1.39847904	      6.99289360	      0.15383594	      6.98246889	     28.48387770	      1.61714683
    510.00000000	     25.55000000	     -1.05812419	      6.99133756	      0.56741893	      7.07593697	     29.30434401	      1.60898069
    511.00000000	     25.60000000	     -1.39190948	      6.92858042	      0.21847767	      7.00800053	     29.39765837	      1.57291379
    512.00000000	     25.65000000	     -1.47545541	      6.95013524	      0.14347568	      7.03649700	     29.39274727	      1.55923891
    513.00000000	     25.70000000	     -1.56230229	      6.94623069	      0.07159309	      7.05530160	     29.42975158	      1.56721128
    514.00000000	     25.75000000	     -1.61612790	      6.82698699	      0.07416301	      7.05820109	     29.90173305	      1.55871131
    515.00000000	     25.80000000	     -1.66394610	      6.84073206	      0.03604695	      7.07724637	     29.93362844	      1.58151564
    516.00000000	     25.85000000	     -1.70160485	      6.84887564	     -0.00176521	      7.09522636	     29.97142110	      1.61670342
    517.00000000	     25.90000000	     -1.74182319	      6.83654461	     -0.03255176	      7.10753502	     30.04839536	      1.63151400
    518.00000000	     25.95000000	     -1.80563046	      6.68713653	     -0.04592338	      7.09024713	     30.46324910	      1.63968588
    519.00000000	     26.00000000	     -1.83403639	      6.69015564	     -0.07133923	      7.10533509	     30.54256925	      1.67996460
    520.00000000	     26.05000000	     -1.85924376	      6.69379731	     -0.10012966	      7.11962721	     30.59527427	      1.72084905
    521.00000000	     26.10000000	     -1.87501326	      6.68488971	     -0.11917255	      7.12870404	     30.66548739	      1.74902902
    522.00000000	     26.15000000	     -1.94403980	      6.44922033	     -0.11270532	      7.09845434	     31.31280982	      1.78468469
    523.00000000	     26.20000000	     -1.95618455	      6.45421034	     -0.13557423	      7.10918887	     31.34021425	      1.82553163
    524.00000000	     26.25000000	     -1.95882031	      6.45057577	     -0.14786659	      7.11472723	     31.37258390	      1.85956234
    525.00000000	     26.30000000	     -1.97853226	      6.28444205	     -0.13143497	      7.08069080	     31.61819755	      1.91148573
    526.00000000	     26.35000000	     -1.96834960	      6.27720004	     -0.13290416	      7.08360586	     31.63594447	      1.94282741
    527.00000000	     26.40000000	     -1.95845020	      6.27636326	     -0.13658922	      7.08871397	     31.63533732	      1.97945981
    528.00000000	     26.45000000	     -1.94755414	      6.14633221	     -0.09804743	      7.05705872	     31.56468599	      1.97922426
    529.00000000	     26.50000000	     -1.93027435	      6.14638650	     -0.09624520	      7.06134134	     31.55359511	      2.01732344
    530.00000000	     26.55000000	     -1.90840040	      6.14339497	     -0.08767694	      7.06261606	     31.53274289	      2.05246117
    531.00000000	     26.60000000	     -1.88325967	      6.13874290	     -0.07581811	      7.06245007	     31.50265917	      2.08519524
    532.00000000	     26.65000000	     -1.85517535	      6.13221492	     -0.05723006	      7.05989387	     31.45973107	      2.11433634
    533.00000000	     26.70000000	     -1.82412905	      6.12005585	     -0.02898158	      7.05207436	     31.38483435	      2.13055579
    534.00000000	     26.75000000	     -1.73724911	      5.94660810	      0.08495487	      6.99504651	     30.47720537	      1.84618327
    535.00000000	     26.80000000	     -1.71533101	      5.94795200	      0.10420653	      6.99908626	     30.43808673	      1.88208249
    536.00000000	     26.85000000	     -1.69552040	      5.93811952	      0.14102078	      6.99914250	     30.22552284	      1.82383865
    537.00000000	     26.90000000	     -1.66578074	      5.93741665	      0.16290303	      6.99952051	     30.18048551	      1.84960516
    538.00000000	     26.95000000	     -1.63015622	      5.92690308	      0.20928572	      6.98790657	     29.84533397	      1.67972207
    539.00000000	     27.00000000	     -1.56157332	      5.91766481	      0.25051985	      6.97837328	     29.47742912	      1.53781821
    540.00000000	     27.05000000	     -1.53692185	      5.91949877	      0.26814322	      6.98063658	     29.44954658	      1.57431219
    541.00000000	     27.10000000	     -1.53035604	      5.92778664	      0.29710149	      6.98400779	     29.28236893	      1.48033911
    542.00000000	     27.15000000	     -1.50131303	      5.92735500	      0.31586497	      6.98581246	     29.25487969	      1.50427042
    543.00000000	     27.20000000	     -1.48085075	      5.92970419	      0.34484566	      6.98661664	     29.19636213	      1.47369138
    544.00000000	     27.25000000	     -1.46031656	      5.93209874	      0.36431322	      6.99013291	     29.14670562	      1.44775814
    545.00000000	     27.30000000	     -1.43505067	      5.94204049	      0.39389786	      7.00317031	     28.95404116	      1.20577547
    546.00000000	     27.35000000	     -1.41998411	      5.94649565	      0.40999315	      7.00649180	     28.95297466	      1.23049004
    547.00000000	     27.40000000	     -1.39506252	      5.96259892	      0.42596581	      7.02790267	     28.92404351	      1.09723678
    548.00000000	     27.45000000	     -1.38618998	      5.96808052	      0.43981201	      7.03336836	     28.93941695	      1.13600125
    549.00000000	     27.50000000	     -1.36941481	      5.98096825	      0.45186099	      7.06893841	     29.04601661	      1.01500438
    550.00000000	     27.55000000	     -1.35804708	      5.98945228	      0.46976695	      7.07609650	     29.07904321	      1.10075807
    551.00000000	     27.60000000	     -1.35106747	      5.98523781	      0.47470358	      7.09997548	     29.45309819	      0.97620454
    552.00000000	     27.65000000	     -1.33484084	      5.99763134	      0.49662644	      7.11118902	     29.48029751	      1.07591671
    553.00000000	     27.70000000	     -1.31396190	      6.00439124	      0.52777641	      7.12032850	     29.52792272	      1.08813487
    554.00000000	     27.75000000	     -1.30186950	      6.01009580	      0.56611475	      7.17606642	     29.77162965	      0.91264401
    555.00000000	     27.80000000	     -1.29364333	      6.01752666	      0.58970130	      7.18158502	     29.81768319	      0.99316213
    556.00000000	     27.85000000	     -1.25748206	      6.01733590	      0.63638100	      7.20074594	     29.95227122	      0.92409807
    557.00000000	     27.90000000	     -1.25620057	      6.02760798	      0.66034862	      7.21362246	     30.01783502	      0.97769524
    558.00000000	     27.95000000	     -1.25012173	      6.03375586	      0.70086719	      7.28830378	     30.32842376	      0.84922336
    559.00000000	     28.00000000	     -1.23403972	      6.03388847	      0.72904221	      7.29645035	     30.40975867	      0.92435745
    560.00000000	     28.05000000	     -1.20983409	      6.03535803	      0.76743998	      7.31621320	     30.53568374	      0.91237991
    561.00000000	     28.10000000	     -1.19417221	      6.04163995	      0.80300321	      7.34531439	     30.66820127	      0.89615033
    562.00000000	     28.15000000	     -1.18126764	      6.04603765	      0.84331931	      7.38228628	     30.82676170	      0.85339758
    563.00000000	     28.20000000	     -1.17571983	      6.04870989	      0.87254383	      7.42048277	     30.98003698	      0.83800920
    564.00000000	     28.25000000	     -1.17203618	      6.05689321	      0.89955602	      7.43445415	     31.04589052	      0.90921514
    565.00000000	     28.30000000	     -1.15881117	      6.05881872	      0.94180229	      7.49131021	     31.23633378	      0.79736837
    566.00000000	     28.35000000	     -1.13865175	      6.05669637	      0.97337142	      7.50470568	     31.31189023	      0.84854933
    567.00000000	     28.40000000	     -1.12002164	      6.06561491	      1.00999058	      7.54138530	     31.41800611	      0.80516708
    568.00000000	     28.45000000	     -1.10231679	      6.06676397	      1.03589316	      7.55406623	     31.47109540	      0.85615570
    569.00000000	     28.50000000	     -1.07510430	      6.06707423	      1.06760975	      7.57184262	     31.53274079	      0.85134093
    570.00000000	     28.55000000	     -1.06661036	      6.07444044	      1.08510023	      7.58939320	     31.57076904	      0.86674133
    571.00000000	     28.60000000	     -1.04467906	      6.08765874	      1.12139724	      7.63746911	     31.64307046	      0.77947841
    572.00000000	     28.65000000	     -1.04062166	      6.09241449	      1.12853130	      7.64625664	     31.66158230	      0.83088849
    573.00000000	     28.70000000	     -1.02093379	      6.09273099	      1.14434006	      7.66122443	     31.69184059	      0.83188262
    574.00000000	     28.75000000	     -1.00793232	      6.10163545	      1.15696176	      7.68308394	     31.71584904	      0.81238121
    575.00000000	     28.80000000	     -1.00237188	      6.12598015	      1.16992142	      7.71869180	     31.73155859	      0.77192472
    576.00000000	     28.85000000	     -0.99387605	      6.13183581	      1.16930491	      7.72650218	     31.73549762	      0.83484446
    577.00000000	     28.90000000	     -0.98308004	      6.14016112	      1.16916246	      7.73665211	     31.73919874	      0.87728928
    578.00000000	     28.95000000	     -0.97256641	      6.15523564	      1.17177094	      7.74920538	     31.73582063	      0.82875495
    579.00000000	     29.00000000	     -0.95781981	      6.17634226	      1.18293620	      7.75791554	     31.70673162	      0.81926071
    580.00000000	     29.05000000	     -0.93140781	      6.19163817	      1.18366818	      7.76256220	     31.66920112	      0.81042207
    581.00000000	     29.10000000	     -0.92025487	      6.20889052	      1.18274156	      7.77606247	     31.66562141	      0.95577772
    582.00000000	     29.15000000	     -0.90733631	      6.22527098	      1.17766788	      7.78486366	     31.64907404	      0.98865829
    583.00000000	     29.20000000	     -0.86883714	      6.20619324	      1.20007008	      7.75447327	     31.46046704	      0.87838784
    584.00000000	     29.25000000	     -0.84458486	      6.22971329	      1.20597382	      7.75388841	     31.45183686	      0.89716321
    585.00000000	     29.30000000	     -0.82759033	      6.24786237	      1.20725084	      7.76031874	     31.43529427	      0.97700611
    586.00000000	     29.35000000	     -0.79898416	      6.25351702	      1.21687705	      7.74203445	     31.40076285	      0.92932335
    587.00000000	     29.40000000	     -0.77899435	      6.27386925	      1.21566088	      7.75741859	     31.38804119	      1.09215147
    588.00000000	     29.45000000	     -0.73473243	      6.24961797	      1.23407306	      7.71221696	     31.32511550	      0.97209865
    589.00000000	     29.50000000	     -0.73318289	      6.27118740	      1.23765052	      7.72390136	     31.30127245	      1.10421295
    590.00000000	     29.55000000	     -0.71736875	      6.28623369	      1.24301766	      7.73344884	     31.28531280	      1.23587425
    591.00000000	     29.60000000	     -0.68015781	      6.25128264	      1.26378454	      7.66913657	     31.16024440	      1.04148812
    592.00000000	     29.65000000	     -0.66771553	      6.26925617	      1.26891001	      7.68458593	     31.15748417	      1.20989704
    593.00000000	     29.70000000	     -0.65925312	      6.27922506	      1.27322743	      7.69035880	     31.12711276	      1.24876088
    594.00000000	     29.75000000	     -0.64895457	      6.28803911	      1.27912001	      7.69422286	     31.09930712	      1.29645334
    595.00000000	     29.80000000	     -0.59468460	      6.26907793	      1.31356791	      7.64746802	     30.99772730	      1.08527648
    596.00000000	     29.85000000	     -0.59198223	      6.27590013	      1.31633115	      7.65270670	     30.99683963	      1.16556514
    597.00000000	     29.90000000	     -0.58842884	      6.29120366	      1.32509127	      7.66090474	     30.96543965	      1.24399356
    598.00000000	     29.95000000	     -0.58551721	      6.29693550	      1.32704330	      7.66547788	     30.96507587	      1.30322150
    599.00000000	     30.00000000	     -0.57749482	      6.31152136	      1.34334556	      7.67198398	     30.93140749	      1.32968688
    600.00000000	     30.05000000	     -0.56282934	      6.32374738	      1.35704743	      7.67890270	     30.91436587	      1.33468612
    601.00000000	     30.10000000	     -0.50887377	      6.36315785	      1.39035011	      7.69849037	     30.90384212	      1.15316640
    602.00000000	     30.15000000	     -0.50682876	      6.37246799	      1.40573228	      7.70222184	     30.90245459	      1.23959607
    603.00000000	     30.20000000	     -0.45383024	      6.41573424	      1.44009954	      7.72942489	     30.93567867	      1.17389249
    604.00000000	     30.25000000	     -0.44478052	      6.42971306	      1.45789654	      7.73745559	     30.93915881	      1.26491874
    605.00000000	     30.30000000	     -0.42336694	      6.45237394	      1.48024180	      7.75352808	     30.96786713	      1.30676673
    606.00000000	     30.35000000	     -0.38059897	      6.50299742	      1.51002969	      7.78709574	     31.03016724	      1.24994533
    607.00000000	     30.40000000	     -0.36392866	      6.53060462	      1.53188391	      7.80459940	     31.05621744	      1.30585766
    608.00000000	     30.45000000	     -0.32604977	      6.59766216	      1.56336541	      7.84725869	     31.14299626	      1.25040799
    609.00000000	     30.50000000	     -0.32763417	      6.60981450	      1.57844700	      7.85300587	     31.15187468	      1.35179916
    610.00000000	     30.55000000	     -0.29902860	      6.63986006	      1.59694291	      7.87654184	     31.22172327	      1.37269025
    611.00000000	     30.60000000	     -0.28944904	      6.66486326	      1.61272823	      7.89077530	     31.25399664	      1.42890933
    612.00000000	     30.65000000	     -0.25945592	      6.76520997	      1.64202386	      7.94481423	     31.40498644	      1.32254706
    613.00000000	     30.70000000	     -0.25466811	      6.77348941	      1.65178096	      7.95118019	     31.41874045	      1.41042123
    614.00000000	     30.75000000	     -0.25372637	      6.78255209	      1.65839419	      7.95708956	     31.42431429	      1.49359997
    615.00000000	     30.80000000	     -0.25210550	      6.79889269	      1.67139039	      7.96717851	     31.43342484	      1.62802849
    616.00000000	     30.85000000	     -0.25177499	      6.81075041	      1.66968247	      7.97097480	     31.46571993	      1.65626508
    617.00000000	     30.90000000	     -0.24989865	      6.81567804	      1.66878173	      7.97478095	     31.47007367	      1.69256563
    618.00000000	     30.95000000	     -0.24824095	      6.82621422	      1.66968288	      7.98233855	     31.47607258	      1.76804758
    619.00000000	     31.00000000	     -0.27098476	      6.90852701	      1.59909077	      7.90938806	     31.79742601	      1.44644817
    620.00000000	     31.05000000	     -0.26857522	      6.91948502	      1.59842713	      7.91918781	     31.80128340	      1.54654783
    621.00000000	     31.10000000	     -0.27180290	      6.93717822	      1.59352176	      7.92992544	     31.81389343	      1.66335182
    622.00000000	     31.15000000	     -0.30427912	      6.89404526	      1.53413802	      7.81611056	     31.96298581	      1.48298402
    623.00000000	     31.20000000	     -0.31112062	      6.90690468	      1.51854308	      7.82466112	     31.96459448	      1.56349203
    624.00000000	     31.25000000	     -0.31062513	      6.91440838	      1.50974410	      7.82626520	     31.96685667	      1.62015501
    625.00000000	     31.30000000	     -0.35194657	      6.88546178	      1.45740313	      7.73747451	     31.99048905	      1.52963034
    626.00000000	     31.35000000	     -0.36757104	      6.85316748	      1.40500300	      7.63679196	     32.08007082	      1.45744612
    627.00000000	     31.40000000	     -0.35737331	      6.85946485	      1.39693867	      7.64287775	     32.08634879	      1.52395903
    628.00000000	     31.45000000	     -0.35452410	      6.86298723	      1.38442415	      7.63973545	     32.08814914	      1.55486232
    629.00000000	     31.50000000	     -0.38175728	      6.82940345	      1.34703805	      7.54985240	     32.07717711	      1.46928686
    630.00000000	     31.55000000	     -0.38570013	      6.77633899	      1.29048623	      7.42209762	     32.13584674	      1.38475898
    631.00000000	     31.60000000	     -0.38019312	      6.78032497	      1.27957653	      7.42115843	     32.13909548	      1.42323657
    632.00000000	     31.65000000	     -0.39212023	      6.74586869	      1.25055966	      7.34635769	     32.10579710	      1.37385476
    633.00000000	     31.70000000	     -0.38220377	      6.74630772	      1.24088175	      7.34343843	     32.10719812	      1.40196666
    634.00000000	     31.75000000	     -0.37060961	      6.74722992	      1.23356224	      7.34383288	     32.09994642	      1.43580448
    635.00000000	     31.80000000	     -0.37861222	      6.70512556	      1.22120924	      7.26176793	     31.99166771	      1.34272793
    636.00000000	     31.85000000	     -0.36614509	      6.67023801	      1.16873902	      7.15797232	     31.91676121	      1.26382153
    637.00000000	     31.90000000	     -0.35873131	      6.67398735	      1.16759727	      7.16170005	     31.91554030	      1.30903299
    638.00000000	     31.95000000	     -0.39536614	      6.65012019	      1.06504153	      7.06016502	     31.94401380	      1.25679465
    639.00000000	     32.00000000	     -0.38728711	      6.65434095	      1.06973636	      7.06555004	     31.94314467	      1.30967555
    640.00000000	     32.05000000	     -0.37822397	      6.65511983	      1.07996003	      7.06865706	     31.93666232	      1.33800926
    641.00000000	     32.10000000	     -0.36606853	      6.65203289	      1.09685448	      7.06895374	     31.91433000	      1.34781645
    642.00000000	     32.15000000	     -0.34380752	      6.63815898	      1.12046338	      7.04702050	     31.75044830	      1.23041831
    643.00000000	     32.20000000	     -0.33546589	      6.64028810	      1.12810965	      7.04703767	     31.75133821	      1.25786300
    644.00000000	     32.25000000	     -0.31876158	      6.63970744	      1.14343458	      7.04429756	     31.74874088	      1.27538076
    645.00000000	     32.30000000	     -0.29994223	      6.64065514	      1.16169853	      7.04117820	     31.74449497	      1.29756385
    646.00000000	     32.35000000	     -0.27314841	      6.64412073	      1.18477786	      7.03653886	     31.73531805	      1.30759812
    647.00000000	     32.40000000	     -0.22622197	      6.69020135	      1.19624264	      7.05489228	     31.63244361	      1.26311490
    648.00000000	     32.45000000	     -0.21687508	      6.69303818	      1.21795346	      7.05418500	     31.63670400	      1.31115945
    649.00000000	     32.50000000	     -0.17100488	      6.71689327	      1.24699391	      7.05251419	     31.64515530	      1.33614633
    650.00000000	     32.55000000	     -0.12762513	      6.73640546	      1.27957238	      7.04984875	     31.66647618	      1.38076119
    651.00000000	     32.60000000	     -0.07445413	      6.79516427	      1.30403815	      7.06136639	     31.70285511	      1.42398058
    652.00000000	     32.65000000	     -0.01937498	      6.84282497	      1.34473323	      7.06981462	     31.73363801	      1.48746667
    653.00000000	     32.70000000	      0.05324504	      6.87016946	      1.39901295	      7.05735301	     31.77840635	      1.56139816
    654.00000000	     32.75000000	      0.18883118	      7.02115266	      1.43937220	      7.08146793	     31.68041286	      1.64446460
    655.00000000	     32.80000000	      0.29125158	      7.05593941	      1.51383956	      7.05134315	     31.77107501	      1.75200782
    656.00000000	     32.85000000	      0.40345760	      7.11454670	      1.59574188	      7.04050961	     31.87699820	      1.88573531
    657.00000000	     32.90000000	      0.53238775	      7.19460746	      1.70919269	      7.04702794	     31.97190033	      2.03829549
    658.00000000	     32.95000000	      0.68892277	      7.25690791	      1.84346636	      7.02353441	     32.05960733	      2.18070423
    659.00000000	     33.00000000	      0.86068731	      7.37498919	      2.01540670	      7.04054261	     32.11413673	      2.36100578
    660.00000000	     33.05000000	      1.03945053	      7.42209481	      2.19604249	      6.99801225	     32.19276971	      2.49790103
    661.00000000	     33.10000000	      1.22747679	      7.51355369	      2.39073071	      6.97746074	     32.29371259	      2.65619396
    662.00000000	     33.15000000	      1.52132842	      7.78963650	      2.75114550	      7.04732357	     32.10322180	      2.85751567
    663.00000000	     33.20000000	      1.70155012	      7.85897402	      3.00193751	      7.03206334	     32.21253843	      3.04221201
    664.00000000	     33.25000000	      1.91510867	      8.06480174	      3.30129038	      7.05551831	     32.26710081	      3.16280606
    665.00000000	     33.30000000	      2.16352856	      8.26840376	      3.79798279	      7.23441112	     32.00736672	      3.26214062
    666.00000000	     33.35000000	      2.32639166	      8.49187720	      4.11150482	      7.23727298	     32.00974068	      3.38678200
    667.00000000	     33.40000000	      2.45876495	      8.65107237	      4.47468897	      7.25318562	     32.05778801	      3.57207691
    668.00000000	     33.45000000	      2.59078772	      9.04779042	      4.84685713	      7.28438982	     31.93594135	      3.55478218
    669.00000000	     33.50000000	      2.69278111	      9.40155698	      5.26577532	      7.33316156	     31.76648296	      3.58382812
    670.00000000	     33.55000000	      2.72949080	      9.70243021	      5.70419360	      7.38385870	     31.68384688	      3.68879795
    671.00000000	     33.60000000	      2.80809808	     10.37626613	      6.14488032	      7.48740028	     31.25612166	      3.48548594
    672.00000000	     33.65000000	      2.71586770	     10.63478810	      6.60199635	      7.55840330	     31.21278345	      3.67161257
    673.00000000	     33.70000000	      2.66460284	     11.29096061	      7.00107865	      7.64663291	     30.94029358	      3.62958795
    674.00000000	     33.75000000	      2.61598759	     11.99961051	      7.45679269	      7.86273674	     30.45933101	      3.51552643
    675.00000000	     33.80000000	      2.42568902	     12.48007981	      7.84673542	      7.93311347	     30.32331546	      3.65834944
    676.00000000	     33.85000000	      2.28339641	     13.27207188	      8.14399404	      8.00091119	     30.00534311	      3.58948270
    677.00000000	     33.90000000	      2.03070503	     13.69823722	      8.50402305	      8.07071749	     29.85609396	      3.68751325
    678.00000000	     33.95000000	      1.80566569	     14.25123397	      8.79664230	      8.14706079	     29.67835273	      3.75201429
    679.00000000	     34.00000000	      1.59913524	     14.83726364	      9.03673293	      8.20250142	     29.45946146	      3.75538364
    680.00000000	     34.05000000	      1.44579888	     15.75192637	      9.12097822	      8.29025169	     29.08675558	      3.57176212
    681.00000000	     34.10000000	      1.25166327	     16.07722250	      9.33389150	      8.34042796	     28.99535236	      3.64074017
    682.00000000	     34.15000000	      1.09680902	     16.42449091	      9.44752152	      8.37559356	     28.87983224	      3.61984766
    683.00000000	     34.20000000	      0.99856867	     16.69548913	      9.51628321	      8.40283683	     28.78411324	      3.60788824
    684.00000000	     34.25000000	      0.94500875	     16.71269248	      9.56717964	      8.39592131	     28.78618505	      3.62707941
