UNKNOWN
version=1
nRows=1054
nColumns=4
inDegrees=no
endheader
time	time	elbow_flex_r	elbow_flex_l
      0.00000000	      0.05000000	     26.02162727	     36.90127185
      1.00000000	      0.10000000	     26.02270648	     36.90193794
      2.00000000	      0.15000000	     26.02364556	     36.90257851
      3.00000000	      0.20000000	     26.02462577	     36.90333822
      4.00000000	      0.25000000	     26.02569535	     36.90428815
      5.00000000	      0.30000000	     26.02690359	     36.90551645
      6.00000000	      0.35000000	     26.02409691	     36.93065915
      7.00000000	      0.40000000	     26.02565639	     36.93201613
      8.00000000	      0.45000000	     26.04698724	     37.03652760
      9.00000000	      0.50000000	     26.04842876	     37.03800691
     10.00000000	      0.55000000	     26.04959114	     37.05376259
     11.00000000	      0.60000000	     26.05096947	     37.05558897
     12.00000000	      0.65000000	     26.04008467	     37.24732023
     13.00000000	      0.70000000	     26.04409402	     37.25692474
     14.00000000	      0.75000000	     26.04533770	     37.25849138
     15.00000000	      0.80000000	     26.00188464	     37.64394106
     16.00000000	      0.85000000	     26.00056712	     37.64467569
     17.00000000	      0.90000000	     25.98321395	     37.65823159
     18.00000000	      0.95000000	     25.94670491	     37.72177032
     19.00000000	      1.00000000	     26.03562695	     37.83155158
     20.00000000	      1.05000000	     26.03396709	     37.83842631
     21.00000000	      1.10000000	     26.01373894	     37.86108768
     22.00000000	      1.15000000	     25.99007604	     37.91136009
     23.00000000	      1.20000000	     25.99174178	     37.91264488
     24.00000000	      1.25000000	     25.99087200	     37.95957727
     25.00000000	      1.30000000	     25.95627019	     38.11772839
     26.00000000	      1.35000000	     25.96528481	     38.12765571
     27.00000000	      1.40000000	     25.95909394	     38.13344561
     28.00000000	      1.45000000	     25.95068107	     38.14851194
     29.00000000	      1.50000000	     25.96167215	     38.17314203
     30.00000000	      1.55000000	     25.93436650	     38.28295873
     31.00000000	      1.60000000	     25.95744931	     38.29809760
     32.00000000	      1.65000000	     25.95443305	     38.32513089
     33.00000000	      1.70000000	     25.98503025	     38.34182268
     34.00000000	      1.75000000	     25.99333347	     38.37754958
     35.00000000	      1.80000000	     26.03968417	     38.37876089
     36.00000000	      1.85000000	     26.03583833	     38.47678385
     37.00000000	      1.90000000	     26.09466238	     38.45263592
     38.00000000	      1.95000000	     26.15098011	     38.41432111
     39.00000000	      2.00000000	     26.21859073	     38.38193694
     40.00000000	      2.05000000	     26.32275881	     38.47397515
     41.00000000	      2.10000000	     26.36591666	     38.66520614
     42.00000000	      2.15000000	     26.46310518	     38.60675820
     43.00000000	      2.20000000	     26.57259826	     38.57253659
     44.00000000	      2.25000000	     26.74628029	     38.62335408
     45.00000000	      2.30000000	     26.85649077	     38.79937916
     46.00000000	      2.35000000	     26.87894796	     38.75676747
     47.00000000	      2.40000000	     27.15050937	     38.63695474
     48.00000000	      2.45000000	     27.31622119	     38.57393696
     49.00000000	      2.50000000	     27.33253884	     38.52487155
     50.00000000	      2.55000000	     27.59189432	     38.38680769
     51.00000000	      2.60000000	     27.70647362	     38.28166458
     52.00000000	      2.65000000	     27.77884787	     38.18278355
     53.00000000	      2.70000000	     27.80430519	     37.99069775
     54.00000000	      2.75000000	     27.84872502	     37.87915143
     55.00000000	      2.80000000	     27.83292857	     37.66180146
     56.00000000	      2.85000000	     27.73467682	     37.40254445
     57.00000000	      2.90000000	     27.62926873	     37.21343580
     58.00000000	      2.95000000	     27.55634859	     37.08362486
     59.00000000	      3.00000000	     27.33620667	     36.77353043
     60.00000000	      3.05000000	     27.02959937	     36.73481707
     61.00000000	      3.10000000	     26.88453768	     36.54851094
     62.00000000	      3.15000000	     26.70396677	     36.37050930
     63.00000000	      3.20000000	     26.47392777	     36.15492654
     64.00000000	      3.25000000	     26.47408008	     36.21022893
     65.00000000	      3.30000000	     26.00458283	     35.76038288
     66.00000000	      3.35000000	     25.86267688	     35.69922927
     67.00000000	      3.40000000	     25.62843978	     35.47554054
     68.00000000	      3.45000000	     25.61349172	     35.32587200
     69.00000000	      3.50000000	     25.49871587	     35.30512039
     70.00000000	      3.55000000	     25.40144467	     35.15368040
     71.00000000	      3.60000000	     25.43464127	     35.00647210
     72.00000000	      3.65000000	     25.41030949	     35.04402470
     73.00000000	      3.70000000	     25.54632437	     34.85690201
     74.00000000	      3.75000000	     25.66876207	     34.82139740
     75.00000000	      3.80000000	     25.78991147	     34.91763169
     76.00000000	      3.85000000	     25.97486395	     34.98565069
     77.00000000	      3.90000000	     26.30927083	     34.78952053
     78.00000000	      3.95000000	     26.59241446	     34.90878879
     79.00000000	      4.00000000	     26.89030338	     35.13667234
     80.00000000	      4.05000000	     27.27017852	     35.24349368
     81.00000000	      4.10000000	     27.69820832	     35.43246823
     82.00000000	      4.15000000	     28.00263895	     35.82456514
     83.00000000	      4.20000000	     28.41359662	     36.21854565
     84.00000000	      4.25000000	     28.98124983	     36.35216540
     85.00000000	      4.30000000	     29.34061145	     36.85687957
     86.00000000	      4.35000000	     29.87592263	     37.19568909
     87.00000000	      4.40000000	     30.25125481	     37.67193231
     88.00000000	      4.45000000	     30.55002066	     38.19193464
     89.00000000	      4.50000000	     30.96739255	     38.66291501
     90.00000000	      4.55000000	     31.20225884	     39.15315748
     91.00000000	      4.60000000	     31.41960726	     39.64336721
     92.00000000	      4.65000000	     31.58875914	     40.06362477
     93.00000000	      4.70000000	     31.73591298	     40.40748173
     94.00000000	      4.75000000	     31.69092857	     40.70671116
     95.00000000	      4.80000000	     31.77110268	     40.95284158
     96.00000000	      4.85000000	     31.96280132	     41.16871251
     97.00000000	      4.90000000	     31.50827604	     41.11791495
     98.00000000	      4.95000000	     31.35497003	     41.05015473
     99.00000000	      5.00000000	     31.49315721	     41.17097888
    100.00000000	      5.05000000	     30.89591307	     40.53839278
    101.00000000	      5.10000000	     31.02677045	     40.63267194
    102.00000000	      5.15000000	     30.36498183	     39.68267744
    103.00000000	      5.20000000	     29.94519383	     39.03714237
    104.00000000	      5.25000000	     29.69287819	     38.39372821
    105.00000000	      5.30000000	     29.32675321	     37.55967933
    106.00000000	      5.35000000	     28.93873273	     36.63920841
    107.00000000	      5.40000000	     28.63429721	     35.70493430
    108.00000000	      5.45000000	     28.37676363	     34.87688250
    109.00000000	      5.50000000	     27.99691064	     33.88751616
    110.00000000	      5.55000000	     27.79819440	     32.85872505
    111.00000000	      5.60000000	     27.47135085	     31.99448243
    112.00000000	      5.65000000	     27.28480838	     31.14449275
    113.00000000	      5.70000000	     26.98271376	     30.39209884
    114.00000000	      5.75000000	     26.68999537	     29.66254949
    115.00000000	      5.80000000	     26.42686912	     28.87933223
    116.00000000	      5.85000000	     26.24686072	     28.24633908
    117.00000000	      5.90000000	     26.29110726	     27.76973728
    118.00000000	      5.95000000	     26.13489129	     27.35438746
    119.00000000	      6.00000000	     26.02851238	     26.96730381
    120.00000000	      6.05000000	     25.83483010	     26.54047774
    121.00000000	      6.10000000	     25.77160499	     26.07887155
    122.00000000	      6.15000000	     25.60103563	     25.69301762
    123.00000000	      6.20000000	     25.44448465	     25.31837109
    124.00000000	      6.25000000	     25.26762166	     24.88649795
    125.00000000	      6.30000000	     25.44129289	     24.92697902
    126.00000000	      6.35000000	     24.88258421	     23.93113571
    127.00000000	      6.40000000	     24.65378117	     23.39229231
    128.00000000	      6.45000000	     24.64915817	     23.13716002
    129.00000000	      6.50000000	     24.13334359	     22.19124273
    130.00000000	      6.55000000	     24.24140263	     22.00574285
    131.00000000	      6.60000000	     23.40973418	     20.71922027
    132.00000000	      6.65000000	     22.98486156	     19.91617105
    133.00000000	      6.70000000	     22.59507173	     19.14516926
    134.00000000	      6.75000000	     22.13186628	     18.32001116
    135.00000000	      6.80000000	     21.68792925	     17.50048385
    136.00000000	      6.85000000	     21.53023926	     16.97322552
    137.00000000	      6.90000000	     20.70770125	     16.09170114
    138.00000000	      6.95000000	     20.31806467	     15.35569675
    139.00000000	      7.00000000	     20.19650675	     14.91347718
    140.00000000	      7.05000000	     19.52070749	     13.95900579
    141.00000000	      7.10000000	     19.31994489	     13.48390915
    142.00000000	      7.15000000	     19.04897597	     12.96142418
    143.00000000	      7.20000000	     18.77561319	     12.47768198
    144.00000000	      7.25000000	     18.54378160	     12.06298238
    145.00000000	      7.30000000	     18.66350994	     12.12516601
    146.00000000	      7.35000000	     18.36506063	     11.65417404
    147.00000000	      7.40000000	     17.99486803	     11.15876943
    148.00000000	      7.45000000	     18.01654897	     11.16617089
    149.00000000	      7.50000000	     17.96823395	     11.11143499
    150.00000000	      7.55000000	     17.92450979	     11.07351365
    151.00000000	      7.60000000	     17.91605723	     11.49494094
    152.00000000	      7.65000000	     17.82807407	     11.46849990
    153.00000000	      7.70000000	     18.16324172	     11.95849851
    154.00000000	      7.75000000	     18.33093346	     12.29296959
    155.00000000	      7.80000000	     18.17531122	     12.26900154
    156.00000000	      7.85000000	     18.27726904	     12.56753047
    157.00000000	      7.90000000	     18.43214517	     12.93915691
    158.00000000	      7.95000000	     18.66250186	     13.41375878
    159.00000000	      8.00000000	     19.59718220	     14.75063180
    160.00000000	      8.05000000	     19.45339291	     14.80017289
    161.00000000	      8.10000000	     20.68046148	     16.28314941
    162.00000000	      8.15000000	     20.98546920	     16.86835489
    163.00000000	      8.20000000	     21.32387183	     17.44197837
    164.00000000	      8.25000000	     21.32011168	     17.64301570
    165.00000000	      8.30000000	     21.94298051	     18.53990203
    166.00000000	      8.35000000	     21.98247082	     18.81620103
    167.00000000	      8.40000000	     22.85155059	     20.10108748
    168.00000000	      8.45000000	     22.71159527	     20.21251115
    169.00000000	      8.50000000	     23.62192826	     21.38064656
    170.00000000	      8.55000000	     23.74778324	     21.91614145
    171.00000000	      8.60000000	     24.17986956	     22.95086113
    172.00000000	      8.65000000	     24.11535072	     23.27629855
    173.00000000	      8.70000000	     24.58815772	     24.46903946
    174.00000000	      8.75000000	     24.88311542	     25.38404647
    175.00000000	      8.80000000	     24.98129074	     25.89821073
    176.00000000	      8.85000000	     25.49252331	     27.09226147
    177.00000000	      8.90000000	     25.80516548	     28.04528123
    178.00000000	      8.95000000	     25.96388752	     28.82101106
    179.00000000	      9.00000000	     26.41364265	     29.63463615
    180.00000000	      9.05000000	     26.94701664	     30.63262825
    181.00000000	      9.10000000	     27.20808771	     31.95274131
    182.00000000	      9.15000000	     27.83726096	     32.90052988
    183.00000000	      9.20000000	     28.33063557	     33.57469300
    184.00000000	      9.25000000	     28.85143795	     34.84302490
    185.00000000	      9.30000000	     29.56864862	     35.68348350
    186.00000000	      9.35000000	     30.29936388	     36.54414390
    187.00000000	      9.40000000	     30.90655361	     37.17926005
    188.00000000	      9.45000000	     31.28151451	     37.94539135
    189.00000000	      9.50000000	     31.96858762	     38.56789743
    190.00000000	      9.55000000	     32.38807133	     39.11702800
    191.00000000	      9.60000000	     32.73785750	     39.30036114
    192.00000000	      9.65000000	     33.33602077	     39.83709363
    193.00000000	      9.70000000	     33.47508327	     40.15787676
    194.00000000	      9.75000000	     33.22368200	     39.84174961
    195.00000000	      9.80000000	     33.13149375	     39.61927773
    196.00000000	      9.85000000	     33.81590628	     40.50228398
    197.00000000	      9.90000000	     33.42837164	     40.44343698
    198.00000000	      9.95000000	     33.16276197	     40.15358073
    199.00000000	     10.00000000	     32.89453596	     39.88367025
    200.00000000	     10.05000000	     32.60345769	     39.63746673
    201.00000000	     10.10000000	     32.23287181	     39.46536490
    202.00000000	     10.15000000	     31.64842182	     39.87776499
    203.00000000	     10.20000000	     31.42121842	     39.66236870
    204.00000000	     10.25000000	     30.71190889	     39.55902547
    205.00000000	     10.30000000	     30.52470404	     39.42009040
    206.00000000	     10.35000000	     29.96109888	     39.35507907
    207.00000000	     10.40000000	     29.81877888	     39.27340180
    208.00000000	     10.45000000	     29.66432454	     39.21982111
    209.00000000	     10.50000000	     29.58414509	     39.19369095
    210.00000000	     10.55000000	     29.17631394	     39.32859474
    211.00000000	     10.60000000	     29.13949506	     39.33306061
    212.00000000	     10.65000000	     29.11064307	     39.35198027
    213.00000000	     10.70000000	     28.94814402	     39.82003362
    214.00000000	     10.75000000	     28.95361583	     39.84293351
    215.00000000	     10.80000000	     28.96928637	     39.87778165
    216.00000000	     10.85000000	     29.06571485	     40.14724369
    217.00000000	     10.90000000	     29.08598749	     40.17862597
    218.00000000	     10.95000000	     29.14716433	     40.26458709
    219.00000000	     11.00000000	     29.16742351	     40.29173272
    220.00000000	     11.05000000	     29.19325506	     40.32735905
    221.00000000	     11.10000000	     29.55920715	     40.46435301
    222.00000000	     11.15000000	     29.56402528	     40.47535819
    223.00000000	     11.20000000	     29.56558004	     40.48916387
    224.00000000	     11.25000000	     29.56688697	     40.49117342
    225.00000000	     11.30000000	     29.69217822	     40.25568586
    226.00000000	     11.35000000	     29.66866284	     40.24203181
    227.00000000	     11.40000000	     29.64354813	     40.21165724
    228.00000000	     11.45000000	     29.61709649	     40.15723669
    229.00000000	     11.50000000	     29.61643479	     40.05520491
    230.00000000	     11.55000000	     29.60312782	     40.02745224
    231.00000000	     11.60000000	     29.64884780	     39.82426560
    232.00000000	     11.65000000	     29.63425443	     39.79299031
    233.00000000	     11.70000000	     29.76224468	     39.52730437
    234.00000000	     11.75000000	     29.74255369	     39.50560010
    235.00000000	     11.80000000	     29.71370686	     39.47340859
    236.00000000	     11.85000000	     29.68057473	     39.42907461
    237.00000000	     11.90000000	     29.76617415	     39.35034391
    238.00000000	     11.95000000	     29.85410758	     39.32184545
    239.00000000	     12.00000000	     29.84871076	     39.30515312
    240.00000000	     12.05000000	     29.87513871	     39.29542120
    241.00000000	     12.10000000	     29.88837832	     39.30030662
    242.00000000	     12.15000000	     29.98853521	     39.36592269
    243.00000000	     12.20000000	     29.99106707	     39.36835144
    244.00000000	     12.25000000	     30.23308134	     39.63653947
    245.00000000	     12.30000000	     30.25297114	     39.65572917
    246.00000000	     12.35000000	     30.25468197	     39.65769892
    247.00000000	     12.40000000	     30.33103555	     39.74632472
    248.00000000	     12.45000000	     30.33331654	     39.75020263
    249.00000000	     12.50000000	     30.66476627	     40.31383764
    250.00000000	     12.55000000	     30.68727987	     40.34984693
    251.00000000	     12.60000000	     30.69731107	     40.37003413
    252.00000000	     12.65000000	     30.74443740	     40.43714393
    253.00000000	     12.70000000	     30.93791519	     40.78318090
    254.00000000	     12.75000000	     30.93873088	     40.78493449
    255.00000000	     12.80000000	     30.94308451	     40.79208982
    256.00000000	     12.85000000	     30.94729795	     40.79952193
    257.00000000	     12.90000000	     30.95138107	     40.80528832
    258.00000000	     12.95000000	     30.99327456	     40.87025326
    259.00000000	     13.00000000	     30.99491356	     40.87267623
    260.00000000	     13.05000000	     30.99739967	     40.87699471
    261.00000000	     13.10000000	     31.00014501	     40.88058414
    262.00000000	     13.15000000	     31.28891909	     41.08148396
    263.00000000	     13.20000000	     31.28940121	     41.08254107
    264.00000000	     13.25000000	     31.27994622	     41.08564602
    265.00000000	     13.30000000	     31.28082744	     41.08692597
    266.00000000	     13.35000000	     31.28164178	     41.08881007
    267.00000000	     13.40000000	     31.27472780	     41.09840671
    268.00000000	     13.45000000	     31.27529584	     41.09910362
    269.00000000	     13.50000000	     31.27616234	     41.10085740
    270.00000000	     13.55000000	     31.26711559	     41.11482200
    271.00000000	     13.60000000	     31.26846853	     41.11655876
    272.00000000	     13.65000000	     31.23874780	     41.13035376
    273.00000000	     13.70000000	     31.01489279	     40.94221688
    274.00000000	     13.75000000	     31.01569563	     40.94341744
    275.00000000	     13.80000000	     30.97723820	     40.96921318
    276.00000000	     13.85000000	     30.97800328	     40.97046543
    277.00000000	     13.90000000	     30.95787427	     40.98896592
    278.00000000	     13.95000000	     30.44338237	     40.80968094
    279.00000000	     14.00000000	     30.44863695	     40.81909008
    280.00000000	     14.05000000	     30.44664576	     40.83272426
    281.00000000	     14.10000000	     30.44748780	     40.83450105
    282.00000000	     14.15000000	     30.43314849	     40.85118116
    283.00000000	     14.20000000	     30.38166331	     40.86684444
    284.00000000	     14.25000000	     30.35612439	     40.86706256
    285.00000000	     14.30000000	     29.69154939	     40.72918992
    286.00000000	     14.35000000	     29.69768010	     40.72839814
    287.00000000	     14.40000000	     29.69290996	     40.72567354
    288.00000000	     14.45000000	     29.69343549	     40.72550848
    289.00000000	     14.50000000	     29.64231529	     40.70784570
    290.00000000	     14.55000000	     29.11229527	     40.55714110
    291.00000000	     14.60000000	     29.12056182	     40.55472687
    292.00000000	     14.65000000	     29.11806362	     40.54652535
    293.00000000	     14.70000000	     29.12025933	     40.54673209
    294.00000000	     14.75000000	     29.10844112	     40.53374972
    295.00000000	     14.80000000	     29.10944102	     40.53308162
    296.00000000	     14.85000000	     28.91786888	     40.23510483
    297.00000000	     14.90000000	     28.92015834	     40.23551255
    298.00000000	     14.95000000	     28.91465637	     40.22658120
    299.00000000	     15.00000000	     28.91568719	     40.22614942
    300.00000000	     15.05000000	     28.89511214	     40.20350755
    301.00000000	     15.10000000	     28.89577562	     40.20302834
    302.00000000	     15.15000000	     28.89626038	     40.20148806
    303.00000000	     15.20000000	     28.85902721	     40.16252426
    304.00000000	     15.25000000	     28.85894099	     40.16165623
    305.00000000	     15.30000000	     28.85855785	     40.15971623
    306.00000000	     15.35000000	     28.85775980	     40.15693813
    307.00000000	     15.40000000	     28.43466935	     39.80134448
    308.00000000	     15.45000000	     28.43522998	     39.80082369
    309.00000000	     15.50000000	     28.41773239	     39.77720944
    310.00000000	     15.55000000	     28.41824269	     39.77738186
    311.00000000	     15.60000000	     28.41862251	     39.77770584
    312.00000000	     15.65000000	     28.38607960	     39.73255830
    313.00000000	     15.70000000	     28.38621791	     39.73306704
    314.00000000	     15.75000000	     28.35696256	     39.69375656
    315.00000000	     15.80000000	     28.35760232	     39.69468412
    316.00000000	     15.85000000	     28.35713735	     39.69738967
    317.00000000	     15.90000000	     28.38749271	     39.71204141
    318.00000000	     15.95000000	     28.38745780	     39.71641073
    319.00000000	     16.00000000	     28.38836299	     39.72074955
    320.00000000	     16.05000000	     28.59476553	     40.05662095
    321.00000000	     16.10000000	     28.59462137	     40.06059997
    322.00000000	     16.15000000	     28.59551085	     40.06504674
    323.00000000	     16.20000000	     28.61660930	     40.10490404
    324.00000000	     16.25000000	     28.61988905	     40.10931115
    325.00000000	     16.30000000	     28.62391919	     40.11487063
    326.00000000	     16.35000000	     28.92635241	     40.44345654
    327.00000000	     16.40000000	     28.92871470	     40.44699207
    328.00000000	     16.45000000	     28.93122492	     40.45166132
    329.00000000	     16.50000000	     29.21972242	     40.67928071
    330.00000000	     16.55000000	     29.22142098	     40.68193190
    331.00000000	     16.60000000	     29.22217665	     40.68986809
    332.00000000	     16.65000000	     29.22453104	     40.69222194
    333.00000000	     16.70000000	     29.23550162	     40.69999281
    334.00000000	     16.75000000	     29.23897842	     40.70242362
    335.00000000	     16.80000000	     29.64657281	     40.61148803
    336.00000000	     16.85000000	     29.64859878	     40.61396599
    337.00000000	     16.90000000	     29.65397330	     40.62045392
    338.00000000	     16.95000000	     29.65680824	     40.62218688
    339.00000000	     17.00000000	     30.00608839	     40.28951656
    340.00000000	     17.05000000	     30.00812279	     40.29156131
    341.00000000	     17.10000000	     30.01309890	     40.29520403
    342.00000000	     17.15000000	     30.14530863	     40.06660518
    343.00000000	     17.20000000	     30.14726488	     40.06852072
    344.00000000	     17.25000000	     30.15142918	     40.07058695
    345.00000000	     17.30000000	     30.17364914	     40.05398203
    346.00000000	     17.35000000	     30.17596881	     40.05395816
    347.00000000	     17.40000000	     30.20170286	     40.01750693
    348.00000000	     17.45000000	     30.20387074	     40.01691337
    349.00000000	     17.50000000	     30.20588315	     40.01627097
    350.00000000	     17.55000000	     30.20838336	     40.01513287
    351.00000000	     17.60000000	     30.42418291	     39.38347273
    352.00000000	     17.65000000	     30.42465494	     39.38396799
    353.00000000	     17.70000000	     30.42508893	     39.38458764
    354.00000000	     17.75000000	     30.42550731	     39.38533356
    355.00000000	     17.80000000	     30.42160609	     39.38817692
    356.00000000	     17.85000000	     30.42208959	     39.38849577
    357.00000000	     17.90000000	     30.42249209	     39.38888426
    358.00000000	     17.95000000	     30.41325788	     39.39026116
    359.00000000	     18.00000000	     30.41397288	     39.39082193
    360.00000000	     18.05000000	     30.41458220	     39.39139536
    361.00000000	     18.10000000	     30.41816162	     39.42464784
    362.00000000	     18.15000000	     30.41897263	     39.42557028
    363.00000000	     18.20000000	     30.41972919	     39.42651770
    364.00000000	     18.25000000	     30.42037718	     39.42739263
    365.00000000	     18.30000000	     30.45343299	     39.58234555
    366.00000000	     18.35000000	     30.45448644	     39.58370483
    367.00000000	     18.40000000	     30.45534266	     39.58483297
    368.00000000	     18.45000000	     30.45625963	     39.58631254
    369.00000000	     18.50000000	     30.45705231	     39.58783774
    370.00000000	     18.55000000	     30.45317638	     39.61160562
    371.00000000	     18.60000000	     30.45400205	     39.61328048
    372.00000000	     18.65000000	     30.45478988	     39.61495469
    373.00000000	     18.70000000	     30.45550721	     39.61661666
    374.00000000	     18.75000000	     30.44199414	     39.68411458
    375.00000000	     18.80000000	     30.44299616	     39.68629965
    376.00000000	     18.85000000	     30.44379522	     39.68813169
    377.00000000	     18.90000000	     30.44449504	     39.68986837
    378.00000000	     18.95000000	     30.43068286	     39.79411390
    379.00000000	     19.00000000	     30.43156566	     39.79568514
    380.00000000	     19.05000000	     30.43219729	     39.79690078
    381.00000000	     19.10000000	     30.43285784	     39.79823509
    382.00000000	     19.15000000	     30.51677362	     40.47181116
    383.00000000	     19.20000000	     30.51728351	     40.47231491
    384.00000000	     19.25000000	     30.51418007	     40.47434451
    385.00000000	     19.30000000	     30.51480644	     40.47484213
    386.00000000	     19.35000000	     30.51604145	     40.47580400
    387.00000000	     19.40000000	     30.51752097	     40.47684072
    388.00000000	     19.45000000	     30.51911928	     40.47782180
    389.00000000	     19.50000000	     30.52080805	     40.47870125
    390.00000000	     19.55000000	     30.52262706	     40.47948626
    391.00000000	     19.60000000	     30.52461203	     40.48018726
    392.00000000	     19.65000000	     30.52679739	     40.48081854
    393.00000000	     19.70000000	     30.52921394	     40.48139449
    394.00000000	     19.75000000	     30.53189003	     40.48192831
    395.00000000	     19.80000000	     30.53484937	     40.48242852
    396.00000000	     19.85000000	     30.53811562	     40.48290025
    397.00000000	     19.90000000	     30.89209097	     40.28508208
    398.00000000	     19.95000000	     30.89366097	     40.28589247
    399.00000000	     20.00000000	     30.89527287	     40.28689315
    400.00000000	     20.05000000	     30.89713495	     40.28794692
    401.00000000	     20.10000000	     30.94604258	     40.26150476
    402.00000000	     20.15000000	     30.94778205	     40.26132497
    403.00000000	     20.20000000	     30.94949850	     40.26115373
    404.00000000	     20.25000000	     31.07250878	     39.75514646
    405.00000000	     20.30000000	     31.07368347	     39.75595385
    406.00000000	     20.35000000	     31.07488115	     39.75672519
    407.00000000	     20.40000000	     31.10902870	     39.63912516
    408.00000000	     20.45000000	     31.11005731	     39.63891480
    409.00000000	     20.50000000	     31.11114356	     39.63856221
    410.00000000	     20.55000000	     31.10541279	     39.07976006
    411.00000000	     20.60000000	     31.10667007	     39.08066412
    412.00000000	     20.65000000	     31.12727014	     39.08143294
    413.00000000	     20.70000000	     31.12847899	     39.08168689
    414.00000000	     20.75000000	     31.15485332	     39.00488100
    415.00000000	     20.80000000	     31.15573337	     39.00465228
    416.00000000	     20.85000000	     31.15689248	     39.00402481
    417.00000000	     20.90000000	     31.16336164	     38.79847194
    418.00000000	     20.95000000	     31.16390337	     38.79804822
    419.00000000	     21.00000000	     31.16526302	     38.79827039
    420.00000000	     21.05000000	     31.21332140	     38.49199896
    421.00000000	     21.10000000	     31.21444755	     38.49300012
    422.00000000	     21.15000000	     31.21569734	     38.49420484
    423.00000000	     21.20000000	     31.21718907	     38.49567641
    424.00000000	     21.25000000	     31.22023212	     38.49605140
    425.00000000	     21.30000000	     31.22176038	     38.49693069
    426.00000000	     21.35000000	     31.22314365	     38.49796987
    427.00000000	     21.40000000	     31.22432037	     38.49908744
    428.00000000	     21.45000000	     31.22525516	     38.50029063
    429.00000000	     21.50000000	     31.22578326	     38.50138866
    430.00000000	     21.55000000	     31.35887876	     38.35079192
    431.00000000	     21.60000000	     31.35957225	     38.35174366
    432.00000000	     21.65000000	     31.35811283	     38.35605501
    433.00000000	     21.70000000	     31.35878724	     38.35698651
    434.00000000	     21.75000000	     31.36248546	     38.38026328
    435.00000000	     21.80000000	     31.36356195	     38.38158461
    436.00000000	     21.85000000	     31.36562788	     38.38920919
    437.00000000	     21.90000000	     31.36703258	     38.39137070
    438.00000000	     21.95000000	     31.39870484	     38.45872365
    439.00000000	     22.00000000	     31.40104949	     38.46254550
    440.00000000	     22.05000000	     31.40346249	     38.46903044
    441.00000000	     22.10000000	     31.45125452	     38.57737026
    442.00000000	     22.15000000	     31.45350414	     38.58005864
    443.00000000	     22.20000000	     31.45871957	     38.59313996
    444.00000000	     22.25000000	     31.46046571	     38.59587296
    445.00000000	     22.30000000	     31.46507368	     38.61834452
    446.00000000	     22.35000000	     31.70107004	     39.06599477
    447.00000000	     22.40000000	     31.70204824	     39.06671566
    448.00000000	     22.45000000	     31.70287458	     39.06759680
    449.00000000	     22.50000000	     31.69880901	     39.07192031
    450.00000000	     22.55000000	     31.68876911	     39.15309610
    451.00000000	     22.60000000	     31.68971516	     39.15448663
    452.00000000	     22.65000000	     31.70530150	     39.39243881
    453.00000000	     22.70000000	     31.70581581	     39.39246746
    454.00000000	     22.75000000	     31.70650754	     39.39293979
    455.00000000	     22.80000000	     31.70499926	     39.39233040
    456.00000000	     22.85000000	     31.70549859	     39.39295668
    457.00000000	     22.90000000	     31.62663614	     39.68025258
    458.00000000	     22.95000000	     31.62699248	     39.68043196
    459.00000000	     23.00000000	     31.62749447	     39.68051228
    460.00000000	     23.05000000	     31.62562521	     39.67521921
    461.00000000	     23.10000000	     31.62602225	     39.67532742
    462.00000000	     23.15000000	     31.62237386	     39.66782570
    463.00000000	     23.20000000	     31.62278207	     39.66798786
    464.00000000	     23.25000000	     31.61610546	     39.64739497
    465.00000000	     23.30000000	     31.61689856	     39.64767173
    466.00000000	     23.35000000	     31.61808453	     39.64794186
    467.00000000	     23.40000000	     31.61936925	     39.64814047
    468.00000000	     23.45000000	     31.62169891	     39.65338288
    469.00000000	     23.50000000	     31.62262079	     39.65432077
    470.00000000	     23.55000000	     31.62347423	     39.65496285
    471.00000000	     23.60000000	     31.64211372	     39.65920952
    472.00000000	     23.65000000	     31.64296805	     39.65965744
    473.00000000	     23.70000000	     31.64403738	     39.66020195
    474.00000000	     23.75000000	     31.64538486	     39.66089475
    475.00000000	     23.80000000	     31.64705273	     39.66176923
    476.00000000	     23.85000000	     31.74267998	     39.54872850
    477.00000000	     23.90000000	     31.74342449	     39.54913397
    478.00000000	     23.95000000	     31.74447385	     39.54976651
    479.00000000	     24.00000000	     31.74584747	     39.55062544
    480.00000000	     24.05000000	     31.74762189	     39.55173973
    481.00000000	     24.10000000	     31.80804995	     39.56576195
    482.00000000	     24.15000000	     31.80930065	     39.56611602
    483.00000000	     24.20000000	     31.81077365	     39.56661895
    484.00000000	     24.25000000	     32.10017885	     39.24384239
    485.00000000	     24.30000000	     32.10115299	     39.24475716
    486.00000000	     24.35000000	     32.10238015	     39.24593733
    487.00000000	     24.40000000	     32.13093809	     39.25456096
    488.00000000	     24.45000000	     32.13263438	     39.25539980
    489.00000000	     24.50000000	     32.13499659	     39.25689401
    490.00000000	     24.55000000	     32.13779667	     39.25872273
    491.00000000	     24.60000000	     32.17316308	     39.25794782
    492.00000000	     24.65000000	     32.17540111	     39.25857837
    493.00000000	     24.70000000	     32.17807578	     39.25972423
    494.00000000	     24.75000000	     32.18179772	     39.26126057
    495.00000000	     24.80000000	     32.21559673	     39.25132013
    496.00000000	     24.85000000	     32.21820448	     39.25118628
    497.00000000	     24.90000000	     32.22090198	     39.25139367
    498.00000000	     24.95000000	     32.22384975	     39.25181936
    499.00000000	     25.00000000	     32.54789220	     38.67989928
    500.00000000	     25.05000000	     32.54899916	     38.68114264
    501.00000000	     25.10000000	     32.55018276	     38.68255425
    502.00000000	     25.15000000	     32.55447638	     38.67383096
    503.00000000	     25.20000000	     32.55606830	     38.67392375
    504.00000000	     25.25000000	     32.55760388	     38.67328972
    505.00000000	     25.30000000	     32.58519226	     38.41731900
    506.00000000	     25.35000000	     32.58579579	     38.41725767
    507.00000000	     25.40000000	     32.57996655	     38.40054544
    508.00000000	     25.45000000	     32.58093866	     38.39957621
    509.00000000	     25.50000000	     32.55249952	     37.85161973
    510.00000000	     25.55000000	     32.55358640	     37.85197559
    511.00000000	     25.60000000	     32.55129494	     37.83813373
    512.00000000	     25.65000000	     32.55212784	     37.83764038
    513.00000000	     25.70000000	     32.54299208	     37.69093548
    514.00000000	     25.75000000	     32.54386180	     37.69060028
    515.00000000	     25.80000000	     32.54469098	     37.68973549
    516.00000000	     25.85000000	     32.52441080	     37.63971516
    517.00000000	     25.90000000	     32.52520086	     37.63867150
    518.00000000	     25.95000000	     32.43679242	     37.24187967
    519.00000000	     26.00000000	     32.43713881	     37.24217717
    520.00000000	     26.05000000	     32.43757599	     37.24234907
    521.00000000	     26.10000000	     32.41124758	     37.22929240
    522.00000000	     26.15000000	     32.41228686	     37.22984044
    523.00000000	     26.20000000	     32.41329368	     37.23054126
    524.00000000	     26.25000000	     32.41419843	     37.23155148
    525.00000000	     26.30000000	     32.40741217	     37.23986663
    526.00000000	     26.35000000	     32.40847900	     37.24178815
    527.00000000	     26.40000000	     32.40949138	     37.24432775
    528.00000000	     26.45000000	     32.59514971	     37.64970224
    529.00000000	     26.50000000	     32.59628299	     37.65132898
    530.00000000	     26.55000000	     32.59755799	     37.65400141
    531.00000000	     26.60000000	     32.63384390	     37.76660287
    532.00000000	     26.65000000	     32.63559245	     37.76931880
    533.00000000	     26.70000000	     32.63740076	     37.77332476
    534.00000000	     26.75000000	     32.91754740	     38.47241513
    535.00000000	     26.80000000	     32.91789727	     38.47313000
    536.00000000	     26.85000000	     32.92346426	     38.50484048
    537.00000000	     26.90000000	     32.92390960	     38.50579378
    538.00000000	     26.95000000	     32.97617653	     38.69293916
    539.00000000	     27.00000000	     32.97695996	     38.69411725
    540.00000000	     27.05000000	     33.00655763	     38.74766855
    541.00000000	     27.10000000	     33.00827354	     38.75090859
    542.00000000	     27.15000000	     33.01295237	     38.75787899
    543.00000000	     27.20000000	     33.13636235	     39.13065179
    544.00000000	     27.25000000	     33.13820771	     39.13277455
    545.00000000	     27.30000000	     33.14589318	     39.13896485
    546.00000000	     27.35000000	     33.14690995	     39.14031837
    547.00000000	     27.40000000	     33.14241422	     39.14184395
    548.00000000	     27.45000000	     33.14274866	     39.14263515
    549.00000000	     27.50000000	     33.11316838	     39.12683417
    550.00000000	     27.55000000	     33.11283562	     39.12709309
    551.00000000	     27.60000000	     33.09976094	     39.11882973
    552.00000000	     27.65000000	     33.09112121	     39.11685767
    553.00000000	     27.70000000	     32.87805327	     38.95516625
    554.00000000	     27.75000000	     32.87661300	     38.95756381
    555.00000000	     27.80000000	     32.87703390	     38.95840007
    556.00000000	     27.85000000	     32.87291569	     38.96473590
    557.00000000	     27.90000000	     32.87346244	     38.96567617
    558.00000000	     27.95000000	     32.85388560	     38.98333083
    559.00000000	     28.00000000	     32.85371224	     38.98398353
    560.00000000	     28.05000000	     32.85330030	     38.98520409
    561.00000000	     28.10000000	     32.64608597	     38.87352812
    562.00000000	     28.15000000	     32.64696238	     38.87505728
    563.00000000	     28.20000000	     32.64800177	     38.88459671
    564.00000000	     28.25000000	     32.64865616	     38.88588583
    565.00000000	     28.30000000	     32.65647902	     38.93169073
    566.00000000	     28.35000000	     32.65722619	     38.93261386
    567.00000000	     28.40000000	     32.65818358	     38.93431121
    568.00000000	     28.45000000	     32.66095257	     38.96081722
    569.00000000	     28.50000000	     32.66193896	     38.96177922
    570.00000000	     28.55000000	     32.66565491	     38.97074365
    571.00000000	     28.60000000	     32.66653152	     38.97167183
    572.00000000	     28.65000000	     32.66843439	     38.97937794
    573.00000000	     28.70000000	     32.66941074	     38.98044828
    574.00000000	     28.75000000	     32.67781283	     38.98113103
    575.00000000	     28.80000000	     32.67933786	     38.98224398
    576.00000000	     28.85000000	     32.67292303	     38.97724335
    577.00000000	     28.90000000	     32.67440310	     38.97829993
    578.00000000	     28.95000000	     32.67588761	     38.97936113
    579.00000000	     29.00000000	     32.61639848	     38.93935747
    580.00000000	     29.05000000	     32.61744213	     38.94022030
    581.00000000	     29.10000000	     32.61823223	     38.94087639
    582.00000000	     29.15000000	     32.61845585	     38.94106868
    583.00000000	     29.20000000	     32.24104274	     38.81577527
    584.00000000	     29.25000000	     32.24228880	     38.81687137
    585.00000000	     29.30000000	     32.24325724	     38.81775153
    586.00000000	     29.35000000	     32.24397498	     38.81842144
    587.00000000	     29.40000000	     32.24449266	     38.81890739
    588.00000000	     29.45000000	     31.79777322	     38.94011092
    589.00000000	     29.50000000	     31.79916054	     38.94101258
    590.00000000	     29.55000000	     31.80031191	     38.94182472
    591.00000000	     29.60000000	     31.79716684	     38.93644417
    592.00000000	     29.65000000	     31.79876642	     38.93737398
    593.00000000	     29.70000000	     31.79283881	     38.93115981
    594.00000000	     29.75000000	     31.28570260	     38.81540103
    595.00000000	     29.80000000	     31.28769104	     38.81704848
    596.00000000	     29.85000000	     31.29427451	     38.82507055
    597.00000000	     29.90000000	     31.31840277	     38.84451434
    598.00000000	     29.95000000	     31.31748404	     38.84835385
    599.00000000	     30.00000000	     31.25030819	     38.81174385
    600.00000000	     30.05000000	     31.25011950	     38.81600441
    601.00000000	     30.10000000	     31.10105134	     38.66488578
    602.00000000	     30.15000000	     31.10640965	     38.67642212
    603.00000000	     30.20000000	     31.12590535	     38.69899609
    604.00000000	     30.25000000	     31.14481952	     38.68611046
    605.00000000	     30.30000000	     31.15326701	     38.68993241
    606.00000000	     30.35000000	     31.17433119	     38.69486253
    607.00000000	     30.40000000	     31.20278379	     38.41667619
    608.00000000	     30.45000000	     31.20538926	     38.41909691
    609.00000000	     30.50000000	     31.23930453	     38.44390544
    610.00000000	     30.55000000	     31.26119114	     38.36959090
    611.00000000	     30.60000000	     31.26402747	     38.37070668
    612.00000000	     30.65000000	     31.28262593	     38.36877177
    613.00000000	     30.70000000	     31.28638730	     38.36909368
    614.00000000	     30.75000000	     31.34011916	     37.98057932
    615.00000000	     30.80000000	     31.34363999	     37.98135335
    616.00000000	     30.85000000	     31.36226270	     37.57006485
    617.00000000	     30.90000000	     31.36567015	     37.57153085
    618.00000000	     30.95000000	     31.39126240	     37.55659219
    619.00000000	     31.00000000	     31.39444730	     37.55683806
    620.00000000	     31.05000000	     31.39313375	     37.33004144
    621.00000000	     31.10000000	     31.39634666	     37.33058317
    622.00000000	     31.15000000	     31.41369906	     37.31942949
    623.00000000	     31.20000000	     31.30195917	     36.92345722
    624.00000000	     31.25000000	     31.31625787	     36.92457022
    625.00000000	     31.30000000	     31.34254251	     36.92153407
    626.00000000	     31.35000000	     31.29058413	     36.84005215
    627.00000000	     31.40000000	     31.30623824	     36.84759807
    628.00000000	     31.45000000	     31.32752888	     36.86018296
    629.00000000	     31.50000000	     31.35692074	     36.88265783
    630.00000000	     31.55000000	     31.38033465	     36.91181604
    631.00000000	     31.60000000	     31.13272771	     37.18962668
    632.00000000	     31.65000000	     31.15218849	     37.20375992
    633.00000000	     31.70000000	     31.19748963	     37.26648427
    634.00000000	     31.75000000	     31.21370798	     37.29631071
    635.00000000	     31.80000000	     31.23517598	     37.42142435
    636.00000000	     31.85000000	     31.11159642	     37.83793518
    637.00000000	     31.90000000	     31.12469805	     37.86106124
    638.00000000	     31.95000000	     31.13044171	     38.01403436
    639.00000000	     32.00000000	     31.02042411	     38.39891841
    640.00000000	     32.05000000	     31.03264745	     38.40480062
    641.00000000	     32.10000000	     31.01485715	     38.62915428
    642.00000000	     32.15000000	     31.03064889	     38.63381621
    643.00000000	     32.20000000	     31.02970508	     38.78955838
    644.00000000	     32.25000000	     31.03711011	     38.78496035
    645.00000000	     32.30000000	     31.04326100	     38.78059780
    646.00000000	     32.35000000	     31.04209544	     38.79503536
    647.00000000	     32.40000000	     30.98457744	     38.89730805
    648.00000000	     32.45000000	     30.98029694	     38.88124636
    649.00000000	     32.50000000	     30.97870701	     38.86637774
    650.00000000	     32.55000000	     30.94664023	     38.79464742
    651.00000000	     32.60000000	     30.93974683	     38.67829930
    652.00000000	     32.65000000	     30.92641039	     38.57770544
    653.00000000	     32.70000000	     30.90835997	     38.52465829
    654.00000000	     32.75000000	     30.90941041	     38.52297380
    655.00000000	     32.80000000	     30.83241665	     38.24510407
    656.00000000	     32.85000000	     30.83322462	     38.24403765
    657.00000000	     32.90000000	     30.80108548	     38.20071339
    658.00000000	     32.95000000	     30.68487759	     37.77985407
    659.00000000	     33.00000000	     30.64042853	     37.73235918
    660.00000000	     33.05000000	     30.64113042	     37.73267461
    661.00000000	     33.10000000	     30.47888488	     37.28051198
    662.00000000	     33.15000000	     30.47924700	     37.28258296
    663.00000000	     33.20000000	     30.37307100	     37.25367385
    664.00000000	     33.25000000	     30.37392154	     37.25538687
    665.00000000	     33.30000000	     30.16527127	     37.00630065
    666.00000000	     33.35000000	     30.16603179	     37.00872200
    667.00000000	     33.40000000	     30.04486892	     36.92872648
    668.00000000	     33.45000000	     30.04559678	     36.93016398
    669.00000000	     33.50000000	     29.79329927	     36.52743921
    670.00000000	     33.55000000	     29.79473958	     36.53046040
    671.00000000	     33.60000000	     29.68888145	     36.52624937
    672.00000000	     33.65000000	     29.69037393	     36.52775822
    673.00000000	     33.70000000	     29.32587378	     36.22618038
    674.00000000	     33.75000000	     29.32804843	     36.22764578
    675.00000000	     33.80000000	     29.20061885	     36.18479254
    676.00000000	     33.85000000	     29.20234677	     36.18543006
    677.00000000	     33.90000000	     29.18673971	     36.17011367
    678.00000000	     33.95000000	     29.18604721	     36.16915176
    679.00000000	     34.00000000	     28.78092696	     35.98993106
    680.00000000	     34.05000000	     28.77475993	     35.97889835
    681.00000000	     34.10000000	     28.77531766	     35.97832006
    682.00000000	     34.15000000	     28.73937988	     35.94826803
    683.00000000	     34.20000000	     28.73836274	     35.94709898
    684.00000000	     34.25000000	     28.08635556	     35.79268874
    685.00000000	     34.30000000	     28.07520574	     35.78856067
    686.00000000	     34.35000000	     27.41206476	     35.96278903
    687.00000000	     34.40000000	     27.41473043	     35.96278967
    688.00000000	     34.45000000	     27.40926744	     35.95305182
    689.00000000	     34.50000000	     26.95625170	     36.01972443
    690.00000000	     34.55000000	     26.95860619	     36.02031282
    691.00000000	     34.60000000	     26.93035825	     36.01994765
    692.00000000	     34.65000000	     26.93152937	     36.02090525
    693.00000000	     34.70000000	     26.46221801	     36.18091667
    694.00000000	     34.75000000	     26.46426036	     36.18201486
    695.00000000	     34.80000000	     26.46636025	     36.18316270
    696.00000000	     34.85000000	     26.42506668	     36.20434670
    697.00000000	     34.90000000	     26.42632536	     36.20754473
    698.00000000	     34.95000000	     26.42698048	     36.21119250
    699.00000000	     35.00000000	     26.42839600	     36.21663277
    700.00000000	     35.05000000	     26.42853412	     36.22167079
    701.00000000	     35.10000000	     26.42758065	     36.22671017
    702.00000000	     35.15000000	     25.86229783	     36.64597535
    703.00000000	     35.20000000	     25.86465282	     36.64789705
    704.00000000	     35.25000000	     25.86462544	     36.64965148
    705.00000000	     35.30000000	     25.86559026	     36.65096926
    706.00000000	     35.35000000	     25.85659569	     36.65632083
    707.00000000	     35.40000000	     25.85803062	     36.65747312
    708.00000000	     35.45000000	     25.84230124	     36.65572914
    709.00000000	     35.50000000	     25.84370201	     36.65613485
    710.00000000	     35.55000000	     25.84294890	     36.65314987
    711.00000000	     35.60000000	     25.85750500	     36.62617345
    712.00000000	     35.65000000	     25.85916447	     36.62635879
    713.00000000	     35.70000000	     25.86275738	     36.62213663
    714.00000000	     35.75000000	     25.87424474	     36.61323330
    715.00000000	     35.80000000	     25.87935085	     36.60950902
    716.00000000	     35.85000000	     25.96921172	     36.57992638
    717.00000000	     35.90000000	     25.97841422	     36.58087687
    718.00000000	     35.95000000	     25.99319196	     36.57947035
    719.00000000	     36.00000000	     25.99788234	     36.57922438
    720.00000000	     36.05000000	     26.29692163	     36.66817207
    721.00000000	     36.10000000	     26.30723258	     36.67485578
    722.00000000	     36.15000000	     26.31288452	     36.67920818
    723.00000000	     36.20000000	     26.32591706	     36.68872431
    724.00000000	     36.25000000	     26.32777084	     36.69093541
    725.00000000	     36.30000000	     26.65772738	     37.04783734
    726.00000000	     36.35000000	     26.65088905	     37.04810250
    727.00000000	     36.40000000	     26.64597758	     37.05076816
    728.00000000	     36.45000000	     26.76360072	     37.18898376
    729.00000000	     36.50000000	     26.75945343	     37.19556590
    730.00000000	     36.55000000	     26.75799665	     37.20522652
    731.00000000	     36.60000000	     26.76168952	     37.22001854
    732.00000000	     36.65000000	     26.76911862	     37.23715828
    733.00000000	     36.70000000	     27.05408122	     37.58254738
    734.00000000	     36.75000000	     27.05418757	     37.59294338
    735.00000000	     36.80000000	     27.05706815	     37.60430761
    736.00000000	     36.85000000	     27.07001674	     37.62371159
    737.00000000	     36.90000000	     27.08797075	     37.64747112
    738.00000000	     36.95000000	     27.20784269	     38.25789658
    739.00000000	     37.00000000	     27.21192865	     38.25710886
    740.00000000	     37.05000000	     27.21410362	     38.25792240
    741.00000000	     37.10000000	     27.23549537	     38.25952782
    742.00000000	     37.15000000	     27.27425370	     38.27389546
    743.00000000	     37.20000000	     27.27665857	     38.27547906
    744.00000000	     37.25000000	     27.30882160	     38.28865619
    745.00000000	     37.30000000	     27.35896716	     38.32925643
    746.00000000	     37.35000000	     27.35733197	     38.79542243
    747.00000000	     37.40000000	     27.36612982	     38.79070346
    748.00000000	     37.45000000	     27.38589649	     38.79043410
    749.00000000	     37.50000000	     27.38718931	     38.79095395
    750.00000000	     37.55000000	     27.41185651	     38.79370396
    751.00000000	     37.60000000	     27.39955912	     38.87338008
    752.00000000	     37.65000000	     27.40020645	     38.87403743
    753.00000000	     37.70000000	     27.24962397	     38.99399014
    754.00000000	     37.75000000	     27.25045115	     38.99438542
    755.00000000	     37.80000000	     27.26849836	     38.99612530
    756.00000000	     37.85000000	     27.26989313	     38.99684401
    757.00000000	     37.90000000	     27.30817825	     39.00428143
    758.00000000	     37.95000000	     27.30930756	     39.00510605
    759.00000000	     38.00000000	     27.36370774	     38.99355583
    760.00000000	     38.05000000	     27.36434770	     38.99424696
    761.00000000	     38.10000000	     27.36571521	     38.99614682
    762.00000000	     38.15000000	     27.39694609	     38.66360948
    763.00000000	     38.20000000	     27.40263362	     38.67084442
    764.00000000	     38.25000000	     27.44360841	     38.68095242
    765.00000000	     38.30000000	     27.44939529	     38.68297793
    766.00000000	     38.35000000	     27.49385850	     38.66473405
    767.00000000	     38.40000000	     27.50018353	     38.66336169
    768.00000000	     38.45000000	     27.51299869	     38.66236659
    769.00000000	     38.50000000	     27.56451840	     38.22962928
    770.00000000	     38.55000000	     27.58227598	     38.25077518
    771.00000000	     38.60000000	     27.58835702	     38.25479257
    772.00000000	     38.65000000	     27.61555403	     38.25547350
    773.00000000	     38.70000000	     27.62412549	     38.25595175
    774.00000000	     38.75000000	     27.64434178	     38.24191816
    775.00000000	     38.80000000	     27.52546255	     38.00845802
    776.00000000	     38.85000000	     27.53886029	     38.01586651
    777.00000000	     38.90000000	     27.54852764	     38.01551887
    778.00000000	     38.95000000	     27.54868646	     38.00692435
    779.00000000	     39.00000000	     27.53778032	     37.99036687
    780.00000000	     39.05000000	     27.52852638	     37.98196435
    781.00000000	     39.10000000	     27.08856781	     37.76669130
    782.00000000	     39.15000000	     27.09319608	     37.77760865
    783.00000000	     39.20000000	     27.07816241	     37.78395522
    784.00000000	     39.25000000	     26.64313772	     37.83183349
    785.00000000	     39.30000000	     26.64573033	     37.83351515
    786.00000000	     39.35000000	     26.63838344	     37.83470927
    787.00000000	     39.40000000	     26.21563260	     37.95793643
    788.00000000	     39.45000000	     26.21866032	     37.95926144
    789.00000000	     39.50000000	     26.20932957	     37.94340071
    790.00000000	     39.55000000	     25.55424572	     38.17095367
    791.00000000	     39.60000000	     25.55249316	     38.15509024
    792.00000000	     39.65000000	     25.37887290	     38.18327177
    793.00000000	     39.70000000	     24.91348195	     38.34795328
    794.00000000	     39.75000000	     24.91072659	     38.33097804
    795.00000000	     39.80000000	     24.90696573	     38.32454102
    796.00000000	     39.85000000	     24.41041762	     38.52434207
    797.00000000	     39.90000000	     24.40412352	     38.50720705
    798.00000000	     39.95000000	     24.36659694	     38.48711439
    799.00000000	     40.00000000	     24.36945139	     38.48714931
    800.00000000	     40.05000000	     24.28458723	     38.46302527
    801.00000000	     40.10000000	     24.27584446	     38.46879130
    802.00000000	     40.15000000	     23.90607832	     38.48375165
    803.00000000	     40.20000000	     23.91855025	     38.48615768
    804.00000000	     40.25000000	     23.93270035	     38.48450639
    805.00000000	     40.30000000	     23.95150667	     38.48049639
    806.00000000	     40.35000000	     23.96888910	     38.47424514
    807.00000000	     40.40000000	     23.98462787	     38.46951821
    808.00000000	     40.45000000	     24.00045620	     38.39617683
    809.00000000	     40.50000000	     23.94182935	     38.28181730
    810.00000000	     40.55000000	     23.95564552	     38.28665356
    811.00000000	     40.60000000	     23.96318063	     38.28896230
    812.00000000	     40.65000000	     24.05122831	     38.27015045
    813.00000000	     40.70000000	     24.05724667	     38.27262350
    814.00000000	     40.75000000	     24.06194926	     38.27256940
    815.00000000	     40.80000000	     24.06484093	     38.27321089
    816.00000000	     40.85000000	     24.06874448	     38.26297503
    817.00000000	     40.90000000	     24.07157957	     38.26340055
    818.00000000	     40.95000000	     24.06988373	     38.23205587
    819.00000000	     41.00000000	     24.07248746	     38.23237403
    820.00000000	     41.05000000	     24.06843503	     38.22181194
    821.00000000	     41.10000000	     24.07021647	     38.22197418
    822.00000000	     41.15000000	     24.03374951	     38.10762107
    823.00000000	     41.20000000	     24.03567750	     38.10809575
    824.00000000	     41.25000000	     24.02369594	     38.09786135
    825.00000000	     41.30000000	     23.98916714	     37.67929903
    826.00000000	     41.35000000	     23.99051035	     37.68112493
    827.00000000	     41.40000000	     23.94463426	     37.66708670
    828.00000000	     41.45000000	     23.93547881	     37.66631442
    829.00000000	     41.50000000	     23.88518637	     37.63445149
    830.00000000	     41.55000000	     23.87075916	     37.62577331
    831.00000000	     41.60000000	     23.85911544	     37.32328677
    832.00000000	     41.65000000	     23.84974916	     37.32777604
    833.00000000	     41.70000000	     23.80516047	     37.32498244
    834.00000000	     41.75000000	     23.77845841	     37.28288771
    835.00000000	     41.80000000	     23.79165032	     37.19025054
    836.00000000	     41.85000000	     24.02782626	     36.80299410
    837.00000000	     41.90000000	     23.99129902	     36.82313420
    838.00000000	     41.95000000	     23.97823839	     36.82560541
    839.00000000	     42.00000000	     24.19274861	     36.50922276
    840.00000000	     42.05000000	     24.17326834	     36.51692070
    841.00000000	     42.10000000	     24.24286624	     36.40197637
    842.00000000	     42.15000000	     24.24468960	     36.40365066
    843.00000000	     42.20000000	     24.70688723	     35.83065987
    844.00000000	     42.25000000	     24.68665494	     35.85646026
    845.00000000	     42.30000000	     24.77351748	     35.73967418
    846.00000000	     42.35000000	     24.87845875	     35.62823067
    847.00000000	     42.40000000	     25.25297566	     35.18929579
    848.00000000	     42.45000000	     25.27106598	     35.19886876
    849.00000000	     42.50000000	     25.32879181	     35.14967266
    850.00000000	     42.55000000	     25.33205457	     35.15068578
    851.00000000	     42.60000000	     25.90607322	     34.55580944
    852.00000000	     42.65000000	     25.90818100	     34.55788391
    853.00000000	     42.70000000	     25.98460801	     34.50591647
    854.00000000	     42.75000000	     25.98775259	     34.50623745
    855.00000000	     42.80000000	     26.57761809	     33.94762033
    856.00000000	     42.85000000	     26.57934219	     33.94864435
    857.00000000	     42.90000000	     26.95274776	     33.59598547
    858.00000000	     42.95000000	     26.95368250	     33.59705894
    859.00000000	     43.00000000	     26.96244785	     33.57621838
    860.00000000	     43.05000000	     26.96429900	     33.57622656
    861.00000000	     43.10000000	     27.21921727	     33.42054229
    862.00000000	     43.15000000	     27.22155023	     33.40154082
    863.00000000	     43.20000000	     27.24061985	     33.35529259
    864.00000000	     43.25000000	     27.24186295	     33.35458903
    865.00000000	     43.30000000	     27.33461327	     33.19570418
    866.00000000	     43.35000000	     27.33559501	     33.19507223
    867.00000000	     43.40000000	     27.33309683	     33.16931274
    868.00000000	     43.45000000	     27.45771703	     33.05622080
    869.00000000	     43.50000000	     27.44997412	     33.05031800
    870.00000000	     43.55000000	     27.44087832	     33.03266434
    871.00000000	     43.60000000	     27.43646353	     33.01252863
    872.00000000	     43.65000000	     27.49986061	     32.90383491
    873.00000000	     43.70000000	     27.49369938	     32.90337468
    874.00000000	     43.75000000	     27.48653925	     32.90266381
    875.00000000	     43.80000000	     27.47890057	     32.90176706
    876.00000000	     43.85000000	     27.46804458	     32.89684367
    877.00000000	     43.90000000	     27.46847613	     32.89836243
    878.00000000	     43.95000000	     27.48301859	     32.84860339
    879.00000000	     44.00000000	     27.48026295	     32.85925951
    880.00000000	     44.05000000	     27.47592259	     32.87336946
    881.00000000	     44.10000000	     27.46128362	     32.90310246
    882.00000000	     44.15000000	     27.45831885	     32.91455158
    883.00000000	     44.20000000	     27.45469353	     32.93183659
    884.00000000	     44.25000000	     27.44991556	     32.95105989
    885.00000000	     44.30000000	     27.38976255	     32.98689215
    886.00000000	     44.35000000	     27.38373777	     33.00071648
    887.00000000	     44.40000000	     27.05672528	     33.16189801
    888.00000000	     44.45000000	     27.06075299	     33.17335343
    889.00000000	     44.50000000	     27.06883856	     33.18806240
    890.00000000	     44.55000000	     27.07064058	     33.19067194
    891.00000000	     44.60000000	     27.03899118	     33.19643726
    892.00000000	     44.65000000	     27.03982735	     33.19859124
    893.00000000	     44.70000000	     26.93362725	     33.19552447
    894.00000000	     44.75000000	     26.93447415	     33.19780027
    895.00000000	     44.80000000	     26.88538852	     33.19347088
    896.00000000	     44.85000000	     26.88591787	     33.19531617
    897.00000000	     44.90000000	     26.64812046	     33.14371838
    898.00000000	     44.95000000	     26.64922377	     33.14557413
    899.00000000	     45.00000000	     26.39829926	     33.11551131
    900.00000000	     45.05000000	     26.39982057	     33.11736437
    901.00000000	     45.10000000	     26.40534834	     33.11852464
    902.00000000	     45.15000000	     26.35284589	     33.05766997
    903.00000000	     45.20000000	     26.34764965	     33.06396915
    904.00000000	     45.25000000	     26.34318925	     33.06486195
    905.00000000	     45.30000000	     26.01845306	     33.07149921
    906.00000000	     45.35000000	     26.02144996	     33.07915215
    907.00000000	     45.40000000	     26.02770671	     33.08688107
    908.00000000	     45.45000000	     26.01142367	     33.09209975
    909.00000000	     45.50000000	     26.01203083	     33.09566579
    910.00000000	     45.55000000	     26.00710226	     33.11594442
    911.00000000	     45.60000000	     26.00796492	     33.11946364
    912.00000000	     45.65000000	     25.94903763	     33.18401649
    913.00000000	     45.70000000	     25.94882521	     33.18769218
    914.00000000	     45.75000000	     25.80277309	     33.30456562
    915.00000000	     45.80000000	     25.80307538	     33.30980035
    916.00000000	     45.85000000	     25.30451898	     33.71517550
    917.00000000	     45.90000000	     25.30639060	     33.71672166
    918.00000000	     45.95000000	     25.31259978	     33.73785849
    919.00000000	     46.00000000	     25.31459240	     33.73910727
    920.00000000	     46.05000000	     25.31967088	     33.74202926
    921.00000000	     46.10000000	     25.32463483	     33.74432022
    922.00000000	     46.15000000	     25.31278518	     33.76443732
    923.00000000	     46.20000000	     25.31213831	     33.76332420
    924.00000000	     46.25000000	     25.30699210	     33.75936095
    925.00000000	     46.30000000	     25.30684561	     33.75342174
    926.00000000	     46.35000000	     25.26189762	     33.77028311
    927.00000000	     46.40000000	     25.25837154	     33.76261211
    928.00000000	     46.45000000	     25.25507327	     33.75120184
    929.00000000	     46.50000000	     25.24847342	     33.73628259
    930.00000000	     46.55000000	     25.24861936	     33.72539356
    931.00000000	     46.60000000	     25.24679897	     33.71073040
    932.00000000	     46.65000000	     25.24610674	     33.69589193
    933.00000000	     46.70000000	     25.25345084	     33.68805047
    934.00000000	     46.75000000	     25.26448970	     33.68181275
    935.00000000	     46.80000000	     25.55318851	     33.82441453
    936.00000000	     46.85000000	     25.55169391	     33.81460422
    937.00000000	     46.90000000	     25.54962733	     33.80476484
    938.00000000	     46.95000000	     25.55120449	     33.80501633
    939.00000000	     47.00000000	     25.55327263	     33.79514279
    940.00000000	     47.05000000	     25.55569959	     33.79630934
    941.00000000	     47.10000000	     26.03100693	     33.95300314
    942.00000000	     47.15000000	     26.03169492	     33.95340450
    943.00000000	     47.20000000	     26.02488790	     33.95022298
    944.00000000	     47.25000000	     26.02602246	     33.95113642
    945.00000000	     47.30000000	     26.31886716	     34.07170625
    946.00000000	     47.35000000	     26.31957479	     34.07231707
    947.00000000	     47.40000000	     26.31534834	     34.07325489
    948.00000000	     47.45000000	     26.31619076	     34.07401975
    949.00000000	     47.50000000	     26.31754916	     34.08641967
    950.00000000	     47.55000000	     26.31920724	     34.08763671
    951.00000000	     47.60000000	     26.32089328	     34.08902245
    952.00000000	     47.65000000	     26.58173418	     34.22346502
    953.00000000	     47.70000000	     26.58429166	     34.22494713
    954.00000000	     47.75000000	     26.58626614	     34.22614950
    955.00000000	     47.80000000	     26.64195391	     34.24630612
    956.00000000	     47.85000000	     26.64433888	     34.24761768
    957.00000000	     47.90000000	     26.64753037	     34.24944976
    958.00000000	     47.95000000	     26.65157309	     34.25179634
    959.00000000	     48.00000000	     26.65725321	     34.25501564
    960.00000000	     48.05000000	     26.82638030	     34.27254500
    961.00000000	     48.10000000	     26.82942657	     34.27466026
    962.00000000	     48.15000000	     26.83246574	     34.27679466
    963.00000000	     48.20000000	     26.83599356	     34.27934431
    964.00000000	     48.25000000	     26.83999729	     34.28233870
    965.00000000	     48.30000000	     26.84449911	     34.28576673
    966.00000000	     48.35000000	     26.88858270	     34.22899139
    967.00000000	     48.40000000	     26.89054943	     34.23032641
    968.00000000	     48.45000000	     26.89203923	     34.23181003
    969.00000000	     48.50000000	     26.89304348	     34.23372428
    970.00000000	     48.55000000	     26.88652151	     34.23235023
    971.00000000	     48.60000000	     26.88679835	     34.23297437
    972.00000000	     48.65000000	     26.88658707	     34.23378251
    973.00000000	     48.70000000	     26.88590498	     34.23457872
    974.00000000	     48.75000000	     26.88224867	     34.23373680
    975.00000000	     48.80000000	     26.88181277	     34.23393441
    976.00000000	     48.85000000	     26.81263022	     34.17261121
    977.00000000	     48.90000000	     26.81267734	     34.17203434
    978.00000000	     48.95000000	     26.81218181	     34.17135597
    979.00000000	     49.00000000	     26.81027461	     34.16866579
    980.00000000	     49.05000000	     26.65085506	     33.90206614
    981.00000000	     49.10000000	     26.65155876	     33.90301830
    982.00000000	     49.15000000	     26.65280305	     33.90459143
    983.00000000	     49.20000000	     26.65486283	     33.90617386
    984.00000000	     49.25000000	     26.65579317	     33.90627572
    985.00000000	     49.30000000	     26.65636979	     33.90609523
    986.00000000	     49.35000000	     26.66053641	     33.90626554
    987.00000000	     49.40000000	     26.66134683	     33.90626185
    988.00000000	     49.45000000	     26.66224058	     33.90622531
    989.00000000	     49.50000000	     26.66323948	     33.90611516
    990.00000000	     49.55000000	     26.68425043	     33.82576970
    991.00000000	     49.60000000	     26.68461126	     33.82547158
    992.00000000	     49.65000000	     26.68505559	     33.82505578
    993.00000000	     49.70000000	     26.67101744	     33.50738654
    994.00000000	     49.75000000	     26.67132199	     33.50781180
    995.00000000	     49.80000000	     26.67164385	     33.50826466
    996.00000000	     49.85000000	     26.67041442	     33.50148312
    997.00000000	     49.90000000	     26.67100406	     33.50153948
    998.00000000	     49.95000000	     26.69113718	     33.42534155
    999.00000000	     50.00000000	     26.69125587	     33.42532232
   1000.00000000	     50.05000000	     26.58238452	     33.15198453
   1001.00000000	     50.10000000	     26.58284318	     33.15236046
   1002.00000000	     50.15000000	     26.58362174	     33.14637758
   1003.00000000	     50.20000000	     26.58423089	     33.14667126
   1004.00000000	     50.25000000	     26.59794911	     33.11921472
   1005.00000000	     50.30000000	     26.59830519	     33.11956113
   1006.00000000	     50.35000000	     26.59862048	     33.11997470
   1007.00000000	     50.40000000	     26.59889669	     33.12042060
   1008.00000000	     50.45000000	     26.59914769	     33.12086782
   1009.00000000	     50.50000000	     26.59939934	     33.12132573
   1010.00000000	     50.55000000	     26.59967363	     33.12183951
   1011.00000000	     50.60000000	     26.59327989	     33.10541457
   1012.00000000	     50.65000000	     26.59443569	     33.10628314
   1013.00000000	     50.70000000	     26.59600720	     33.10780811
   1014.00000000	     50.75000000	     26.59816239	     33.11082337
   1015.00000000	     50.80000000	     26.59985623	     33.11379495
   1016.00000000	     50.85000000	     26.56882092	     33.15244567
   1017.00000000	     50.90000000	     26.57158196	     33.15466640
   1018.00000000	     50.95000000	     26.57478925	     33.15798716
   1019.00000000	     51.00000000	     26.57771426	     33.16184271
   1020.00000000	     51.05000000	     26.57976174	     33.16782868
   1021.00000000	     51.10000000	     26.58178942	     33.17242971
   1022.00000000	     51.15000000	     26.76690994	     33.24180573
   1023.00000000	     51.20000000	     26.76857450	     33.24359979
   1024.00000000	     51.25000000	     26.77022930	     33.24585354
   1025.00000000	     51.30000000	     26.77179180	     33.24882306
   1026.00000000	     51.35000000	     26.77316235	     33.25262680
   1027.00000000	     51.40000000	     26.77510497	     33.25670470
   1028.00000000	     51.45000000	     26.72088322	     33.24344793
   1029.00000000	     51.50000000	     26.72302899	     33.24498628
   1030.00000000	     51.55000000	     26.72514639	     33.24681725
   1031.00000000	     51.60000000	     26.72650351	     33.24912281
   1032.00000000	     51.65000000	     26.72826866	     33.25093556
   1033.00000000	     51.70000000	     26.71594688	     33.24248401
   1034.00000000	     51.75000000	     26.71735511	     33.24302952
   1035.00000000	     51.80000000	     26.71867601	     33.24382171
   1036.00000000	     51.85000000	     26.72005654	     33.24489377
   1037.00000000	     51.90000000	     26.72132232	     33.24607951
   1038.00000000	     51.95000000	     26.72269595	     33.24749236
   1039.00000000	     52.00000000	     26.72392585	     33.24896635
   1040.00000000	     52.05000000	     26.72514549	     33.25062112
   1041.00000000	     52.10000000	     26.72560675	     33.25210967
   1042.00000000	     52.15000000	     26.72579596	     33.25371053
   1043.00000000	     52.20000000	     26.62818798	     32.95473313
   1044.00000000	     52.25000000	     26.63129629	     32.95607304
   1045.00000000	     52.30000000	     26.63445457	     32.95758244
   1046.00000000	     52.35000000	     26.63768699	     32.95938881
   1047.00000000	     52.40000000	     26.64063841	     32.96132676
   1048.00000000	     52.45000000	     26.64305017	     32.96330173
   1049.00000000	     52.50000000	     26.64510163	     32.96540060
   1050.00000000	     52.55000000	     26.62690223	     32.96257660
   1051.00000000	     52.60000000	     26.62955157	     32.96358622
   1052.00000000	     52.65000000	     26.63268983	     32.96501989
   1053.00000000	     52.70000000	     26.63623755	     32.96680496
