UNKNOWN
version=1
nRows=56
nColumns=4
inDegrees=no
endheader
time	time	knee_angle_r	knee_angle_l
0.00000000	0.05000000	-2.26985747	-3.95610916
1.00000000	0.10000000	-2.27695977	-3.96030062
2.00000000	0.15000000	-2.28308928	-3.96403363
3.00000000	0.20000000	-2.28945657	-3.96802150
4.00000000	0.25000000	-2.29637696	-3.97244738
5.00000000	0.30000000	-2.30422046	-3.97752258
6.00000000	0.35000000	-2.31913221	-3.98809112
7.00000000	0.40000000	-2.32741338	-3.99309355
8.00000000	0.45000000	-2.36319045	-3.96431580
9.00000000	0.50000000	-2.37152163	-3.96905668
10.00000000	0.55000000	-2.38848394	-3.96747579
11.00000000	0.60000000	-2.39812601	-3.97293001
12.00000000	0.65000000	-2.46926721	-3.86295923
13.00000000	0.70000000	-2.48491829	-3.86290283
14.00000000	0.75000000	-2.49325139	-3.86821202
15.00000000	0.80000000	-2.67389881	-3.72274376
16.00000000	0.85000000	-2.67314961	-3.71993365
17.00000000	0.90000000	-2.65266246	-3.68490274
18.00000000	0.95000000	-2.67354599	-3.65505157
19.00000000	1.00000000	-2.77574410	-3.67517259
20.00000000	1.05000000	-2.76082967	-3.65434558
21.00000000	1.10000000	-2.73889011	-3.62240521
22.00000000	1.15000000	-2.73802919	-3.60479361
23.00000000	1.20000000	-2.74664345	-3.61179858
24.00000000	1.25000000	-2.71897270	-3.59009891
25.00000000	1.30000000	-2.78850870	-3.63553990
26.00000000	1.35000000	-2.73679387	-3.61738147
27.00000000	1.40000000	-2.67200816	-3.60484250
28.00000000	1.45000000	-2.62116819	-3.60626465
29.00000000	1.50000000	-2.56023230	-3.60775059
30.00000000	1.55000000	-2.67057690	-3.68508983
31.00000000	1.60000000	-2.57068863	-3.66705362
32.00000000	1.65000000	-2.59858433	-3.69578719
33.00000000	1.70000000	-2.49140105	-3.67684369
34.00000000	1.75000000	-2.53163240	-3.62011514
35.00000000	1.80000000	-2.40303284	-3.62018252
36.00000000	1.85000000	-2.45170596	-3.64683357
37.00000000	1.90000000	-2.32419734	-3.64410705
38.00000000	1.95000000	-2.21673675	-3.64077361
39.00000000	2.00000000	-2.16604455	-3.63705416
40.00000000	2.05000000	-2.50751421	-3.69957714
41.00000000	2.10000000	-2.59674847	-3.57205791
42.00000000	2.15000000	-2.60082250	-3.55324355
43.00000000	2.20000000	-2.69549129	-3.52861587
44.00000000	2.25000000	-3.11304812	-3.51007200
45.00000000	2.30000000	-3.39972761	-3.47984491
46.00000000	2.35000000	-3.42449015	-3.49544286
47.00000000	2.40000000	-4.13440753	-3.35206418
48.00000000	2.45000000	-4.65570632	-3.29740767
49.00000000	2.50000000	-4.74326512	-3.33293910
50.00000000	2.55000000	-5.90894828	-3.15535263
51.00000000	2.60000000	-6.71469496	-3.09772336
52.00000000	2.65000000	-7.32301762	-3.10173662
53.00000000	2.70000000	-8.26072772	-2.98327058
54.00000000	2.75000000	-9.04114031	-3.00355119
55.00000000	2.80000000	-9.96594664	-2.92286583
