UNKNOWN
version=1
nRows=1054
nColumns=4
inDegrees=no
endheader
time	time	hip_flexion_r	hip_flexion_l
      0.00000000	      0.05000000	     -4.22655202	     -2.79417557
      1.00000000	      0.10000000	     -4.22496254	     -2.79354744
      2.00000000	      0.15000000	     -4.22362353	     -2.79350621
      3.00000000	      0.20000000	     -4.22235397	     -2.79394870
      4.00000000	      0.25000000	     -4.22104551	     -2.79476883
      5.00000000	      0.30000000	     -4.21957009	     -2.79584324
      6.00000000	      0.35000000	     -4.22665256	     -2.79309999
      7.00000000	      0.40000000	     -4.22451394	     -2.79313042
      8.00000000	      0.45000000	     -4.19793825	     -2.76246538
      9.00000000	      0.50000000	     -4.19590850	     -2.76330948
     10.00000000	      0.55000000	     -4.19745326	     -2.77203178
     11.00000000	      0.60000000	     -4.19465745	     -2.77310745
     12.00000000	      0.65000000	     -4.15889289	     -2.79804003
     13.00000000	      0.70000000	     -4.15610400	     -2.79427627
     14.00000000	      0.75000000	     -4.15241503	     -2.79545257
     15.00000000	      0.80000000	     -4.03353269	     -2.82273223
     16.00000000	      0.85000000	     -4.02675964	     -2.81860307
     17.00000000	      0.90000000	     -4.01960973	     -2.82153222
     18.00000000	      0.95000000	     -4.00665723	     -2.83560054
     19.00000000	      1.00000000	     -3.87021810	     -2.74740231
     20.00000000	      1.05000000	     -3.86309620	     -2.74862630
     21.00000000	      1.10000000	     -3.87949251	     -2.77502098
     22.00000000	      1.15000000	     -3.88492802	     -2.79211675
     23.00000000	      1.20000000	     -3.88068187	     -2.79122540
     24.00000000	      1.25000000	     -3.89997648	     -2.81408366
     25.00000000	      1.30000000	     -3.86409780	     -2.78470828
     26.00000000	      1.35000000	     -3.85045968	     -2.77077568
     27.00000000	      1.40000000	     -3.87092209	     -2.77735385
     28.00000000	      1.45000000	     -3.88386247	     -2.76893687
     29.00000000	      1.50000000	     -3.86317365	     -2.73653259
     30.00000000	      1.55000000	     -3.83492355	     -2.71754585
     31.00000000	      1.60000000	     -3.79291188	     -2.67377148
     32.00000000	      1.65000000	     -3.80038774	     -2.68876046
     33.00000000	      1.70000000	     -3.73995237	     -2.63264670
     34.00000000	      1.75000000	     -3.82724543	     -2.78442524
     35.00000000	      1.80000000	     -3.77170743	     -2.71393624
     36.00000000	      1.85000000	     -3.80527943	     -2.71864642
     37.00000000	      1.90000000	     -3.74417549	     -2.65433478
     38.00000000	      1.95000000	     -3.70323837	     -2.61359359
     39.00000000	      2.00000000	     -3.64267881	     -2.57534116
     40.00000000	      2.05000000	     -3.56494715	     -2.64357033
     41.00000000	      2.10000000	     -3.54795771	     -2.78099154
     42.00000000	      2.15000000	     -3.44922064	     -2.75151972
     43.00000000	      2.20000000	     -3.30505757	     -2.74549380
     44.00000000	      2.25000000	     -3.11541611	     -2.78839596
     45.00000000	      2.30000000	     -2.94237432	     -2.78470429
     46.00000000	      2.35000000	     -2.80556851	     -2.78752532
     47.00000000	      2.40000000	     -2.46496175	     -2.96789416
     48.00000000	      2.45000000	     -2.14282845	     -3.08284877
     49.00000000	      2.50000000	     -1.94590755	     -3.13146020
     50.00000000	      2.55000000	     -1.36597860	     -3.37314668
     51.00000000	      2.60000000	     -0.86143173	     -3.48393787
     52.00000000	      2.65000000	     -0.38310793	     -3.63292107
     53.00000000	      2.70000000	      0.28087438	     -3.78485852
     54.00000000	      2.75000000	      0.92864205	     -3.96604416
     55.00000000	      2.80000000	      1.68824904	     -4.19324859
     56.00000000	      2.85000000	      2.52985957	     -4.42273082
     57.00000000	      2.90000000	      3.41147646	     -4.64757876
     58.00000000	      2.95000000	      4.28126226	     -4.89856461
     59.00000000	      3.00000000	      5.32973060	     -5.20019082
     60.00000000	      3.05000000	      6.61050002	     -5.26269947
     61.00000000	      3.10000000	      7.58789389	     -5.64291724
     62.00000000	      3.15000000	      8.59788210	     -6.00321525
     63.00000000	      3.20000000	      9.65684457	     -6.36684091
     64.00000000	      3.25000000	     10.40373282	     -6.76035688
     65.00000000	      3.30000000	     11.74216283	     -7.03480141
     66.00000000	      3.35000000	     12.70743697	     -7.34841335
     67.00000000	      3.40000000	     13.68649529	     -7.60933368
     68.00000000	      3.45000000	     14.65685598	     -7.84152762
     69.00000000	      3.50000000	     15.30661992	     -8.19792660
     70.00000000	      3.55000000	     15.77791932	     -8.54195087
     71.00000000	      3.60000000	     16.04042841	     -8.98099266
     72.00000000	      3.65000000	     16.39354431	     -9.23204750
     73.00000000	      3.70000000	     16.20232310	     -9.75258863
     74.00000000	      3.75000000	     16.20284806	    -10.04611409
     75.00000000	      3.80000000	     16.31380044	    -10.13232708
     76.00000000	      3.85000000	     16.19849305	    -10.19935187
     77.00000000	      3.90000000	     15.33316435	    -10.73310230
     78.00000000	      3.95000000	     14.95961162	    -10.82608132
     79.00000000	      4.00000000	     14.60027936	    -10.74082684
     80.00000000	      4.05000000	     13.56088387	    -11.09874440
     81.00000000	      4.10000000	     12.93908175	    -10.99868056
     82.00000000	      4.15000000	     12.54506780	    -10.64183393
     83.00000000	      4.20000000	     11.93126863	    -10.26633200
     84.00000000	      4.25000000	     10.15694225	    -10.83726643
     85.00000000	      4.30000000	      9.71184424	    -10.18131889
     86.00000000	      4.35000000	      8.44314929	    -10.17001951
     87.00000000	      4.40000000	      7.63602215	     -9.66335587
     88.00000000	      4.45000000	      7.17034553	     -8.81423517
     89.00000000	      4.50000000	      5.93059435	     -8.58894855
     90.00000000	      4.55000000	      5.52284987	     -7.61136497
     91.00000000	      4.60000000	      5.00254371	     -6.67860405
     92.00000000	      4.65000000	      3.75198727	     -6.53191266
     93.00000000	      4.70000000	      3.46672439	     -5.46827327
     94.00000000	      4.75000000	      2.72550577	     -4.94643283
     95.00000000	      4.80000000	      2.51761724	     -3.92142615
     96.00000000	      4.85000000	      2.39176886	     -2.94162072
     97.00000000	      4.90000000	      1.59829410	     -2.78991706
     98.00000000	      4.95000000	      1.52950093	     -1.94340170
     99.00000000	      5.00000000	      1.50200043	     -1.03745368
    100.00000000	      5.05000000	      1.36125721	     -0.67714237
    101.00000000	      5.10000000	      1.39901303	      0.14897804
    102.00000000	      5.15000000	      1.25612674	      0.27770616
    103.00000000	      5.20000000	      0.72947444	     -0.07252914
    104.00000000	      5.25000000	      0.86397389	      0.40530714
    105.00000000	      5.30000000	      0.95391851	      0.72090576
    106.00000000	      5.35000000	      1.00193218	      0.89921839
    107.00000000	      5.40000000	      0.65294611	      0.57678610
    108.00000000	      5.45000000	      0.92897961	      0.94959862
    109.00000000	      5.50000000	      1.09885593	      1.16932555
    110.00000000	      5.55000000	      0.75585143	      0.79677753
    111.00000000	      5.60000000	      1.05507913	      1.12254530
    112.00000000	      5.65000000	      0.74111403	      0.79287165
    113.00000000	      5.70000000	      1.09175174	      1.15594926
    114.00000000	      5.75000000	      1.25553484	      1.31993717
    115.00000000	      5.80000000	      1.17837166	      1.23615708
    116.00000000	      5.85000000	      0.96203715	      1.03938416
    117.00000000	      5.90000000	      0.74523674	      0.86393329
    118.00000000	      5.95000000	      1.05224554	      1.18342721
    119.00000000	      6.00000000	      0.78733846	      0.92995756
    120.00000000	      6.05000000	      0.99448831	      1.19809304
    121.00000000	      6.10000000	      0.93195270	      1.19183156
    122.00000000	      6.15000000	      1.06361501	      1.36609959
    123.00000000	      6.20000000	      1.20621849	      1.56443687
    124.00000000	      6.25000000	      1.27909597	      1.68678198
    125.00000000	      6.30000000	      1.96282992	      2.40898593
    126.00000000	      6.35000000	      1.69394190	      2.20605357
    127.00000000	      6.40000000	      2.01183438	      2.58807650
    128.00000000	      6.45000000	      2.69621190	      3.34455859
    129.00000000	      6.50000000	      2.74635694	      3.42398212
    130.00000000	      6.55000000	      3.69222053	      4.45754199
    131.00000000	      6.60000000	      4.13958657	      4.95536715
    132.00000000	      6.65000000	      4.74579598	      5.60388416
    133.00000000	      6.70000000	      5.52525389	      6.43383481
    134.00000000	      6.75000000	      6.26779310	      7.21456662
    135.00000000	      6.80000000	      7.12867265	      8.11517263
    136.00000000	      6.85000000	      8.05629208	      9.11685151
    137.00000000	      6.90000000	      8.87884542	      9.90979230
    138.00000000	      6.95000000	      9.79969204	     10.86226424
    139.00000000	      7.00000000	     10.66475921	     11.78249977
    140.00000000	      7.05000000	     11.49484740	     12.59943638
    141.00000000	      7.10000000	     12.23049766	     13.37935065
    142.00000000	      7.15000000	     12.93294615	     14.10225369
    143.00000000	      7.20000000	     13.56783745	     14.75051488
    144.00000000	      7.25000000	     14.11328393	     15.30136946
    145.00000000	      7.30000000	     14.44247915	     15.58029773
    146.00000000	      7.35000000	     14.82252155	     16.02315818
    147.00000000	      7.40000000	     15.13778008	     16.34139406
    148.00000000	      7.45000000	     15.21061343	     16.35748410
    149.00000000	      7.50000000	     15.17069832	     16.30866563
    150.00000000	      7.55000000	     14.96071533	     16.16137779
    151.00000000	      7.60000000	     14.60593722	     15.85225827
    152.00000000	      7.65000000	     14.25701580	     15.50968921
    153.00000000	      7.70000000	     13.62343617	     14.85837236
    154.00000000	      7.75000000	     12.94332564	     14.19070564
    155.00000000	      7.80000000	     12.29484382	     13.53883339
    156.00000000	      7.85000000	     11.55533353	     12.80503825
    157.00000000	      7.90000000	     10.72844048	     11.95738289
    158.00000000	      7.95000000	      9.80303937	     11.01595145
    159.00000000	      8.00000000	      8.58581674	      9.76400666
    160.00000000	      8.05000000	      7.66689804	      8.86270104
    161.00000000	      8.10000000	      6.57387641	      7.76026237
    162.00000000	      8.15000000	      5.58890532	      6.68922132
    163.00000000	      8.20000000	      4.60461434	      5.62721327
    164.00000000	      8.25000000	      3.60292534	      4.58013190
    165.00000000	      8.30000000	      2.70231429	      3.54189813
    166.00000000	      8.35000000	      1.73250402	      2.51465507
    167.00000000	      8.40000000	      1.07345617	      1.72619200
    168.00000000	      8.45000000	      0.14053578	      0.70557760
    169.00000000	      8.50000000	     -0.21120495	      0.26263205
    170.00000000	      8.55000000	     -0.97122156	     -0.61917007
    171.00000000	      8.60000000	     -1.30947950	     -1.06834350
    172.00000000	      8.65000000	     -2.08431997	     -1.92363061
    173.00000000	      8.70000000	     -1.76785500	     -1.71109776
    174.00000000	      8.75000000	     -2.03472933	     -2.05020281
    175.00000000	      8.80000000	     -2.65555478	     -2.72163448
    176.00000000	      8.85000000	     -2.58741913	     -2.68951889
    177.00000000	      8.90000000	     -2.21018143	     -2.37320549
    178.00000000	      8.95000000	     -1.95143096	     -2.14574264
    179.00000000	      9.00000000	     -2.50257856	     -2.67265558
    180.00000000	      9.05000000	     -2.59518995	     -2.74809390
    181.00000000	      9.10000000	     -1.90019635	     -2.06779792
    182.00000000	      9.15000000	     -2.08710334	     -2.21888538
    183.00000000	      9.20000000	     -2.37675451	     -2.45001843
    184.00000000	      9.25000000	     -1.84249849	     -1.88550772
    185.00000000	      9.30000000	     -2.00231848	     -1.99374187
    186.00000000	      9.35000000	     -2.00703576	     -1.93831811
    187.00000000	      9.40000000	     -2.13718298	     -1.99774762
    188.00000000	      9.45000000	     -1.81980845	     -1.64260829
    189.00000000	      9.50000000	     -2.08154440	     -1.85593170
    190.00000000	      9.55000000	     -1.96728303	     -1.69784491
    191.00000000	      9.60000000	     -2.28912257	     -1.96667678
    192.00000000	      9.65000000	     -2.29156792	     -1.94142697
    193.00000000	      9.70000000	     -2.12032064	     -1.74518214
    194.00000000	      9.75000000	     -2.44268918	     -2.04271157
    195.00000000	      9.80000000	     -2.70515982	     -2.29307581
    196.00000000	      9.85000000	     -2.32935150	     -1.92098677
    197.00000000	      9.90000000	     -2.25005906	     -1.83577779
    198.00000000	      9.95000000	     -2.49446450	     -2.06102684
    199.00000000	     10.00000000	     -2.70034170	     -2.25945680
    200.00000000	     10.05000000	     -2.85113522	     -2.41887031
    201.00000000	     10.10000000	     -2.91192688	     -2.50465373
    202.00000000	     10.15000000	     -2.60526306	     -2.18333037
    203.00000000	     10.20000000	     -2.73085157	     -2.31570990
    204.00000000	     10.25000000	     -2.74223748	     -2.36562662
    205.00000000	     10.30000000	     -2.84250591	     -2.45713993
    206.00000000	     10.35000000	     -2.86713930	     -2.51252550
    207.00000000	     10.40000000	     -2.93277147	     -2.57249782
    208.00000000	     10.45000000	     -2.98517574	     -2.62261330
    209.00000000	     10.50000000	     -2.98653602	     -2.62146127
    210.00000000	     10.55000000	     -3.07504459	     -2.70415383
    211.00000000	     10.60000000	     -3.07138941	     -2.69679410
    212.00000000	     10.65000000	     -3.08230205	     -2.70331147
    213.00000000	     10.70000000	     -3.36166048	     -2.80071570
    214.00000000	     10.75000000	     -3.36447980	     -2.80521182
    215.00000000	     10.80000000	     -3.36676495	     -2.80411632
    216.00000000	     10.85000000	     -3.45390761	     -2.81107481
    217.00000000	     10.90000000	     -3.46389472	     -2.82098392
    218.00000000	     10.95000000	     -3.47127793	     -2.79971354
    219.00000000	     11.00000000	     -3.48862602	     -2.81427129
    220.00000000	     11.05000000	     -3.50100518	     -2.81903204
    221.00000000	     11.10000000	     -3.85031714	     -3.02775189
    222.00000000	     11.15000000	     -3.85946967	     -3.04084073
    223.00000000	     11.20000000	     -3.87280059	     -3.05025673
    224.00000000	     11.25000000	     -3.87242152	     -3.05169056
    225.00000000	     11.30000000	     -4.39879107	     -3.59519308
    226.00000000	     11.35000000	     -4.41983432	     -3.61383663
    227.00000000	     11.40000000	     -4.44253179	     -3.64127095
    228.00000000	     11.45000000	     -4.48194952	     -3.69025300
    229.00000000	     11.50000000	     -4.51843371	     -3.76103858
    230.00000000	     11.55000000	     -4.51166831	     -3.76769824
    231.00000000	     11.60000000	     -4.58217096	     -3.93060846
    232.00000000	     11.65000000	     -4.58629216	     -3.93937153
    233.00000000	     11.70000000	     -4.69618568	     -4.18286687
    234.00000000	     11.75000000	     -4.68865835	     -4.18638269
    235.00000000	     11.80000000	     -4.69374685	     -4.20774718
    236.00000000	     11.85000000	     -4.71954421	     -4.25812064
    237.00000000	     11.90000000	     -4.76650394	     -4.44503889
    238.00000000	     11.95000000	     -4.78806937	     -4.53225770
    239.00000000	     12.00000000	     -4.78039469	     -4.53854704
    240.00000000	     12.05000000	     -4.78648061	     -4.59282415
    241.00000000	     12.10000000	     -4.77267045	     -4.59978153
    242.00000000	     12.15000000	     -4.76336726	     -4.64745903
    243.00000000	     12.20000000	     -4.74978944	     -4.65296740
    244.00000000	     12.25000000	     -4.72787805	     -4.69983731
    245.00000000	     12.30000000	     -4.70613727	     -4.69152777
    246.00000000	     12.35000000	     -4.70238365	     -4.69164170
    247.00000000	     12.40000000	     -4.65342662	     -4.66298302
    248.00000000	     12.45000000	     -4.65021563	     -4.66302789
    249.00000000	     12.50000000	     -4.61237333	     -4.61971633
    250.00000000	     12.55000000	     -4.58801844	     -4.59867113
    251.00000000	     12.60000000	     -4.57516986	     -4.59421434
    252.00000000	     12.65000000	     -4.54554535	     -4.56030614
    253.00000000	     12.70000000	     -4.53860432	     -4.49402883
    254.00000000	     12.75000000	     -4.53645496	     -4.49238451
    255.00000000	     12.80000000	     -4.52346633	     -4.49018692
    256.00000000	     12.85000000	     -4.51292501	     -4.48376136
    257.00000000	     12.90000000	     -4.50601754	     -4.47987486
    258.00000000	     12.95000000	     -4.45429468	     -4.42049217
    259.00000000	     13.00000000	     -4.45076480	     -4.41958355
    260.00000000	     13.05000000	     -4.44278117	     -4.41736952
    261.00000000	     13.10000000	     -4.43539620	     -4.41402447
    262.00000000	     13.15000000	     -4.31305196	     -4.23157187
    263.00000000	     13.20000000	     -4.30932045	     -4.22979173
    264.00000000	     13.25000000	     -4.28710872	     -4.21605741
    265.00000000	     13.30000000	     -4.28368276	     -4.21493668
    266.00000000	     13.35000000	     -4.27899858	     -4.21308506
    267.00000000	     13.40000000	     -4.24125507	     -4.18673489
    268.00000000	     13.45000000	     -4.23899487	     -4.18568621
    269.00000000	     13.50000000	     -4.23628006	     -4.18386086
    270.00000000	     13.55000000	     -4.21630607	     -4.16918112
    271.00000000	     13.60000000	     -4.21542747	     -4.16690214
    272.00000000	     13.65000000	     -4.19757183	     -4.15417938
    273.00000000	     13.70000000	     -4.29210597	     -4.39137469
    274.00000000	     13.75000000	     -4.29291713	     -4.38963219
    275.00000000	     13.80000000	     -4.29704906	     -4.38063603
    276.00000000	     13.85000000	     -4.29950992	     -4.37894738
    277.00000000	     13.90000000	     -4.31068982	     -4.37511824
    278.00000000	     13.95000000	     -4.35185232	     -4.47897286
    279.00000000	     14.00000000	     -4.36364993	     -4.47901352
    280.00000000	     14.05000000	     -4.37471110	     -4.47645389
    281.00000000	     14.10000000	     -4.37716798	     -4.47288012
    282.00000000	     14.15000000	     -4.39047487	     -4.46344896
    283.00000000	     14.20000000	     -4.39904459	     -4.45652580
    284.00000000	     14.25000000	     -4.40790871	     -4.45413480
    285.00000000	     14.30000000	     -4.39195251	     -4.50204456
    286.00000000	     14.35000000	     -4.40447011	     -4.50510178
    287.00000000	     14.40000000	     -4.41710936	     -4.51046161
    288.00000000	     14.45000000	     -4.41850786	     -4.50977951
    289.00000000	     14.50000000	     -4.43390494	     -4.52558633
    290.00000000	     14.55000000	     -4.38752885	     -4.59411803
    291.00000000	     14.60000000	     -4.39810027	     -4.59346098
    292.00000000	     14.65000000	     -4.40348509	     -4.60443961
    293.00000000	     14.70000000	     -4.40368393	     -4.60053683
    294.00000000	     14.75000000	     -4.41898544	     -4.60727430
    295.00000000	     14.80000000	     -4.41510563	     -4.60645671
    296.00000000	     14.85000000	     -4.30926004	     -4.56394548
    297.00000000	     14.90000000	     -4.30713890	     -4.56224089
    298.00000000	     14.95000000	     -4.31839661	     -4.56556733
    299.00000000	     15.00000000	     -4.31701939	     -4.56501985
    300.00000000	     15.05000000	     -4.32499283	     -4.57071753
    301.00000000	     15.10000000	     -4.32326286	     -4.57031966
    302.00000000	     15.15000000	     -4.32311737	     -4.56944938
    303.00000000	     15.20000000	     -4.33317656	     -4.57763363
    304.00000000	     15.25000000	     -4.33199557	     -4.57737049
    305.00000000	     15.30000000	     -4.33131843	     -4.57639680
    306.00000000	     15.35000000	     -4.33096055	     -4.57484133
    307.00000000	     15.40000000	     -4.31015156	     -4.56422185
    308.00000000	     15.45000000	     -4.30781542	     -4.56105717
    309.00000000	     15.50000000	     -4.28774309	     -4.54322857
    310.00000000	     15.55000000	     -4.28624782	     -4.54275005
    311.00000000	     15.60000000	     -4.28388185	     -4.54198263
    312.00000000	     15.65000000	     -4.25239545	     -4.52793283
    313.00000000	     15.70000000	     -4.25059291	     -4.52769768
    314.00000000	     15.75000000	     -4.22926444	     -4.52388701
    315.00000000	     15.80000000	     -4.22752065	     -4.52356085
    316.00000000	     15.85000000	     -4.21908742	     -4.52341743
    317.00000000	     15.90000000	     -4.19476826	     -4.51364640
    318.00000000	     15.95000000	     -4.18493445	     -4.51363758
    319.00000000	     16.00000000	     -4.18213818	     -4.50864145
    320.00000000	     16.05000000	     -4.06097457	     -4.29737461
    321.00000000	     16.10000000	     -4.05514072	     -4.29792775
    322.00000000	     16.15000000	     -4.05160001	     -4.29842625
    323.00000000	     16.20000000	     -4.05353425	     -4.29914497
    324.00000000	     16.25000000	     -4.05232138	     -4.29943444
    325.00000000	     16.30000000	     -4.04816850	     -4.29956143
    326.00000000	     16.35000000	     -4.06818277	     -4.26298171
    327.00000000	     16.40000000	     -4.06648842	     -4.26118604
    328.00000000	     16.45000000	     -4.06279291	     -4.25986484
    329.00000000	     16.50000000	     -4.05148184	     -4.18214968
    330.00000000	     16.55000000	     -4.05047194	     -4.18092392
    331.00000000	     16.60000000	     -4.04320787	     -4.18269757
    332.00000000	     16.65000000	     -4.04243239	     -4.18108111
    333.00000000	     16.70000000	     -4.03822608	     -4.18137785
    334.00000000	     16.75000000	     -4.03724044	     -4.18061359
    335.00000000	     16.80000000	     -4.06945312	     -4.12892911
    336.00000000	     16.85000000	     -4.06734309	     -4.12914779
    337.00000000	     16.90000000	     -4.05854799	     -4.13261201
    338.00000000	     16.95000000	     -4.05628105	     -4.13201538
    339.00000000	     17.00000000	     -4.03691452	     -4.07479240
    340.00000000	     17.05000000	     -4.03485865	     -4.07517328
    341.00000000	     17.10000000	     -4.02533676	     -4.07949897
    342.00000000	     17.15000000	     -4.01917735	     -4.05953621
    343.00000000	     17.20000000	     -4.01683115	     -4.05983869
    344.00000000	     17.25000000	     -4.00689761	     -4.06384125
    345.00000000	     17.30000000	     -3.98798660	     -4.05015033
    346.00000000	     17.35000000	     -3.98631585	     -4.04980489
    347.00000000	     17.40000000	     -3.97358587	     -4.04322920
    348.00000000	     17.45000000	     -3.97255377	     -4.04277896
    349.00000000	     17.50000000	     -3.97092796	     -4.04348486
    350.00000000	     17.55000000	     -3.96879006	     -4.04523025
    351.00000000	     17.60000000	     -4.13797634	     -4.25308607
    352.00000000	     17.65000000	     -4.13715643	     -4.25289261
    353.00000000	     17.70000000	     -4.13640705	     -4.25307357
    354.00000000	     17.75000000	     -4.13574828	     -4.25357848
    355.00000000	     17.80000000	     -4.14725389	     -4.27328018
    356.00000000	     17.85000000	     -4.14712035	     -4.27313528
    357.00000000	     17.90000000	     -4.14705268	     -4.27332228
    358.00000000	     17.95000000	     -4.17985279	     -4.31252221
    359.00000000	     18.00000000	     -4.17938537	     -4.31229701
    360.00000000	     18.05000000	     -4.17889282	     -4.31238520
    361.00000000	     18.10000000	     -4.21565240	     -4.35790949
    362.00000000	     18.15000000	     -4.21430091	     -4.35807951
    363.00000000	     18.20000000	     -4.21331141	     -4.35852723
    364.00000000	     18.25000000	     -4.21267694	     -4.35939479
    365.00000000	     18.30000000	     -4.25259568	     -4.40411830
    366.00000000	     18.35000000	     -4.25147426	     -4.40424568
    367.00000000	     18.40000000	     -4.25057716	     -4.40468596
    368.00000000	     18.45000000	     -4.24956656	     -4.40569570
    369.00000000	     18.50000000	     -4.24887461	     -4.40694565
    370.00000000	     18.55000000	     -4.27049872	     -4.42739909
    371.00000000	     18.60000000	     -4.26966669	     -4.42786173
    372.00000000	     18.65000000	     -4.26893673	     -4.42880875
    373.00000000	     18.70000000	     -4.26849153	     -4.42992901
    374.00000000	     18.75000000	     -4.31469647	     -4.47892054
    375.00000000	     18.80000000	     -4.31455302	     -4.47788535
    376.00000000	     18.85000000	     -4.31463762	     -4.47777655
    377.00000000	     18.90000000	     -4.31500388	     -4.47787792
    378.00000000	     18.95000000	     -4.36835947	     -4.52349061
    379.00000000	     19.00000000	     -4.36772937	     -4.52258438
    380.00000000	     19.05000000	     -4.36774319	     -4.52191403
    381.00000000	     19.10000000	     -4.36828199	     -4.52123964
    382.00000000	     19.15000000	     -4.41335539	     -4.51655666
    383.00000000	     19.20000000	     -4.41341488	     -4.51578457
    384.00000000	     19.25000000	     -4.43109018	     -4.52510563
    385.00000000	     19.30000000	     -4.43069221	     -4.52433924
    386.00000000	     19.35000000	     -4.43127473	     -4.52373267
    387.00000000	     19.40000000	     -4.43192660	     -4.52367352
    388.00000000	     19.45000000	     -4.43240350	     -4.52414592
    389.00000000	     19.50000000	     -4.43256442	     -4.52508349
    390.00000000	     19.55000000	     -4.43231263	     -4.52640467
    391.00000000	     19.60000000	     -4.43154798	     -4.52801915
    392.00000000	     19.65000000	     -4.43018689	     -4.52982202
    393.00000000	     19.70000000	     -4.42815791	     -4.53169635
    394.00000000	     19.75000000	     -4.42540242	     -4.53351697
    395.00000000	     19.80000000	     -4.42188109	     -4.53515242
    396.00000000	     19.85000000	     -4.41757196	     -4.53646650
    397.00000000	     19.90000000	     -4.30785009	     -4.38470547
    398.00000000	     19.95000000	     -4.30315944	     -4.38531600
    399.00000000	     20.00000000	     -4.29779048	     -4.38522567
    400.00000000	     20.05000000	     -4.28982430	     -4.38411118
    401.00000000	     20.10000000	     -4.21116250	     -4.31846483
    402.00000000	     20.15000000	     -4.20757587	     -4.31905728
    403.00000000	     20.20000000	     -4.20309596	     -4.31826138
    404.00000000	     20.25000000	     -4.12792336	     -4.31018603
    405.00000000	     20.30000000	     -4.12517995	     -4.30841528
    406.00000000	     20.35000000	     -4.12119159	     -4.30555408
    407.00000000	     20.40000000	     -4.07888621	     -4.26609573
    408.00000000	     20.45000000	     -4.07606064	     -4.26551202
    409.00000000	     20.50000000	     -4.07327531	     -4.26271704
    410.00000000	     20.55000000	     -4.18305859	     -4.45031455
    411.00000000	     20.60000000	     -4.18129964	     -4.44814283
    412.00000000	     20.65000000	     -4.15982662	     -4.41471287
    413.00000000	     20.70000000	     -4.15811504	     -4.41348290
    414.00000000	     20.75000000	     -4.18082668	     -4.41462515
    415.00000000	     20.80000000	     -4.17952106	     -4.41275076
    416.00000000	     20.85000000	     -4.17676484	     -4.40997773
    417.00000000	     20.90000000	     -4.24990062	     -4.45639275
    418.00000000	     20.95000000	     -4.24493070	     -4.45707622
    419.00000000	     21.00000000	     -4.23982931	     -4.45486326
    420.00000000	     21.05000000	     -4.54077551	     -4.88590198
    421.00000000	     21.10000000	     -4.53722255	     -4.88494475
    422.00000000	     21.15000000	     -4.53173386	     -4.88333543
    423.00000000	     21.20000000	     -4.52448036	     -4.88079301
    424.00000000	     21.25000000	     -4.50244609	     -4.85876400
    425.00000000	     21.30000000	     -4.49992079	     -4.85893155
    426.00000000	     21.35000000	     -4.49617447	     -4.85920018
    427.00000000	     21.40000000	     -4.49186708	     -4.85936250
    428.00000000	     21.45000000	     -4.48667670	     -4.85948334
    429.00000000	     21.50000000	     -4.48085884	     -4.85983142
    430.00000000	     21.55000000	     -4.54762865	     -4.87512864
    431.00000000	     21.60000000	     -4.54603955	     -4.87526932
    432.00000000	     21.65000000	     -4.54107448	     -4.88002622
    433.00000000	     21.70000000	     -4.54005620	     -4.87954158
    434.00000000	     21.75000000	     -4.54928721	     -4.91456559
    435.00000000	     21.80000000	     -4.54789410	     -4.91281983
    436.00000000	     21.85000000	     -4.53998904	     -4.91284001
    437.00000000	     21.90000000	     -4.53920203	     -4.90929587
    438.00000000	     21.95000000	     -4.53884208	     -4.93944936
    439.00000000	     22.00000000	     -4.53648513	     -4.93317549
    440.00000000	     22.05000000	     -4.53059623	     -4.92533208
    441.00000000	     22.10000000	     -4.53005182	     -4.94789861
    442.00000000	     22.15000000	     -4.52956803	     -4.94158447
    443.00000000	     22.20000000	     -4.52219866	     -4.93163702
    444.00000000	     22.25000000	     -4.52282957	     -4.92596657
    445.00000000	     22.30000000	     -4.51115358	     -4.91374070
    446.00000000	     22.35000000	     -4.48460987	     -4.86756012
    447.00000000	     22.40000000	     -4.48604894	     -4.86202121
    448.00000000	     22.45000000	     -4.48763163	     -4.85416760
    449.00000000	     22.50000000	     -4.47971300	     -4.83401917
    450.00000000	     22.55000000	     -4.47303932	     -4.81793275
    451.00000000	     22.60000000	     -4.47463905	     -4.81252754
    452.00000000	     22.65000000	     -4.43965488	     -4.73885252
    453.00000000	     22.70000000	     -4.44276493	     -4.72786987
    454.00000000	     22.75000000	     -4.44341458	     -4.72431837
    455.00000000	     22.80000000	     -4.44776746	     -4.70939674
    456.00000000	     22.85000000	     -4.44894351	     -4.70602514
    457.00000000	     22.90000000	     -4.26836102	     -4.32114259
    458.00000000	     22.95000000	     -4.26829483	     -4.32040869
    459.00000000	     23.00000000	     -4.26968153	     -4.31809800
    460.00000000	     23.05000000	     -4.27931607	     -4.31221645
    461.00000000	     23.10000000	     -4.28040208	     -4.31097147
    462.00000000	     23.15000000	     -4.29575255	     -4.31222455
    463.00000000	     23.20000000	     -4.29654150	     -4.31125948
    464.00000000	     23.25000000	     -4.34198369	     -4.32731124
    465.00000000	     23.30000000	     -4.34115786	     -4.32674962
    466.00000000	     23.35000000	     -4.34057160	     -4.32518477
    467.00000000	     23.40000000	     -4.34034585	     -4.32329453
    468.00000000	     23.45000000	     -4.38072026	     -4.25521163
    469.00000000	     23.50000000	     -4.38016396	     -4.25384669
    470.00000000	     23.55000000	     -4.37966729	     -4.25271720
    471.00000000	     23.60000000	     -4.37271716	     -4.22865592
    472.00000000	     23.65000000	     -4.37281394	     -4.22698968
    473.00000000	     23.70000000	     -4.37282352	     -4.22489135
    474.00000000	     23.75000000	     -4.37281504	     -4.22223946
    475.00000000	     23.80000000	     -4.37275617	     -4.21897867
    476.00000000	     23.85000000	     -4.43749609	     -4.08607636
    477.00000000	     23.90000000	     -4.43708466	     -4.08378131
    478.00000000	     23.95000000	     -4.43679598	     -4.08068062
    479.00000000	     24.00000000	     -4.43635431	     -4.07705405
    480.00000000	     24.05000000	     -4.43553347	     -4.07302895
    481.00000000	     24.10000000	     -4.39215030	     -4.01042962
    482.00000000	     24.15000000	     -4.39305595	     -4.00819433
    483.00000000	     24.20000000	     -4.39316398	     -4.00603431
    484.00000000	     24.25000000	     -4.50863200	     -3.97847808
    485.00000000	     24.30000000	     -4.50744628	     -3.97735809
    486.00000000	     24.35000000	     -4.50553843	     -3.97658568
    487.00000000	     24.40000000	     -4.48220439	     -3.96033160
    488.00000000	     24.45000000	     -4.47946396	     -3.96091629
    489.00000000	     24.50000000	     -4.47606208	     -3.96168999
    490.00000000	     24.55000000	     -4.47148676	     -3.96341277
    491.00000000	     24.60000000	     -4.44422202	     -3.95467342
    492.00000000	     24.65000000	     -4.44198053	     -3.95510612
    493.00000000	     24.70000000	     -4.43828165	     -3.95715938
    494.00000000	     24.75000000	     -4.43270900	     -3.96092404
    495.00000000	     24.80000000	     -4.41131956	     -3.96010636
    496.00000000	     24.85000000	     -4.40939763	     -3.95956476
    497.00000000	     24.90000000	     -4.40658038	     -3.96056588
    498.00000000	     24.95000000	     -4.40366408	     -3.96220868
    499.00000000	     25.00000000	     -4.44206561	     -4.03633285
    500.00000000	     25.05000000	     -4.44165009	     -4.03573752
    501.00000000	     25.10000000	     -4.44100043	     -4.03601812
    502.00000000	     25.15000000	     -4.43866657	     -4.03515118
    503.00000000	     25.20000000	     -4.43887605	     -4.03312482
    504.00000000	     25.25000000	     -4.43906561	     -4.03204188
    505.00000000	     25.30000000	     -4.46817115	     -3.99976269
    506.00000000	     25.35000000	     -4.46857704	     -3.99838223
    507.00000000	     25.40000000	     -4.47743179	     -4.00187390
    508.00000000	     25.45000000	     -4.47828881	     -4.00033501
    509.00000000	     25.50000000	     -4.65451574	     -4.25574965
    510.00000000	     25.55000000	     -4.65470656	     -4.25438614
    511.00000000	     25.60000000	     -4.66782439	     -4.25737793
    512.00000000	     25.65000000	     -4.66824279	     -4.25598594
    513.00000000	     25.70000000	     -4.71785036	     -4.28008511
    514.00000000	     25.75000000	     -4.71830835	     -4.27884450
    515.00000000	     25.80000000	     -4.71938447	     -4.27770063
    516.00000000	     25.85000000	     -4.74960267	     -4.29708357
    517.00000000	     25.90000000	     -4.74942926	     -4.29717932
    518.00000000	     25.95000000	     -4.81963205	     -4.42650899
    519.00000000	     26.00000000	     -4.81972631	     -4.42652965
    520.00000000	     26.05000000	     -4.81996370	     -4.42648629
    521.00000000	     26.10000000	     -4.85414721	     -4.47123577
    522.00000000	     26.15000000	     -4.85441157	     -4.47064296
    523.00000000	     26.20000000	     -4.85424349	     -4.47078745
    524.00000000	     26.25000000	     -4.85389544	     -4.47126734
    525.00000000	     26.30000000	     -4.86235836	     -4.49907670
    526.00000000	     26.35000000	     -4.86201983	     -4.49998481
    527.00000000	     26.40000000	     -4.86113298	     -4.50119641
    528.00000000	     26.45000000	     -4.84728246	     -4.77353886
    529.00000000	     26.50000000	     -4.84629540	     -4.77217470
    530.00000000	     26.55000000	     -4.84436856	     -4.77071215
    531.00000000	     26.60000000	     -4.82985887	     -4.79686397
    532.00000000	     26.65000000	     -4.82895204	     -4.79685254
    533.00000000	     26.70000000	     -4.82717360	     -4.79639619
    534.00000000	     26.75000000	     -4.77987540	     -4.87214983
    535.00000000	     26.80000000	     -4.77896916	     -4.87164236
    536.00000000	     26.85000000	     -4.76055896	     -4.85923828
    537.00000000	     26.90000000	     -4.75968769	     -4.85895229
    538.00000000	     26.95000000	     -4.74739072	     -4.85776088
    539.00000000	     27.00000000	     -4.74507577	     -4.85766032
    540.00000000	     27.05000000	     -4.70786525	     -4.82894947
    541.00000000	     27.10000000	     -4.70369722	     -4.82747514
    542.00000000	     27.15000000	     -4.69328241	     -4.82203752
    543.00000000	     27.20000000	     -4.60402622	     -4.70087913
    544.00000000	     27.25000000	     -4.59934988	     -4.69904437
    545.00000000	     27.30000000	     -4.55389978	     -4.66038060
    546.00000000	     27.35000000	     -4.55092840	     -4.65733407
    547.00000000	     27.40000000	     -4.50366985	     -4.60222400
    548.00000000	     27.45000000	     -4.49877616	     -4.60126892
    549.00000000	     27.50000000	     -4.44433567	     -4.52640826
    550.00000000	     27.55000000	     -4.44072439	     -4.52472795
    551.00000000	     27.60000000	     -4.40907648	     -4.48917243
    552.00000000	     27.65000000	     -4.39074970	     -4.47242384
    553.00000000	     27.70000000	     -4.29003151	     -4.28194328
    554.00000000	     27.75000000	     -4.27648249	     -4.27425174
    555.00000000	     27.80000000	     -4.27433280	     -4.27233258
    556.00000000	     27.85000000	     -4.24794182	     -4.25342006
    557.00000000	     27.90000000	     -4.24623167	     -4.25076317
    558.00000000	     27.95000000	     -4.18098821	     -4.16505599
    559.00000000	     28.00000000	     -4.18012645	     -4.16281708
    560.00000000	     28.05000000	     -4.17847283	     -4.16013381
    561.00000000	     28.10000000	     -3.85204332	     -3.76243395
    562.00000000	     28.15000000	     -3.85203328	     -3.76026756
    563.00000000	     28.20000000	     -3.85017857	     -3.76075973
    564.00000000	     28.25000000	     -3.84958859	     -3.75931400
    565.00000000	     28.30000000	     -3.83578009	     -3.72846294
    566.00000000	     28.35000000	     -3.83582946	     -3.72741442
    567.00000000	     28.40000000	     -3.83618515	     -3.72686975
    568.00000000	     28.45000000	     -3.84523659	     -3.72497289
    569.00000000	     28.50000000	     -3.84505055	     -3.72458464
    570.00000000	     28.55000000	     -3.85414030	     -3.73358826
    571.00000000	     28.60000000	     -3.85353623	     -3.73350568
    572.00000000	     28.65000000	     -3.86514678	     -3.74463655
    573.00000000	     28.70000000	     -3.86379692	     -3.74624144
    574.00000000	     28.75000000	     -3.90457720	     -3.79579640
    575.00000000	     28.80000000	     -3.90349285	     -3.79728544
    576.00000000	     28.85000000	     -3.92345246	     -3.82003514
    577.00000000	     28.90000000	     -3.92070516	     -3.82231785
    578.00000000	     28.95000000	     -3.91763415	     -3.82601737
    579.00000000	     29.00000000	     -3.95446473	     -3.88028564
    580.00000000	     29.05000000	     -3.95053512	     -3.88261729
    581.00000000	     29.10000000	     -3.94608111	     -3.88581823
    582.00000000	     29.15000000	     -3.94090081	     -3.88995128
    583.00000000	     29.20000000	     -4.00796149	     -3.97802302
    584.00000000	     29.25000000	     -4.00393645	     -3.97969926
    585.00000000	     29.30000000	     -3.99872283	     -3.98190978
    586.00000000	     29.35000000	     -3.99288408	     -3.98402301
    587.00000000	     29.40000000	     -3.98654537	     -3.98582746
    588.00000000	     29.45000000	     -3.97825038	     -4.03445484
    589.00000000	     29.50000000	     -3.97404489	     -4.03458007
    590.00000000	     29.55000000	     -3.96817744	     -4.03475845
    591.00000000	     29.60000000	     -3.93091410	     -4.00950570
    592.00000000	     29.65000000	     -3.92587099	     -4.00932478
    593.00000000	     29.70000000	     -3.87443211	     -3.97138434
    594.00000000	     29.75000000	     -3.72347411	     -3.86529427
    595.00000000	     29.80000000	     -3.71830231	     -3.86492592
    596.00000000	     29.85000000	     -3.68520536	     -3.84338329
    597.00000000	     29.90000000	     -3.61337816	     -3.78550801
    598.00000000	     29.95000000	     -3.58665818	     -3.76578716
    599.00000000	     30.00000000	     -3.48304546	     -3.68429390
    600.00000000	     30.05000000	     -3.45339701	     -3.67174202
    601.00000000	     30.10000000	     -3.22451040	     -3.54899659
    602.00000000	     30.15000000	     -3.19734973	     -3.53609241
    603.00000000	     30.20000000	     -3.14359532	     -3.49591125
    604.00000000	     30.25000000	     -3.05561651	     -3.40994666
    605.00000000	     30.30000000	     -3.01952089	     -3.39331357
    606.00000000	     30.35000000	     -2.96450958	     -3.35957967
    607.00000000	     30.40000000	     -2.75339047	     -3.23390132
    608.00000000	     30.45000000	     -2.74395731	     -3.23826368
    609.00000000	     30.50000000	     -2.67292498	     -3.17309003
    610.00000000	     30.55000000	     -2.61107121	     -3.10820890
    611.00000000	     30.60000000	     -2.60355837	     -3.11266340
    612.00000000	     30.65000000	     -2.58568041	     -3.10947455
    613.00000000	     30.70000000	     -2.57522189	     -3.11340773
    614.00000000	     30.75000000	     -2.46206896	     -3.01965216
    615.00000000	     30.80000000	     -2.45634794	     -3.02342621
    616.00000000	     30.85000000	     -2.30588931	     -2.94907414
    617.00000000	     30.90000000	     -2.30217418	     -2.95219466
    618.00000000	     30.95000000	     -2.27882819	     -2.94405244
    619.00000000	     31.00000000	     -2.27477267	     -2.94696974
    620.00000000	     31.05000000	     -2.17221012	     -2.91614032
    621.00000000	     31.10000000	     -2.16998616	     -2.91887402
    622.00000000	     31.15000000	     -2.16174342	     -2.92181113
    623.00000000	     31.20000000	     -1.98444592	     -2.85336088
    624.00000000	     31.25000000	     -1.97372581	     -2.84808943
    625.00000000	     31.30000000	     -1.93500384	     -2.82747783
    626.00000000	     31.35000000	     -1.79632293	     -2.78149569
    627.00000000	     31.40000000	     -1.77911566	     -2.76777362
    628.00000000	     31.45000000	     -1.74301334	     -2.74435552
    629.00000000	     31.50000000	     -1.68115788	     -2.70243537
    630.00000000	     31.55000000	     -1.61256967	     -2.66118204
    631.00000000	     31.60000000	     -1.35349690	     -2.54626901
    632.00000000	     31.65000000	     -1.32938520	     -2.52017167
    633.00000000	     31.70000000	     -1.23235274	     -2.44308516
    634.00000000	     31.75000000	     -1.20154088	     -2.41314254
    635.00000000	     31.80000000	     -1.07717600	     -2.33764266
    636.00000000	     31.85000000	     -0.89016580	     -2.28363607
    637.00000000	     31.90000000	     -0.86406901	     -2.24811535
    638.00000000	     31.95000000	     -0.74202587	     -2.15332501
    639.00000000	     32.00000000	     -0.36314864	     -1.77512783
    640.00000000	     32.05000000	     -0.35489441	     -1.74844736
    641.00000000	     32.10000000	     -0.26259904	     -1.79117530
    642.00000000	     32.15000000	     -0.25986587	     -1.76565773
    643.00000000	     32.20000000	     -0.14436357	     -1.74043212
    644.00000000	     32.25000000	     -0.14086641	     -1.71505400
    645.00000000	     32.30000000	     -0.13199112	     -1.69218613
    646.00000000	     32.35000000	     -0.07391823	     -1.71421282
    647.00000000	     32.40000000	      0.12453421	     -1.54575888
    648.00000000	     32.45000000	      0.11939108	     -1.53887740
    649.00000000	     32.50000000	      0.10823446	     -1.52664163
    650.00000000	     32.55000000	      0.08364808	     -1.58071833
    651.00000000	     32.60000000	      0.09048011	     -1.61150091
    652.00000000	     32.65000000	      0.07215954	     -1.62850335
    653.00000000	     32.70000000	      0.03371187	     -1.64414265
    654.00000000	     32.75000000	      0.03111814	     -1.63949071
    655.00000000	     32.80000000	     -0.07960208	     -1.70994221
    656.00000000	     32.85000000	     -0.08233781	     -1.70659751
    657.00000000	     32.90000000	     -0.14010610	     -1.73017571
    658.00000000	     32.95000000	     -0.40514400	     -1.85487278
    659.00000000	     33.00000000	     -0.49076473	     -1.90200761
    660.00000000	     33.05000000	     -0.49553972	     -1.89849340
    661.00000000	     33.10000000	     -1.02790165	     -2.18112046
    662.00000000	     33.15000000	     -1.03153478	     -2.17925550
    663.00000000	     33.20000000	     -1.19973575	     -2.25622876
    664.00000000	     33.25000000	     -1.20306359	     -2.25583225
    665.00000000	     33.30000000	     -1.65741777	     -2.45651336
    666.00000000	     33.35000000	     -1.66230093	     -2.45637210
    667.00000000	     33.40000000	     -1.93192101	     -2.59283246
    668.00000000	     33.45000000	     -1.93699924	     -2.59092390
    669.00000000	     33.50000000	     -2.82884801	     -3.20806430
    670.00000000	     33.55000000	     -2.83446587	     -3.20598558
    671.00000000	     33.60000000	     -2.97618274	     -3.25820222
    672.00000000	     33.65000000	     -2.98001202	     -3.25682771
    673.00000000	     33.70000000	     -3.61250147	     -3.67635051
    674.00000000	     33.75000000	     -3.61742517	     -3.67276328
    675.00000000	     33.80000000	     -3.73411392	     -3.69583043
    676.00000000	     33.85000000	     -3.73867000	     -3.69237412
    677.00000000	     33.90000000	     -3.78373425	     -3.70791916
    678.00000000	     33.95000000	     -3.78996051	     -3.70607507
    679.00000000	     34.00000000	     -4.00361186	     -3.73093880
    680.00000000	     34.05000000	     -4.02506588	     -3.73681633
    681.00000000	     34.10000000	     -4.02937015	     -3.73476465
    682.00000000	     34.15000000	     -4.07680725	     -3.75244826
    683.00000000	     34.20000000	     -4.08098717	     -3.75044770
    684.00000000	     34.25000000	     -4.26669798	     -3.75318060
    685.00000000	     34.30000000	     -4.27828796	     -3.75287471
    686.00000000	     34.35000000	     -4.46452877	     -3.82867132
    687.00000000	     34.40000000	     -4.46623669	     -3.82610893
    688.00000000	     34.45000000	     -4.47879660	     -3.82236788
    689.00000000	     34.50000000	     -4.46852490	     -3.73104324
    690.00000000	     34.55000000	     -4.46853582	     -3.72838719
    691.00000000	     34.60000000	     -4.46477289	     -3.70994192
    692.00000000	     34.65000000	     -4.46395188	     -3.70709910
    693.00000000	     34.70000000	     -4.46044463	     -3.59884898
    694.00000000	     34.75000000	     -4.46011251	     -3.59441229
    695.00000000	     34.80000000	     -4.45819076	     -3.58976505
    696.00000000	     34.85000000	     -4.44240160	     -3.55303755
    697.00000000	     34.90000000	     -4.43856055	     -3.54706776
    698.00000000	     34.95000000	     -4.43233798	     -3.54011278
    699.00000000	     35.00000000	     -4.42195219	     -3.53045390
    700.00000000	     35.05000000	     -4.41153370	     -3.52059657
    701.00000000	     35.10000000	     -4.40147981	     -3.51006229
    702.00000000	     35.15000000	     -4.57480643	     -3.48140467
    703.00000000	     35.20000000	     -4.57113295	     -3.47824935
    704.00000000	     35.25000000	     -4.56482119	     -3.47395451
    705.00000000	     35.30000000	     -4.56319907	     -3.46988314
    706.00000000	     35.35000000	     -4.56036296	     -3.45101137
    707.00000000	     35.40000000	     -4.56036037	     -3.44865050
    708.00000000	     35.45000000	     -4.59630806	     -3.43079396
    709.00000000	     35.50000000	     -4.59548286	     -3.42939297
    710.00000000	     35.55000000	     -4.60126862	     -3.42441705
    711.00000000	     35.60000000	     -4.64606257	     -3.43032540
    712.00000000	     35.65000000	     -4.64518580	     -3.42853810
    713.00000000	     35.70000000	     -4.65099914	     -3.42762974
    714.00000000	     35.75000000	     -4.66467276	     -3.43406728
    715.00000000	     35.80000000	     -4.66813063	     -3.43752926
    716.00000000	     35.85000000	     -4.71478558	     -3.46908837
    717.00000000	     35.90000000	     -4.71698768	     -3.47116865
    718.00000000	     35.95000000	     -4.72387143	     -3.47974519
    719.00000000	     36.00000000	     -4.72335512	     -3.48276502
    720.00000000	     36.05000000	     -4.78312083	     -3.54478217
    721.00000000	     36.10000000	     -4.78541254	     -3.55545315
    722.00000000	     36.15000000	     -4.78359226	     -3.56255485
    723.00000000	     36.20000000	     -4.78837509	     -3.57661654
    724.00000000	     36.25000000	     -4.78387350	     -3.57794601
    725.00000000	     36.30000000	     -4.78932653	     -3.62974037
    726.00000000	     36.35000000	     -4.77804893	     -3.63194738
    727.00000000	     36.40000000	     -4.76758156	     -3.63482672
    728.00000000	     36.45000000	     -4.78611447	     -3.68707266
    729.00000000	     36.50000000	     -4.77009053	     -3.68600916
    730.00000000	     36.55000000	     -4.75291600	     -3.68406844
    731.00000000	     36.60000000	     -4.73729505	     -3.68344205
    732.00000000	     36.65000000	     -4.72206455	     -3.68295335
    733.00000000	     36.70000000	     -4.73976094	     -3.76891494
    734.00000000	     36.75000000	     -4.71620487	     -3.76303883
    735.00000000	     36.80000000	     -4.69485003	     -3.75563918
    736.00000000	     36.85000000	     -4.67085425	     -3.74638557
    737.00000000	     36.90000000	     -4.64638180	     -3.73938654
    738.00000000	     36.95000000	     -4.75372896	     -3.82771100
    739.00000000	     37.00000000	     -4.72663434	     -3.81597535
    740.00000000	     37.05000000	     -4.71899323	     -3.81351387
    741.00000000	     37.10000000	     -4.67405001	     -3.79724208
    742.00000000	     37.15000000	     -4.63276209	     -3.77946948
    743.00000000	     37.20000000	     -4.62799160	     -3.77902464
    744.00000000	     37.25000000	     -4.57958731	     -3.76033964
    745.00000000	     37.30000000	     -4.53900172	     -3.75004500
    746.00000000	     37.35000000	     -4.55066893	     -3.81991788
    747.00000000	     37.40000000	     -4.53089245	     -3.80698209
    748.00000000	     37.45000000	     -4.49934386	     -3.79112402
    749.00000000	     37.50000000	     -4.49706036	     -3.79083485
    750.00000000	     37.55000000	     -4.45446684	     -3.76916531
    751.00000000	     37.60000000	     -4.42031770	     -3.77269600
    752.00000000	     37.65000000	     -4.41848672	     -3.77229638
    753.00000000	     37.70000000	     -4.45784825	     -3.74444836
    754.00000000	     37.75000000	     -4.45623180	     -3.74378564
    755.00000000	     37.80000000	     -4.42323116	     -3.72799490
    756.00000000	     37.85000000	     -4.42124688	     -3.72691301
    757.00000000	     37.90000000	     -4.37351864	     -3.69863916
    758.00000000	     37.95000000	     -4.37171060	     -3.69807417
    759.00000000	     38.00000000	     -4.32154359	     -3.66422462
    760.00000000	     38.05000000	     -4.31933201	     -3.66411413
    761.00000000	     38.10000000	     -4.30833602	     -3.66430508
    762.00000000	     38.15000000	     -4.22210146	     -3.50170829
    763.00000000	     38.20000000	     -4.21485554	     -3.50128105
    764.00000000	     38.25000000	     -4.18585505	     -3.47205348
    765.00000000	     38.30000000	     -4.18053243	     -3.47471983
    766.00000000	     38.35000000	     -4.14483474	     -3.44100509
    767.00000000	     38.40000000	     -4.14059389	     -3.44336379
    768.00000000	     38.45000000	     -4.12646647	     -3.43682396
    769.00000000	     38.50000000	     -4.04396265	     -3.33242159
    770.00000000	     38.55000000	     -4.01855823	     -3.31768152
    771.00000000	     38.60000000	     -4.01230869	     -3.31939228
    772.00000000	     38.65000000	     -3.96179544	     -3.27702971
    773.00000000	     38.70000000	     -3.95086389	     -3.26948575
    774.00000000	     38.75000000	     -3.89171403	     -3.22779724
    775.00000000	     38.80000000	     -3.85741383	     -3.20704834
    776.00000000	     38.85000000	     -3.82858809	     -3.18942369
    777.00000000	     38.90000000	     -3.78864433	     -3.15863330
    778.00000000	     38.95000000	     -3.75124560	     -3.13221988
    779.00000000	     39.00000000	     -3.71234313	     -3.10508588
    780.00000000	     39.05000000	     -3.69150794	     -3.09053475
    781.00000000	     39.10000000	     -3.67815523	     -3.08222132
    782.00000000	     39.15000000	     -3.65094152	     -3.06062367
    783.00000000	     39.20000000	     -3.62470332	     -3.04283426
    784.00000000	     39.25000000	     -3.65189076	     -3.04501347
    785.00000000	     39.30000000	     -3.65175412	     -3.04162515
    786.00000000	     39.35000000	     -3.61168807	     -3.02252193
    787.00000000	     39.40000000	     -3.62871058	     -3.00738380
    788.00000000	     39.45000000	     -3.62789754	     -3.00348456
    789.00000000	     39.50000000	     -3.61295587	     -3.00378186
    790.00000000	     39.55000000	     -3.64813745	     -2.96051753
    791.00000000	     39.60000000	     -3.64944704	     -2.96883883
    792.00000000	     39.65000000	     -3.66959979	     -2.96879678
    793.00000000	     39.70000000	     -3.70574208	     -2.92668981
    794.00000000	     39.75000000	     -3.70580191	     -2.92779087
    795.00000000	     39.80000000	     -3.71690881	     -2.93057634
    796.00000000	     39.85000000	     -3.75037329	     -2.84606250
    797.00000000	     39.90000000	     -3.75922715	     -2.84415264
    798.00000000	     39.95000000	     -3.76791893	     -2.83663465
    799.00000000	     40.00000000	     -3.77907410	     -2.83312499
    800.00000000	     40.05000000	     -3.80055614	     -2.80845694
    801.00000000	     40.10000000	     -3.81460733	     -2.80221875
    802.00000000	     40.15000000	     -3.87203369	     -2.68919195
    803.00000000	     40.20000000	     -3.87764043	     -2.68576892
    804.00000000	     40.25000000	     -3.88297985	     -2.67830108
    805.00000000	     40.30000000	     -3.89008433	     -2.67190739
    806.00000000	     40.35000000	     -3.89838841	     -2.66179962
    807.00000000	     40.40000000	     -3.90721246	     -2.65214319
    808.00000000	     40.45000000	     -3.92306728	     -2.56376421
    809.00000000	     40.50000000	     -3.93187524	     -2.41919096
    810.00000000	     40.55000000	     -3.93303306	     -2.41657773
    811.00000000	     40.60000000	     -3.93100133	     -2.41699203
    812.00000000	     40.65000000	     -3.70955922	     -2.15868211
    813.00000000	     40.70000000	     -3.72093029	     -2.16178749
    814.00000000	     40.75000000	     -3.73323010	     -2.17282548
    815.00000000	     40.80000000	     -3.73516962	     -2.17569429
    816.00000000	     40.85000000	     -3.76000937	     -2.19176989
    817.00000000	     40.90000000	     -3.76053397	     -2.19313005
    818.00000000	     40.95000000	     -3.78956668	     -2.20741352
    819.00000000	     41.00000000	     -3.78871195	     -2.20838743
    820.00000000	     41.05000000	     -3.79884522	     -2.22069094
    821.00000000	     41.10000000	     -3.79826987	     -2.22240676
    822.00000000	     41.15000000	     -3.82787628	     -2.22688853
    823.00000000	     41.20000000	     -3.82659266	     -2.22692145
    824.00000000	     41.25000000	     -3.82709311	     -2.23708530
    825.00000000	     41.30000000	     -3.73566114	     -2.12398144
    826.00000000	     41.35000000	     -3.73352618	     -2.12530385
    827.00000000	     41.40000000	     -3.74607218	     -2.14538690
    828.00000000	     41.45000000	     -3.74175861	     -2.15126979
    829.00000000	     41.50000000	     -3.75796542	     -2.17562103
    830.00000000	     41.55000000	     -3.75348322	     -2.18200618
    831.00000000	     41.60000000	     -3.72057226	     -2.20623222
    832.00000000	     41.65000000	     -3.71814241	     -2.21304694
    833.00000000	     41.70000000	     -3.75276311	     -2.23895931
    834.00000000	     41.75000000	     -3.76992821	     -2.26688890
    835.00000000	     41.80000000	     -3.78144197	     -2.30465454
    836.00000000	     41.85000000	     -3.76571256	     -2.38130141
    837.00000000	     41.90000000	     -3.78920890	     -2.40537987
    838.00000000	     41.95000000	     -3.79530620	     -2.41614248
    839.00000000	     42.00000000	     -3.80699135	     -2.50672930
    840.00000000	     42.05000000	     -3.82241545	     -2.51440040
    841.00000000	     42.10000000	     -3.82708458	     -2.54346099
    842.00000000	     42.15000000	     -3.82490282	     -2.54844475
    843.00000000	     42.20000000	     -3.82278219	     -2.64369915
    844.00000000	     42.25000000	     -3.82371415	     -2.63955844
    845.00000000	     42.30000000	     -3.81820568	     -2.65668343
    846.00000000	     42.35000000	     -3.80666994	     -2.65980113
    847.00000000	     42.40000000	     -3.78865631	     -2.71034866
    848.00000000	     42.45000000	     -3.78290228	     -2.69834693
    849.00000000	     42.50000000	     -3.77553285	     -2.69033673
    850.00000000	     42.55000000	     -3.77389803	     -2.69005659
    851.00000000	     42.60000000	     -3.75537806	     -2.74454815
    852.00000000	     42.65000000	     -3.75420315	     -2.74342740
    853.00000000	     42.70000000	     -3.74789568	     -2.73142984
    854.00000000	     42.75000000	     -3.74629167	     -2.73067614
    855.00000000	     42.80000000	     -3.75723210	     -2.78634454
    856.00000000	     42.85000000	     -3.75561620	     -2.78586555
    857.00000000	     42.90000000	     -3.79210876	     -2.85689347
    858.00000000	     42.95000000	     -3.79060501	     -2.85603679
    859.00000000	     43.00000000	     -3.80128580	     -2.86810426
    860.00000000	     43.05000000	     -3.79968524	     -2.86775219
    861.00000000	     43.10000000	     -3.85707036	     -2.97053614
    862.00000000	     43.15000000	     -3.85538615	     -2.97410574
    863.00000000	     43.20000000	     -3.87188797	     -2.99570826
    864.00000000	     43.25000000	     -3.87003058	     -2.99563966
    865.00000000	     43.30000000	     -3.89445888	     -3.03983325
    866.00000000	     43.35000000	     -3.89202762	     -3.03933476
    867.00000000	     43.40000000	     -3.88865014	     -3.04125689
    868.00000000	     43.45000000	     -3.86350848	     -3.05498701
    869.00000000	     43.50000000	     -3.85926982	     -3.05442654
    870.00000000	     43.55000000	     -3.86221653	     -3.06675105
    871.00000000	     43.60000000	     -3.86961850	     -3.08337000
    872.00000000	     43.65000000	     -3.88488627	     -3.13964101
    873.00000000	     43.70000000	     -3.87765876	     -3.14176978
    874.00000000	     43.75000000	     -3.87309312	     -3.14665786
    875.00000000	     43.80000000	     -3.87103126	     -3.15405444
    876.00000000	     43.85000000	     -3.87465220	     -3.16888071
    877.00000000	     43.90000000	     -3.87367767	     -3.16884338
    878.00000000	     43.95000000	     -3.88707588	     -3.21858937
    879.00000000	     44.00000000	     -3.88076312	     -3.22214202
    880.00000000	     44.05000000	     -3.87386778	     -3.22440832
    881.00000000	     44.10000000	     -3.86922554	     -3.21246900
    882.00000000	     44.15000000	     -3.86368459	     -3.21690507
    883.00000000	     44.20000000	     -3.85704442	     -3.21681087
    884.00000000	     44.25000000	     -3.84780904	     -3.21304002
    885.00000000	     44.30000000	     -3.86114943	     -3.19024281
    886.00000000	     44.35000000	     -3.85386439	     -3.19394303
    887.00000000	     44.40000000	     -3.96858718	     -3.19243308
    888.00000000	     44.45000000	     -3.96004213	     -3.19375086
    889.00000000	     44.50000000	     -3.94475101	     -3.18619040
    890.00000000	     44.55000000	     -3.94190066	     -3.18425060
    891.00000000	     44.60000000	     -3.92179737	     -3.13509218
    892.00000000	     44.65000000	     -3.91921817	     -3.13499640
    893.00000000	     44.70000000	     -3.92317385	     -3.10044465
    894.00000000	     44.75000000	     -3.92028375	     -3.10051271
    895.00000000	     44.80000000	     -3.88994369	     -3.06701811
    896.00000000	     44.85000000	     -3.89012164	     -3.06594844
    897.00000000	     44.90000000	     -3.93142691	     -3.02579508
    898.00000000	     44.95000000	     -3.93097518	     -3.02404787
    899.00000000	     45.00000000	     -3.96599206	     -2.98037628
    900.00000000	     45.05000000	     -3.96502056	     -2.97902679
    901.00000000	     45.10000000	     -3.94619418	     -2.97712806
    902.00000000	     45.15000000	     -3.94146335	     -2.96093361
    903.00000000	     45.20000000	     -3.93734618	     -2.96032442
    904.00000000	     45.25000000	     -3.92879630	     -2.95500168
    905.00000000	     45.30000000	     -3.95511753	     -2.89560306
    906.00000000	     45.35000000	     -3.94877305	     -2.89624479
    907.00000000	     45.40000000	     -3.93815617	     -2.89422817
    908.00000000	     45.45000000	     -3.91262969	     -2.87960470
    909.00000000	     45.50000000	     -3.91358146	     -2.87767546
    910.00000000	     45.55000000	     -3.89853370	     -2.87938186
    911.00000000	     45.60000000	     -3.89977026	     -2.87582645
    912.00000000	     45.65000000	     -3.84922069	     -2.83443813
    913.00000000	     45.70000000	     -3.85026308	     -2.83276288
    914.00000000	     45.75000000	     -3.79813950	     -2.78846810
    915.00000000	     45.80000000	     -3.79991767	     -2.78696781
    916.00000000	     45.85000000	     -3.65669338	     -2.64999027
    917.00000000	     45.90000000	     -3.65545666	     -2.64896252
    918.00000000	     45.95000000	     -3.63814381	     -2.63312993
    919.00000000	     46.00000000	     -3.63724452	     -2.63286878
    920.00000000	     46.05000000	     -3.63696586	     -2.63195252
    921.00000000	     46.10000000	     -3.63464010	     -2.63050341
    922.00000000	     46.15000000	     -3.60205446	     -2.61408224
    923.00000000	     46.20000000	     -3.60253210	     -2.61098928
    924.00000000	     46.25000000	     -3.60072423	     -2.60882983
    925.00000000	     46.30000000	     -3.60230350	     -2.60900303
    926.00000000	     46.35000000	     -3.58979298	     -2.60838204
    927.00000000	     46.40000000	     -3.58935432	     -2.60426378
    928.00000000	     46.45000000	     -3.59418574	     -2.60370412
    929.00000000	     46.50000000	     -3.60321723	     -2.61019962
    930.00000000	     46.55000000	     -3.61157757	     -2.61314289
    931.00000000	     46.60000000	     -3.62086137	     -2.61802517
    932.00000000	     46.65000000	     -3.63721738	     -2.63626647
    933.00000000	     46.70000000	     -3.65133382	     -2.64614165
    934.00000000	     46.75000000	     -3.66407261	     -2.65874055
    935.00000000	     46.80000000	     -3.69959101	     -2.67805646
    936.00000000	     46.85000000	     -3.70243706	     -2.67626049
    937.00000000	     46.90000000	     -3.71283699	     -2.68361688
    938.00000000	     46.95000000	     -3.71281474	     -2.68385349
    939.00000000	     47.00000000	     -3.74339625	     -2.71106984
    940.00000000	     47.05000000	     -3.74369217	     -2.71123752
    941.00000000	     47.10000000	     -3.88346834	     -2.87021466
    942.00000000	     47.15000000	     -3.88222735	     -2.86958210
    943.00000000	     47.20000000	     -3.89111993	     -2.88150949
    944.00000000	     47.25000000	     -3.89050395	     -2.88190391
    945.00000000	     47.30000000	     -4.02036242	     -3.06742725
    946.00000000	     47.35000000	     -4.01898970	     -3.06706543
    947.00000000	     47.40000000	     -4.01945920	     -3.07404620
    948.00000000	     47.45000000	     -4.01753203	     -3.07505039
    949.00000000	     47.50000000	     -4.03948173	     -3.10701511
    950.00000000	     47.55000000	     -4.03731681	     -3.10815035
    951.00000000	     47.60000000	     -4.03349456	     -3.11024362
    952.00000000	     47.65000000	     -4.10276342	     -3.30432498
    953.00000000	     47.70000000	     -4.09842787	     -3.30588291
    954.00000000	     47.75000000	     -4.09384335	     -3.30757338
    955.00000000	     47.80000000	     -4.09007981	     -3.33672814
    956.00000000	     47.85000000	     -4.08515462	     -3.33812537
    957.00000000	     47.90000000	     -4.07853547	     -3.33899572
    958.00000000	     47.95000000	     -4.07039988	     -3.33916261
    959.00000000	     48.00000000	     -4.05921213	     -3.33774376
    960.00000000	     48.05000000	     -4.04268443	     -3.47028805
    961.00000000	     48.10000000	     -4.03672565	     -3.46957180
    962.00000000	     48.15000000	     -4.03062213	     -3.46779992
    963.00000000	     48.20000000	     -4.02340700	     -3.46523308
    964.00000000	     48.25000000	     -4.01452290	     -3.46131191
    965.00000000	     48.30000000	     -4.00540049	     -3.45641064
    966.00000000	     48.35000000	     -3.94969606	     -3.52336450
    967.00000000	     48.40000000	     -3.94664897	     -3.52122002
    968.00000000	     48.45000000	     -3.94318123	     -3.51865225
    969.00000000	     48.50000000	     -3.93766700	     -3.51505321
    970.00000000	     48.55000000	     -3.91467894	     -3.50017790
    971.00000000	     48.60000000	     -3.91340900	     -3.49929606
    972.00000000	     48.65000000	     -3.91090059	     -3.49774312
    973.00000000	     48.70000000	     -3.90675943	     -3.49578077
    974.00000000	     48.75000000	     -3.90128728	     -3.49482832
    975.00000000	     48.80000000	     -3.90052012	     -3.49358835
    976.00000000	     48.85000000	     -3.92476606	     -3.52950366
    977.00000000	     48.90000000	     -3.92369856	     -3.52734300
    978.00000000	     48.95000000	     -3.92058054	     -3.52499122
    979.00000000	     49.00000000	     -3.91482210	     -3.52382047
    980.00000000	     49.05000000	     -3.95967356	     -3.59654057
    981.00000000	     49.10000000	     -3.95946922	     -3.59499502
    982.00000000	     49.15000000	     -3.95850572	     -3.59397035
    983.00000000	     49.20000000	     -3.95507566	     -3.59245848
    984.00000000	     49.25000000	     -3.95247824	     -3.59014525
    985.00000000	     49.30000000	     -3.95034698	     -3.58694034
    986.00000000	     49.35000000	     -3.94100341	     -3.57914656
    987.00000000	     49.40000000	     -3.94016173	     -3.57769228
    988.00000000	     49.45000000	     -3.93938425	     -3.57583935
    989.00000000	     49.50000000	     -3.93844137	     -3.57379229
    990.00000000	     49.55000000	     -3.91924878	     -3.56870172
    991.00000000	     49.60000000	     -3.91894181	     -3.56831499
    992.00000000	     49.65000000	     -3.91856980	     -3.56736329
    993.00000000	     49.70000000	     -3.91153906	     -3.58895332
    994.00000000	     49.75000000	     -3.91157864	     -3.58813624
    995.00000000	     49.80000000	     -3.91115977	     -3.58655052
    996.00000000	     49.85000000	     -3.90198763	     -3.57904762
    997.00000000	     49.90000000	     -3.90078695	     -3.57811480
    998.00000000	     49.95000000	     -3.86224701	     -3.54566409
    999.00000000	     50.00000000	     -3.86193145	     -3.54403391
   1000.00000000	     50.05000000	     -3.66001153	     -3.27791658
   1001.00000000	     50.10000000	     -3.65969430	     -3.27671557
   1002.00000000	     50.15000000	     -3.65223623	     -3.27367974
   1003.00000000	     50.20000000	     -3.65154226	     -3.27286771
   1004.00000000	     50.25000000	     -3.64238738	     -3.27176031
   1005.00000000	     50.30000000	     -3.64213255	     -3.27064706
   1006.00000000	     50.35000000	     -3.64174830	     -3.26918085
   1007.00000000	     50.40000000	     -3.64112165	     -3.26771669
   1008.00000000	     50.45000000	     -3.64025926	     -3.26647513
   1009.00000000	     50.50000000	     -3.63929130	     -3.26551146
   1010.00000000	     50.55000000	     -3.63834777	     -3.26482075
   1011.00000000	     50.60000000	     -3.70609366	     -3.31085126
   1012.00000000	     50.65000000	     -3.70533095	     -3.31016088
   1013.00000000	     50.70000000	     -3.70494033	     -3.30970985
   1014.00000000	     50.75000000	     -3.70489683	     -3.30844547
   1015.00000000	     50.80000000	     -3.70501600	     -3.30787899
   1016.00000000	     50.85000000	     -3.75026543	     -3.33530103
   1017.00000000	     50.90000000	     -3.74819557	     -3.33503631
   1018.00000000	     50.95000000	     -3.74683586	     -3.33412581
   1019.00000000	     51.00000000	     -3.74582645	     -3.33247544
   1020.00000000	     51.05000000	     -3.74562481	     -3.33009393
   1021.00000000	     51.10000000	     -3.74435141	     -3.32776993
   1022.00000000	     51.15000000	     -3.93539889	     -3.53964642
   1023.00000000	     51.20000000	     -3.93428347	     -3.53790298
   1024.00000000	     51.25000000	     -3.93325367	     -3.53560772
   1025.00000000	     51.30000000	     -3.93219723	     -3.53224776
   1026.00000000	     51.35000000	     -3.93078258	     -3.52777102
   1027.00000000	     51.40000000	     -3.92916556	     -3.52281075
   1028.00000000	     51.45000000	     -4.00357462	     -3.54146525
   1029.00000000	     51.50000000	     -4.00271959	     -3.53972543
   1030.00000000	     51.55000000	     -4.00172620	     -3.53743543
   1031.00000000	     51.60000000	     -3.99899431	     -3.53380378
   1032.00000000	     51.65000000	     -3.99813180	     -3.53108312
   1033.00000000	     51.70000000	     -3.99612301	     -3.50649125
   1034.00000000	     51.75000000	     -3.99581993	     -3.50564768
   1035.00000000	     51.80000000	     -3.99539082	     -3.50490744
   1036.00000000	     51.85000000	     -3.99481829	     -3.50437719
   1037.00000000	     51.90000000	     -3.99432605	     -3.50430213
   1038.00000000	     51.95000000	     -3.99382357	     -3.50458336
   1039.00000000	     52.00000000	     -3.99364070	     -3.50548945
   1040.00000000	     52.05000000	     -3.99360279	     -3.50682155
   1041.00000000	     52.10000000	     -3.99436762	     -3.50879087
   1042.00000000	     52.15000000	     -3.99532858	     -3.51102345
   1043.00000000	     52.20000000	     -4.12935171	     -3.61306437
   1044.00000000	     52.25000000	     -4.12722996	     -3.61457896
   1045.00000000	     52.30000000	     -4.12576133	     -3.61705097
   1046.00000000	     52.35000000	     -4.12491810	     -3.61975256
   1047.00000000	     52.40000000	     -4.12434477	     -3.62227711
   1048.00000000	     52.45000000	     -4.12405607	     -3.62483210
   1049.00000000	     52.50000000	     -4.12304297	     -3.62669869
   1050.00000000	     52.55000000	     -4.15218206	     -3.66033239
   1051.00000000	     52.60000000	     -4.14934713	     -3.66131519
   1052.00000000	     52.65000000	     -4.14641917	     -3.66128775
   1053.00000000	     52.70000000	     -4.14287763	     -3.66074195
