UNKNOWN
version=1
nRows=1054
nColumns=4
inDegrees=no
endheader
time	time	knee_angle_r	knee_angle_l
      0.00000000	      0.05000000	      2.26985747	      3.95610916
      1.00000000	      0.10000000	      2.27695977	      3.96030062
      2.00000000	      0.15000000	      2.28308928	      3.96403363
      3.00000000	      0.20000000	      2.28945657	      3.96802150
      4.00000000	      0.25000000	      2.29637696	      3.97244738
      5.00000000	      0.30000000	      2.30422046	      3.97752258
      6.00000000	      0.35000000	      2.31913221	      3.98809112
      7.00000000	      0.40000000	      2.32741338	      3.99309355
      8.00000000	      0.45000000	      2.36319045	      3.96431580
      9.00000000	      0.50000000	      2.37152163	      3.96905668
     10.00000000	      0.55000000	      2.38848394	      3.96747579
     11.00000000	      0.60000000	      2.39812601	      3.97293001
     12.00000000	      0.65000000	      2.46926721	      3.86295923
     13.00000000	      0.70000000	      2.48491829	      3.86290283
     14.00000000	      0.75000000	      2.49325139	      3.86821202
     15.00000000	      0.80000000	      2.67389881	      3.72274376
     16.00000000	      0.85000000	      2.67314961	      3.71993365
     17.00000000	      0.90000000	      2.65266246	      3.68490274
     18.00000000	      0.95000000	      2.67354599	      3.65505157
     19.00000000	      1.00000000	      2.77574410	      3.67517259
     20.00000000	      1.05000000	      2.76082967	      3.65434558
     21.00000000	      1.10000000	      2.73889011	      3.62240521
     22.00000000	      1.15000000	      2.73802919	      3.60479361
     23.00000000	      1.20000000	      2.74664345	      3.61179858
     24.00000000	      1.25000000	      2.71897270	      3.59009891
     25.00000000	      1.30000000	      2.78850870	      3.63553990
     26.00000000	      1.35000000	      2.73679387	      3.61738147
     27.00000000	      1.40000000	      2.67200816	      3.60484250
     28.00000000	      1.45000000	      2.62116819	      3.60626465
     29.00000000	      1.50000000	      2.56023230	      3.60775059
     30.00000000	      1.55000000	      2.67057690	      3.68508983
     31.00000000	      1.60000000	      2.57068863	      3.66705362
     32.00000000	      1.65000000	      2.59858433	      3.69578719
     33.00000000	      1.70000000	      2.49140105	      3.67684369
     34.00000000	      1.75000000	      2.53163240	      3.62011514
     35.00000000	      1.80000000	      2.40303284	      3.62018252
     36.00000000	      1.85000000	      2.45170596	      3.64683357
     37.00000000	      1.90000000	      2.32419734	      3.64410705
     38.00000000	      1.95000000	      2.21673675	      3.64077361
     39.00000000	      2.00000000	      2.16604455	      3.63705416
     40.00000000	      2.05000000	      2.50751421	      3.69957714
     41.00000000	      2.10000000	      2.59674847	      3.57205791
     42.00000000	      2.15000000	      2.60082250	      3.55324355
     43.00000000	      2.20000000	      2.69549129	      3.52861587
     44.00000000	      2.25000000	      3.11304812	      3.51007200
     45.00000000	      2.30000000	      3.39972761	      3.47984491
     46.00000000	      2.35000000	      3.42449015	      3.49544286
     47.00000000	      2.40000000	      4.13440753	      3.35206418
     48.00000000	      2.45000000	      4.65570632	      3.29740767
     49.00000000	      2.50000000	      4.74326512	      3.33293910
     50.00000000	      2.55000000	      5.90894828	      3.15535263
     51.00000000	      2.60000000	      6.71469496	      3.09772336
     52.00000000	      2.65000000	      7.32301762	      3.10173662
     53.00000000	      2.70000000	      8.26072772	      2.98327058
     54.00000000	      2.75000000	      9.04114031	      3.00355119
     55.00000000	      2.80000000	      9.96594664	      2.92286583
     56.00000000	      2.85000000	     10.90026290	      2.81121738
     57.00000000	      2.90000000	     11.73749556	      2.78089066
     58.00000000	      2.95000000	     12.45976314	      2.82943180
     59.00000000	      3.00000000	     13.30727659	      2.66270635
     60.00000000	      3.05000000	     13.96453395	      2.62438226
     61.00000000	      3.10000000	     14.50576237	      2.59849688
     62.00000000	      3.15000000	     14.94051029	      2.59515251
     63.00000000	      3.20000000	     15.27401841	      2.53491479
     64.00000000	      3.25000000	     15.21822745	      2.83075092
     65.00000000	      3.30000000	     15.48716530	      2.51332568
     66.00000000	      3.35000000	     15.37500285	      2.61238721
     67.00000000	      3.40000000	     15.05107025	      2.62942515
     68.00000000	      3.45000000	     14.68855628	      2.75273169
     69.00000000	      3.50000000	     14.18722387	      2.91269738
     70.00000000	      3.55000000	     13.45105410	      3.12266554
     71.00000000	      3.60000000	     12.70274322	      3.40294201
     72.00000000	      3.65000000	     11.97345879	      3.74824739
     73.00000000	      3.70000000	     11.02304647	      4.17475721
     74.00000000	      3.75000000	     10.17656827	      4.69079237
     75.00000000	      3.80000000	      9.51857713	      5.27764709
     76.00000000	      3.85000000	      8.76746646	      6.00272162
     77.00000000	      3.90000000	      7.80164607	      6.63512201
     78.00000000	      3.95000000	      7.09147505	      7.48503615
     79.00000000	      4.00000000	      6.55975873	      8.41705499
     80.00000000	      4.05000000	      5.85322262	      9.27114046
     81.00000000	      4.10000000	      5.34537474	     10.24220534
     82.00000000	      4.15000000	      5.16801538	     11.24230798
     83.00000000	      4.20000000	      4.83761905	     12.39059547
     84.00000000	      4.25000000	      4.11415912	     13.23749621
     85.00000000	      4.30000000	      4.02271051	     14.29983689
     86.00000000	      4.35000000	      3.59884868	     15.19958873
     87.00000000	      4.40000000	      3.41621218	     16.11868168
     88.00000000	      4.45000000	      3.41278183	     16.99108488
     89.00000000	      4.50000000	      3.11020333	     17.69474380
     90.00000000	      4.55000000	      3.14234768	     18.35810454
     91.00000000	      4.60000000	      3.09227084	     18.96746947
     92.00000000	      4.65000000	      2.83132511	     19.09699865
     93.00000000	      4.70000000	      2.87783703	     19.33663360
     94.00000000	      4.75000000	      2.76484529	     19.18448623
     95.00000000	      4.80000000	      2.79979792	     19.08440704
     96.00000000	      4.85000000	      2.89369177	     18.80903522
     97.00000000	      4.90000000	      2.70399499	     17.97929858
     98.00000000	      4.95000000	      2.71713761	     17.31539900
     99.00000000	      5.00000000	      2.79264274	     16.92008193
    100.00000000	      5.05000000	      2.73445520	     15.52269493
    101.00000000	      5.10000000	      2.80396074	     15.13267768
    102.00000000	      5.15000000	      2.71097367	     13.48611429
    103.00000000	      5.20000000	      2.73890300	     12.25816195
    104.00000000	      5.25000000	      2.70855765	     11.24003265
    105.00000000	      5.30000000	      2.72662534	     10.22414274
    106.00000000	      5.35000000	      2.77395913	      9.24062394
    107.00000000	      5.40000000	      2.74113014	      8.27167087
    108.00000000	      5.45000000	      2.72385822	      7.45143748
    109.00000000	      5.50000000	      2.74303411	      6.69723207
    110.00000000	      5.55000000	      2.64294994	      5.92716322
    111.00000000	      5.60000000	      2.66012314	      5.38416663
    112.00000000	      5.65000000	      2.53128532	      4.76453231
    113.00000000	      5.70000000	      2.53962055	      4.37171688
    114.00000000	      5.75000000	      2.50722556	      3.99060902
    115.00000000	      5.80000000	      2.41175617	      3.61831775
    116.00000000	      5.85000000	      2.24356660	      3.24018799
    117.00000000	      5.90000000	      2.04026181	      2.92214489
    118.00000000	      5.95000000	      2.01206888	      2.80269844
    119.00000000	      6.00000000	      1.82651432	      2.51128929
    120.00000000	      6.05000000	      1.77616858	      2.45722833
    121.00000000	      6.10000000	      1.61411029	      2.29381365
    122.00000000	      6.15000000	      1.53337606	      2.23520458
    123.00000000	      6.20000000	      1.44436603	      2.18195325
    124.00000000	      6.25000000	      1.33370977	      2.08877200
    125.00000000	      6.30000000	      1.34325554	      2.10920123
    126.00000000	      6.35000000	      1.13008450	      1.95507172
    127.00000000	      6.40000000	      1.04722833	      1.92845475
    128.00000000	      6.45000000	      1.04212952	      1.99052323
    129.00000000	      6.50000000	      0.90821508	      1.87787402
    130.00000000	      6.55000000	      0.94510034	      2.01047933
    131.00000000	      6.60000000	      0.80202250	      1.91765449
    132.00000000	      6.65000000	      0.77914970	      1.94686726
    133.00000000	      6.70000000	      0.73504311	      1.97781733
    134.00000000	      6.75000000	      0.70286385	      2.01059226
    135.00000000	      6.80000000	      0.66897748	      2.05631776
    136.00000000	      6.85000000	      0.66403476	      2.18512049
    137.00000000	      6.90000000	      0.63777634	      2.25082558
    138.00000000	      6.95000000	      0.61436136	      2.31018995
    139.00000000	      7.00000000	      0.61430075	      2.44828252
    140.00000000	      7.05000000	      0.60159468	      2.48239540
    141.00000000	      7.10000000	      0.58232948	      2.59558318
    142.00000000	      7.15000000	      0.57503830	      2.70246824
    143.00000000	      7.20000000	      0.58459855	      2.79797872
    144.00000000	      7.25000000	      0.58152079	      2.89666832
    145.00000000	      7.30000000	      0.56943305	      2.87838755
    146.00000000	      7.35000000	      0.58344931	      3.05621489
    147.00000000	      7.40000000	      0.57621934	      3.14237819
    148.00000000	      7.45000000	      0.63106230	      3.18250138
    149.00000000	      7.50000000	      0.64085043	      3.24155861
    150.00000000	      7.55000000	      0.58616249	      3.28634687
    151.00000000	      7.60000000	      0.59881233	      3.40254098
    152.00000000	      7.65000000	      0.59439562	      3.44323955
    153.00000000	      7.70000000	      0.60842147	      3.38520789
    154.00000000	      7.75000000	      0.60753123	      3.35593342
    155.00000000	      7.80000000	      0.59712766	      3.33737592
    156.00000000	      7.85000000	      0.60820240	      3.33082417
    157.00000000	      7.90000000	      0.63925410	      3.29008972
    158.00000000	      7.95000000	      0.65393002	      3.22480309
    159.00000000	      8.00000000	      0.70769329	      3.02793008
    160.00000000	      8.05000000	      0.73809801	      3.06583123
    161.00000000	      8.10000000	      0.75989076	      2.84277142
    162.00000000	      8.15000000	      0.82039289	      2.72966948
    163.00000000	      8.20000000	      0.88245309	      2.61798294
    164.00000000	      8.25000000	      0.95346444	      2.58443113
    165.00000000	      8.30000000	      1.04611833	      2.39033516
    166.00000000	      8.35000000	      1.14585411	      2.37352580
    167.00000000	      8.40000000	      1.24230456	      2.20154780
    168.00000000	      8.45000000	      1.38107366	      2.18550084
    169.00000000	      8.50000000	      1.49170222	      2.11170762
    170.00000000	      8.55000000	      1.58029966	      1.98517251
    171.00000000	      8.60000000	      1.72113567	      1.95600203
    172.00000000	      8.65000000	      1.80513087	      1.88648314
    173.00000000	      8.70000000	      2.04200029	      1.97443001
    174.00000000	      8.75000000	      2.12947313	      1.95721826
    175.00000000	      8.80000000	      2.08432249	      1.85026355
    176.00000000	      8.85000000	      2.17759781	      1.91173146
    177.00000000	      8.90000000	      2.36960947	      2.05057425
    178.00000000	      8.95000000	      2.52776836	      2.17916853
    179.00000000	      9.00000000	      2.35021482	      2.09878170
    180.00000000	      9.05000000	      2.33091460	      2.16431715
    181.00000000	      9.10000000	      2.57923516	      2.43130011
    182.00000000	      9.15000000	      2.50476789	      2.49205898
    183.00000000	      9.20000000	      2.40532442	      2.52342473
    184.00000000	      9.25000000	      2.57944145	      2.80028122
    185.00000000	      9.30000000	      2.51322153	      2.88725686
    186.00000000	      9.35000000	      2.46704824	      3.01402259
    187.00000000	      9.40000000	      2.40658832	      3.10091324
    188.00000000	      9.45000000	      2.52594598	      3.32578432
    189.00000000	      9.50000000	      2.44543562	      3.37237359
    190.00000000	      9.55000000	      2.49092973	      3.51523943
    191.00000000	      9.60000000	      2.38502115	      3.51478617
    192.00000000	      9.65000000	      2.36023715	      3.57261388
    193.00000000	      9.70000000	      2.45392543	      3.71515613
    194.00000000	      9.75000000	      2.54835903	      3.84366064
    195.00000000	      9.80000000	      2.50120197	      3.85216591
    196.00000000	      9.85000000	      2.37160775	      3.68662442
    197.00000000	      9.90000000	      2.47634781	      3.76368861
    198.00000000	      9.95000000	      2.54600929	      3.84888111
    199.00000000	     10.00000000	      2.58212399	      3.89333820
    200.00000000	     10.05000000	      2.54427815	      3.84387922
    201.00000000	     10.10000000	      2.47066124	      3.71150903
    202.00000000	     10.15000000	      2.51638968	      3.60055562
    203.00000000	     10.20000000	      2.55936456	      3.64804696
    204.00000000	     10.25000000	      2.51696376	      3.49751854
    205.00000000	     10.30000000	      2.56062957	      3.53578105
    206.00000000	     10.35000000	      2.50836012	      3.40588265
    207.00000000	     10.40000000	      2.54255284	      3.44569435
    208.00000000	     10.45000000	      2.55466754	      3.45999042
    209.00000000	     10.50000000	      2.56543109	      3.46930743
    210.00000000	     10.55000000	      2.49406828	      3.41613198
    211.00000000	     10.60000000	      2.51035845	      3.43273317
    212.00000000	     10.65000000	      2.52442438	      3.45418412
    213.00000000	     10.70000000	      2.37086635	      3.55299041
    214.00000000	     10.75000000	      2.38383055	      3.56670126
    215.00000000	     10.80000000	      2.39209645	      3.58287370
    216.00000000	     10.85000000	      2.31979890	      3.71035228
    217.00000000	     10.90000000	      2.33120660	      3.72423432
    218.00000000	     10.95000000	      2.31131312	      3.75642396
    219.00000000	     11.00000000	      2.32318005	      3.77513284
    220.00000000	     11.05000000	      2.32836945	      3.79230561
    221.00000000	     11.10000000	      2.16614280	      3.95565444
    222.00000000	     11.15000000	      2.18250176	      3.96578166
    223.00000000	     11.20000000	      2.19391883	      3.97154074
    224.00000000	     11.25000000	      2.20934857	      3.98021450
    225.00000000	     11.30000000	      2.05106203	      3.79985717
    226.00000000	     11.35000000	      2.06622106	      3.79597547
    227.00000000	     11.40000000	      2.07461421	      3.77950105
    228.00000000	     11.45000000	      2.07691550	      3.73794308
    229.00000000	     11.50000000	      2.06311976	      3.64341020
    230.00000000	     11.55000000	      2.08060066	      3.64075306
    231.00000000	     11.60000000	      2.05644536	      3.42855336
    232.00000000	     11.65000000	      2.08120759	      3.43136040
    233.00000000	     11.70000000	      2.06743038	      3.13754258
    234.00000000	     11.75000000	      2.08681164	      3.14514053
    235.00000000	     11.80000000	      2.10502939	      3.14224953
    236.00000000	     11.85000000	      2.11994013	      3.11424550
    237.00000000	     11.90000000	      2.09472292	      2.81215721
    238.00000000	     11.95000000	      2.09682394	      2.69019047
    239.00000000	     12.00000000	      2.11237193	      2.69436403
    240.00000000	     12.05000000	      2.11417022	      2.63653690
    241.00000000	     12.10000000	      2.12130034	      2.61979491
    242.00000000	     12.15000000	      2.11973797	      2.50416382
    243.00000000	     12.20000000	      2.12838521	      2.51257949
    244.00000000	     12.25000000	      2.14810652	      2.37955252
    245.00000000	     12.30000000	      2.15050960	      2.38111504
    246.00000000	     12.35000000	      2.15978358	      2.38991934
    247.00000000	     12.40000000	      2.15247854	      2.36882024
    248.00000000	     12.45000000	      2.16257585	      2.37826592
    249.00000000	     12.50000000	      2.17829079	      2.39345803
    250.00000000	     12.55000000	      2.17614233	      2.39486334
    251.00000000	     12.60000000	      2.18064474	      2.40216417
    252.00000000	     12.65000000	      2.17853874	      2.40364515
    253.00000000	     12.70000000	      2.18355564	      2.50173495
    254.00000000	     12.75000000	      2.19382569	      2.51078828
    255.00000000	     12.80000000	      2.22137516	      2.53704905
    256.00000000	     12.85000000	      2.24085932	      2.55456332
    257.00000000	     12.90000000	      2.26434345	      2.57564386
    258.00000000	     12.95000000	      2.24840577	      2.55853544
    259.00000000	     13.00000000	      2.26389347	      2.57311375
    260.00000000	     13.05000000	      2.28905129	      2.59733144
    261.00000000	     13.10000000	      2.31333830	      2.61996677
    262.00000000	     13.15000000	      2.18265551	      2.58027188
    263.00000000	     13.20000000	      2.19998386	      2.59495009
    264.00000000	     13.25000000	      2.21429149	      2.59785287
    265.00000000	     13.30000000	      2.22938776	      2.61070275
    266.00000000	     13.35000000	      2.24891750	      2.62732504
    267.00000000	     13.40000000	      2.24231057	      2.59354017
    268.00000000	     13.45000000	      2.25380684	      2.60302086
    269.00000000	     13.50000000	      2.26962525	      2.61598783
    270.00000000	     13.55000000	      2.27194013	      2.59832302
    271.00000000	     13.60000000	      2.28734320	      2.61001283
    272.00000000	     13.65000000	      2.28551383	      2.55641569
    273.00000000	     13.70000000	      2.31783786	      2.36114507
    274.00000000	     13.75000000	      2.32774436	      2.36966924
    275.00000000	     13.80000000	      2.35382873	      2.35732683
    276.00000000	     13.85000000	      2.36274555	      2.36507278
    277.00000000	     13.90000000	      2.38119375	      2.36958198
    278.00000000	     13.95000000	      2.49435674	      2.34714504
    279.00000000	     14.00000000	      2.50560464	      2.35531512
    280.00000000	     14.05000000	      2.51769783	      2.36204158
    281.00000000	     14.10000000	      2.52776759	      2.37106153
    282.00000000	     14.15000000	      2.55511930	      2.38783775
    283.00000000	     14.20000000	      2.58295109	      2.39683065
    284.00000000	     14.25000000	      2.60559743	      2.40959578
    285.00000000	     14.30000000	      2.84078351	      2.50586085
    286.00000000	     14.35000000	      2.85843824	      2.51883250
    287.00000000	     14.40000000	      2.88047847	      2.53291307
    288.00000000	     14.45000000	      2.88968316	      2.54156416
    289.00000000	     14.50000000	      2.94577530	      2.56736325
    290.00000000	     14.55000000	      3.24934928	      2.64768606
    291.00000000	     14.60000000	      3.26053096	      2.65694111
    292.00000000	     14.65000000	      3.27982858	      2.67214116
    293.00000000	     14.70000000	      3.29321257	      2.68649960
    294.00000000	     14.75000000	      3.31936915	      2.69927500
    295.00000000	     14.80000000	      3.33298058	      2.71467976
    296.00000000	     14.85000000	      3.53425069	      2.75326597
    297.00000000	     14.90000000	      3.54310026	      2.76441648
    298.00000000	     14.95000000	      3.55885930	      2.77458409
    299.00000000	     15.00000000	      3.56689039	      2.78433403
    300.00000000	     15.05000000	      3.58257942	      2.78988420
    301.00000000	     15.10000000	      3.58950510	      2.79853956
    302.00000000	     15.15000000	      3.59687036	      2.80683182
    303.00000000	     15.20000000	      3.60961962	      2.80740061
    304.00000000	     15.25000000	      3.61518172	      2.81436783
    305.00000000	     15.30000000	      3.62218330	      2.82241913
    306.00000000	     15.35000000	      3.63006292	      2.83097209
    307.00000000	     15.40000000	      3.59075694	      2.78945536
    308.00000000	     15.45000000	      3.59790395	      2.79819513
    309.00000000	     15.50000000	      3.59736529	      2.79235640
    310.00000000	     15.55000000	      3.60293914	      2.79967072
    311.00000000	     15.60000000	      3.60867997	      2.80715324
    312.00000000	     15.65000000	      3.58041596	      2.76052502
    313.00000000	     15.70000000	      3.58620912	      2.76841294
    314.00000000	     15.75000000	      3.55521290	      2.72237219
    315.00000000	     15.80000000	      3.56068489	      2.72998850
    316.00000000	     15.85000000	      3.56692797	      2.74036713
    317.00000000	     15.90000000	      3.51711981	      2.67387254
    318.00000000	     15.95000000	      3.52002956	      2.68266172
    319.00000000	     16.00000000	      3.52505837	      2.69003446
    320.00000000	     16.05000000	      3.42878710	      2.71328528
    321.00000000	     16.10000000	      3.43410514	      2.72251075
    322.00000000	     16.15000000	      3.44151542	      2.73443090
    323.00000000	     16.20000000	      3.42073452	      2.72736738
    324.00000000	     16.25000000	      3.43312396	      2.74505102
    325.00000000	     16.30000000	      3.44875245	      2.76860270
    326.00000000	     16.35000000	      3.21809737	      2.68522798
    327.00000000	     16.40000000	      3.23554380	      2.70750079
    328.00000000	     16.45000000	      3.25526691	      2.73437709
    329.00000000	     16.50000000	      3.05206684	      2.70297070
    330.00000000	     16.55000000	      3.06770267	      2.72133636
    331.00000000	     16.60000000	      3.07709549	      2.74322537
    332.00000000	     16.65000000	      3.09022112	      2.75911877
    333.00000000	     16.70000000	      3.08639866	      2.77371505
    334.00000000	     16.75000000	      3.09851580	      2.78944473
    335.00000000	     16.80000000	      2.78151196	      2.66889815
    336.00000000	     16.85000000	      2.79630155	      2.68526957
    337.00000000	     16.90000000	      2.80632003	      2.70223982
    338.00000000	     16.95000000	      2.82014931	      2.71749937
    339.00000000	     17.00000000	      2.61656322	      2.60208446
    340.00000000	     17.05000000	      2.63253887	      2.61865928
    341.00000000	     17.10000000	      2.64488194	      2.63378103
    342.00000000	     17.15000000	      2.57166435	      2.56824222
    343.00000000	     17.20000000	      2.58844578	      2.58586987
    344.00000000	     17.25000000	      2.59981319	      2.60103095
    345.00000000	     17.30000000	      2.59276962	      2.59502191
    346.00000000	     17.35000000	      2.60491086	      2.60745498
    347.00000000	     17.40000000	      2.59114665	      2.59541774
    348.00000000	     17.45000000	      2.60301726	      2.60747461
    349.00000000	     17.50000000	      2.61264194	      2.61777757
    350.00000000	     17.55000000	      2.62227880	      2.62863651
    351.00000000	     17.60000000	      2.44508708	      2.39836893
    352.00000000	     17.65000000	      2.44989519	      2.40349333
    353.00000000	     17.70000000	      2.45470125	      2.40874305
    354.00000000	     17.75000000	      2.45980219	      2.41442475
    355.00000000	     17.80000000	      2.45566092	      2.42012911
    356.00000000	     17.85000000	      2.46044128	      2.42512845
    357.00000000	     17.90000000	      2.46520329	      2.43025845
    358.00000000	     17.95000000	      2.44446983	      2.42835309
    359.00000000	     18.00000000	      2.44997525	      2.43403314
    360.00000000	     18.05000000	      2.45517993	      2.43959223
    361.00000000	     18.10000000	      2.40656701	      2.41375941
    362.00000000	     18.15000000	      2.41216060	      2.41977114
    363.00000000	     18.20000000	      2.41762694	      2.42573785
    364.00000000	     18.25000000	      2.42278431	      2.43141408
    365.00000000	     18.30000000	      2.35582839	      2.39398918
    366.00000000	     18.35000000	      2.36299623	      2.40150787
    367.00000000	     18.40000000	      2.36902849	      2.40790129
    368.00000000	     18.45000000	      2.37581731	      2.41523567
    369.00000000	     18.50000000	      2.38257477	      2.42246310
    370.00000000	     18.55000000	      2.38856468	      2.42782391
    371.00000000	     18.60000000	      2.39471875	      2.43404746
    372.00000000	     18.65000000	      2.40110730	      2.44054441
    373.00000000	     18.70000000	      2.40769425	      2.44717240
    374.00000000	     18.75000000	      2.41377550	      2.44282025
    375.00000000	     18.80000000	      2.42047186	      2.44912859
    376.00000000	     18.85000000	      2.42633965	      2.45477692
    377.00000000	     18.90000000	      2.43216830	      2.46037705
    378.00000000	     18.95000000	      2.43879450	      2.46241004
    379.00000000	     19.00000000	      2.44380985	      2.46737784
    380.00000000	     19.05000000	      2.44783210	      2.47129413
    381.00000000	     19.10000000	      2.45252006	      2.47581172
    382.00000000	     19.15000000	      2.45903729	      2.55954835
    383.00000000	     19.20000000	      2.46431388	      2.56455080
    384.00000000	     19.25000000	      2.48289339	      2.58760951
    385.00000000	     19.30000000	      2.48953922	      2.59422854
    386.00000000	     19.35000000	      2.50208683	      2.60682397
    387.00000000	     19.40000000	      2.51644123	      2.62154042
    388.00000000	     19.45000000	      2.53118728	      2.63696855
    389.00000000	     19.50000000	      2.54582350	      2.65262342
    390.00000000	     19.55000000	      2.56037592	      2.66850843
    391.00000000	     19.60000000	      2.57483158	      2.68458288
    392.00000000	     19.65000000	      2.58919477	      2.70081207
    393.00000000	     19.70000000	      2.60347081	      2.71715501
    394.00000000	     19.75000000	      2.61767416	      2.73357326
    395.00000000	     19.80000000	      2.63181076	      2.75001423
    396.00000000	     19.85000000	      2.64590360	      2.76643778
    397.00000000	     19.90000000	      2.63194023	      2.79890584
    398.00000000	     19.95000000	      2.64375700	      2.81125619
    399.00000000	     20.00000000	      2.65587158	      2.82384040
    400.00000000	     20.05000000	      2.66775263	      2.83642382
    401.00000000	     20.10000000	      2.65846233	      2.81652689
    402.00000000	     20.15000000	      2.67068306	      2.82858471
    403.00000000	     20.20000000	      2.68307269	      2.84063785
    404.00000000	     20.25000000	      2.65441988	      2.68978414
    405.00000000	     20.30000000	      2.66593923	      2.70131929
    406.00000000	     20.35000000	      2.67779673	      2.71328906
    407.00000000	     20.40000000	      2.68693550	      2.70695673
    408.00000000	     20.45000000	      2.69760798	      2.71808960
    409.00000000	     20.50000000	      2.70938031	      2.73006335
    410.00000000	     20.55000000	      2.66186959	      2.60523044
    411.00000000	     20.60000000	      2.67272323	      2.61656591
    412.00000000	     20.65000000	      2.67938960	      2.63525736
    413.00000000	     20.70000000	      2.68986257	      2.64665719
    414.00000000	     20.75000000	      2.69033467	      2.67788897
    415.00000000	     20.80000000	      2.70084051	      2.68869080
    416.00000000	     20.85000000	      2.71531431	      2.70439574
    417.00000000	     20.90000000	      2.65131078	      2.68243140
    418.00000000	     20.95000000	      2.65905467	      2.69157885
    419.00000000	     21.00000000	      2.67427321	      2.70797225
    420.00000000	     21.05000000	      2.59494284	      2.52013519
    421.00000000	     21.10000000	      2.60561203	      2.53224439
    422.00000000	     21.15000000	      2.61878534	      2.54767180
    423.00000000	     21.20000000	      2.63463579	      2.56651241
    424.00000000	     21.25000000	      2.63570339	      2.58489447
    425.00000000	     21.30000000	      2.64402562	      2.59495725
    426.00000000	     21.35000000	      2.65301420	      2.60631402
    427.00000000	     21.40000000	      2.66174553	      2.61772029
    428.00000000	     21.45000000	      2.66954612	      2.62909756
    429.00000000	     21.50000000	      2.67461417	      2.63917348
    430.00000000	     21.55000000	      2.49075771	      2.53236496
    431.00000000	     21.60000000	      2.49790336	      2.53966423
    432.00000000	     21.65000000	      2.50427149	      2.54640977
    433.00000000	     21.70000000	      2.51123619	      2.55315279
    434.00000000	     21.75000000	      2.50484316	      2.52932979
    435.00000000	     21.80000000	      2.51245111	      2.53661569
    436.00000000	     21.85000000	      2.52049549	      2.54222008
    437.00000000	     21.90000000	      2.53024150	      2.55026443
    438.00000000	     21.95000000	      2.53970554	      2.52302554
    439.00000000	     22.00000000	      2.55216536	      2.53422708
    440.00000000	     22.05000000	      2.56527091	      2.54427873
    441.00000000	     22.10000000	      2.58263123	      2.51712515
    442.00000000	     22.15000000	      2.59554215	      2.52881696
    443.00000000	     22.20000000	      2.60731763	      2.53395999
    444.00000000	     22.25000000	      2.61855276	      2.54297599
    445.00000000	     22.30000000	      2.63169024	      2.53924197
    446.00000000	     22.35000000	      2.66976338	      2.55672283
    447.00000000	     22.40000000	      2.67915904	      2.56465131
    448.00000000	     22.45000000	      2.68994669	      2.57296458
    449.00000000	     22.50000000	      2.70080690	      2.57084827
    450.00000000	     22.55000000	      2.70676191	      2.54510159
    451.00000000	     22.60000000	      2.71555267	      2.55287634
    452.00000000	     22.65000000	      2.70310872	      2.57683371
    453.00000000	     22.70000000	      2.71152701	      2.58339634
    454.00000000	     22.75000000	      2.71877030	      2.59008315
    455.00000000	     22.80000000	      2.72744140	      2.59448415
    456.00000000	     22.85000000	      2.73461549	      2.60098337
    457.00000000	     22.90000000	      2.66649146	      2.76567993
    458.00000000	     22.95000000	      2.67009424	      2.76900811
    459.00000000	     23.00000000	      2.67559095	      2.77355105
    460.00000000	     23.05000000	      2.68101455	      2.77712929
    461.00000000	     23.10000000	      2.68622072	      2.78185927
    462.00000000	     23.15000000	      2.68984061	      2.78989893
    463.00000000	     23.20000000	      2.69474148	      2.79468728
    464.00000000	     23.25000000	      2.67975676	      2.83119919
    465.00000000	     23.30000000	      2.68381348	      2.83550979
    466.00000000	     23.35000000	      2.68962176	      2.84165947
    467.00000000	     23.40000000	      2.69555276	      2.84809751
    468.00000000	     23.45000000	      2.59079919	      2.98007867
    469.00000000	     23.50000000	      2.59836467	      2.98717697
    470.00000000	     23.55000000	      2.60385253	      2.99260410
    471.00000000	     23.60000000	      2.58615169	      3.04223200
    472.00000000	     23.65000000	      2.59151360	      3.04711859
    473.00000000	     23.70000000	      2.59705968	      3.05239834
    474.00000000	     23.75000000	      2.60299026	      3.05826354
    475.00000000	     23.80000000	      2.60934024	      3.06477095
    476.00000000	     23.85000000	      2.46102345	      3.35631143
    477.00000000	     23.90000000	      2.46721668	      3.36060860
    478.00000000	     23.95000000	      2.47412521	      3.36550930
    479.00000000	     24.00000000	      2.48147106	      3.37091941
    480.00000000	     24.05000000	      2.48933078	      3.37697720
    481.00000000	     24.10000000	      2.46610987	      3.40345767
    482.00000000	     24.15000000	      2.47388654	      3.40930823
    483.00000000	     24.20000000	      2.48145692	      3.41533022
    484.00000000	     24.25000000	      2.33610222	      3.60647644
    485.00000000	     24.30000000	      2.34461999	      3.61187294
    486.00000000	     24.35000000	      2.35327935	      3.61762560
    487.00000000	     24.40000000	      2.34984717	      3.61756864
    488.00000000	     24.45000000	      2.35937968	      3.62445800
    489.00000000	     24.50000000	      2.37267397	      3.63395495
    490.00000000	     24.55000000	      2.38631030	      3.64411527
    491.00000000	     24.60000000	      2.38192365	      3.64531858
    492.00000000	     24.65000000	      2.39283601	      3.65297152
    493.00000000	     24.70000000	      2.40508612	      3.66211210
    494.00000000	     24.75000000	      2.41783551	      3.67233026
    495.00000000	     24.80000000	      2.41070447	      3.67066140
    496.00000000	     24.85000000	      2.42251366	      3.67858033
    497.00000000	     24.90000000	      2.43430229	      3.68710482
    498.00000000	     24.95000000	      2.44706352	      3.69656885
    499.00000000	     25.00000000	      2.36886582	      3.60648309
    500.00000000	     25.05000000	      2.38185745	      3.61509268
    501.00000000	     25.10000000	      2.39585110	      3.62480909
    502.00000000	     25.15000000	      2.40521915	      3.63672890
    503.00000000	     25.20000000	      2.41939996	      3.64598382
    504.00000000	     25.25000000	      2.43319196	      3.65566660
    505.00000000	     25.30000000	      2.40540660	      3.67047213
    506.00000000	     25.35000000	      2.41852617	      3.67866597
    507.00000000	     25.40000000	      2.43004096	      3.68644073
    508.00000000	     25.45000000	      2.44280420	      3.69437152
    509.00000000	     25.50000000	      2.42149132	      3.52868460
    510.00000000	     25.55000000	      2.43297409	      3.53609420
    511.00000000	     25.60000000	      2.45172378	      3.54657532
    512.00000000	     25.65000000	      2.46165075	      3.55296172
    513.00000000	     25.70000000	      2.49036939	      3.55768348
    514.00000000	     25.75000000	      2.49860043	      3.56284188
    515.00000000	     25.80000000	      2.50779567	      3.56850252
    516.00000000	     25.85000000	      2.53109590	      3.57051095
    517.00000000	     25.90000000	      2.53845721	      3.57525345
    518.00000000	     25.95000000	      2.58688039	      3.42794333
    519.00000000	     26.00000000	      2.59287632	      3.43230697
    520.00000000	     26.05000000	      2.60139286	      3.43820369
    521.00000000	     26.10000000	      2.64148907	      3.43891598
    522.00000000	     26.15000000	      2.65080752	      3.44458109
    523.00000000	     26.20000000	      2.66153272	      3.45092404
    524.00000000	     26.25000000	      2.67353573	      3.45759961
    525.00000000	     26.30000000	      2.71245739	      3.44187854
    526.00000000	     26.35000000	      2.72401502	      3.44821008
    527.00000000	     26.40000000	      2.73597468	      3.45395302
    528.00000000	     26.45000000	      3.06947365	      3.15846516
    529.00000000	     26.50000000	      3.07839810	      3.16658017
    530.00000000	     26.55000000	      3.08844889	      3.17505026
    531.00000000	     26.60000000	      3.11381537	      3.09390391
    532.00000000	     26.65000000	      3.12203560	      3.10156341
    533.00000000	     26.70000000	      3.13037878	      3.10855896
    534.00000000	     26.75000000	      3.26550916	      2.96125024
    535.00000000	     26.80000000	      3.27004183	      2.96629663
    536.00000000	     26.85000000	      3.25314226	      2.93444415
    537.00000000	     26.90000000	      3.25663238	      2.93842297
    538.00000000	     26.95000000	      3.21516210	      2.86951620
    539.00000000	     27.00000000	      3.21970392	      2.87524846
    540.00000000	     27.05000000	      3.20301845	      2.86125035
    541.00000000	     27.10000000	      3.21449669	      2.87523076
    542.00000000	     27.15000000	      3.24027638	      2.90615444
    543.00000000	     27.20000000	      3.03026302	      2.78031539
    544.00000000	     27.25000000	      3.04841463	      2.80137927
    545.00000000	     27.30000000	      3.04505579	      2.81038157
    546.00000000	     27.35000000	      3.05811442	      2.82540451
    547.00000000	     27.40000000	      3.02533785	      2.81995287
    548.00000000	     27.45000000	      3.03569336	      2.83328264
    549.00000000	     27.50000000	      2.96699314	      2.82717535
    550.00000000	     27.55000000	      2.97573490	      2.83807422
    551.00000000	     27.60000000	      2.96242779	      2.84904412
    552.00000000	     27.65000000	      2.95598091	      2.85877608
    553.00000000	     27.70000000	      2.81581847	      2.92620459
    554.00000000	     27.75000000	      2.82203991	      2.93382415
    555.00000000	     27.80000000	      2.82812656	      2.93998927
    556.00000000	     27.85000000	      2.83087023	      2.95196253
    557.00000000	     27.90000000	      2.83693405	      2.95811700
    558.00000000	     27.95000000	      2.84245655	      3.01456509
    559.00000000	     28.00000000	      2.84852966	      3.02054828
    560.00000000	     28.05000000	      2.85524288	      3.02750148
    561.00000000	     28.10000000	      2.96126999	      3.29175928
    562.00000000	     28.15000000	      2.96764081	      3.29701638
    563.00000000	     28.20000000	      2.97340230	      3.30312856
    564.00000000	     28.25000000	      2.97816348	      3.30729111
    565.00000000	     28.30000000	      2.98176345	      3.32326227
    566.00000000	     28.35000000	      2.98768698	      3.32849482
    567.00000000	     28.40000000	      2.99550046	      3.33549885
    568.00000000	     28.45000000	      3.00795717	      3.36051097
    569.00000000	     28.50000000	      3.01429053	      3.36621289
    570.00000000	     28.55000000	      3.02552012	      3.38055759
    571.00000000	     28.60000000	      3.03166513	      3.38623183
    572.00000000	     28.65000000	      3.04238194	      3.39750291
    573.00000000	     28.70000000	      3.04998546	      3.40500818
    574.00000000	     28.75000000	      3.01526139	      3.37815915
    575.00000000	     28.80000000	      3.02529029	      3.38771437
    576.00000000	     28.85000000	      3.02816145	      3.39809464
    577.00000000	     28.90000000	      3.03912826	      3.40889126
    578.00000000	     28.95000000	      3.05084199	      3.42087078
    579.00000000	     29.00000000	      2.99364930	      3.37765756
    580.00000000	     29.05000000	      3.00507123	      3.38892644
    581.00000000	     29.10000000	      3.01606524	      3.40041654
    582.00000000	     29.15000000	      3.02653745	      3.41231967
    583.00000000	     29.20000000	      2.82805951	      3.20222599
    584.00000000	     29.25000000	      2.84011577	      3.21437035
    585.00000000	     29.30000000	      2.85186661	      3.22706218
    586.00000000	     29.35000000	      2.86350407	      3.24022791
    587.00000000	     29.40000000	      2.87523263	      3.25398483
    588.00000000	     29.45000000	      2.81700210	      3.14664736
    589.00000000	     29.50000000	      2.82948359	      3.15932812
    590.00000000	     29.55000000	      2.84169271	      3.17265457
    591.00000000	     29.60000000	      2.83206186	      3.18713357
    592.00000000	     29.65000000	      2.84408618	      3.19983536
    593.00000000	     29.70000000	      2.82590680	      3.21358386
    594.00000000	     29.75000000	      2.77739195	      3.08029766
    595.00000000	     29.80000000	      2.79079298	      3.09393869
    596.00000000	     29.85000000	      2.79544707	      3.11109519
    597.00000000	     29.90000000	      2.78572632	      3.12816245
    598.00000000	     29.95000000	      2.79455066	      3.14311578
    599.00000000	     30.00000000	      2.80850147	      3.12466718
    600.00000000	     30.05000000	      2.81083089	      3.12794258
    601.00000000	     30.10000000	      2.79832359	      2.93476483
    602.00000000	     30.15000000	      2.80288824	      2.95135299
    603.00000000	     30.20000000	      2.79288695	      2.96467967
    604.00000000	     30.25000000	      2.77474594	      2.95861894
    605.00000000	     30.30000000	      2.77186640	      2.95914934
    606.00000000	     30.35000000	      2.75579616	      2.95503038
    607.00000000	     30.40000000	      2.68070618	      2.71905509
    608.00000000	     30.45000000	      2.69453386	      2.73649062
    609.00000000	     30.50000000	      2.66439935	      2.74590805
    610.00000000	     30.55000000	      2.63073210	      2.72029866
    611.00000000	     30.60000000	      2.64498808	      2.73631500
    612.00000000	     30.65000000	      2.64679261	      2.74254043
    613.00000000	     30.70000000	      2.65990357	      2.75835641
    614.00000000	     30.75000000	      2.55186810	      2.57622831
    615.00000000	     30.80000000	      2.56722442	      2.59261298
    616.00000000	     30.85000000	      2.54303409	      2.43717593
    617.00000000	     30.90000000	      2.55853624	      2.45466600
    618.00000000	     30.95000000	      2.56831954	      2.46280469
    619.00000000	     31.00000000	      2.58331073	      2.47911059
    620.00000000	     31.05000000	      2.62394735	      2.40536871
    621.00000000	     31.10000000	      2.63983187	      2.42273247
    622.00000000	     31.15000000	      2.66068846	      2.43113613
    623.00000000	     31.20000000	      2.76406277	      2.30163727
    624.00000000	     31.25000000	      2.77859109	      2.31474771
    625.00000000	     31.30000000	      2.79440335	      2.31235348
    626.00000000	     31.35000000	      2.90711536	      2.25418525
    627.00000000	     31.40000000	      2.92179781	      2.26354003
    628.00000000	     31.45000000	      2.93676522	      2.26347910
    629.00000000	     31.50000000	      2.95803472	      2.24841173
    630.00000000	     31.55000000	      2.98835394	      2.23051327
    631.00000000	     31.60000000	      3.26188851	      2.19227109
    632.00000000	     31.65000000	      3.27332919	      2.19811032
    633.00000000	     31.70000000	      3.29228745	      2.16990488
    634.00000000	     31.75000000	      3.31732678	      2.17104777
    635.00000000	     31.80000000	      3.38839015	      2.13590926
    636.00000000	     31.85000000	      3.67624736	      2.14472204
    637.00000000	     31.90000000	      3.68590904	      2.15125350
    638.00000000	     31.95000000	      3.75371018	      2.12723539
    639.00000000	     32.00000000	      3.97271443	      2.24835134
    640.00000000	     32.05000000	      3.98657824	      2.25257491
    641.00000000	     32.10000000	      4.21225252	      2.23338568
    642.00000000	     32.15000000	      4.22825894	      2.23916046
    643.00000000	     32.20000000	      4.44808983	      2.24990024
    644.00000000	     32.25000000	      4.46305457	      2.25412364
    645.00000000	     32.30000000	      4.48380763	      2.25054593
    646.00000000	     32.35000000	      4.61614933	      2.20054284
    647.00000000	     32.40000000	      4.82400199	      2.30767429
    648.00000000	     32.45000000	      4.84414272	      2.31231640
    649.00000000	     32.50000000	      4.86198375	      2.31661131
    650.00000000	     32.55000000	      4.93502499	      2.29133301
    651.00000000	     32.60000000	      5.02141843	      2.29178968
    652.00000000	     32.65000000	      5.06911561	      2.31325369
    653.00000000	     32.70000000	      5.08739808	      2.32540995
    654.00000000	     32.75000000	      5.09274555	      2.33463081
    655.00000000	     32.80000000	      5.03996725	      2.32458256
    656.00000000	     32.85000000	      5.04530983	      2.33488523
    657.00000000	     32.90000000	      5.04717198	      2.35231141
    658.00000000	     32.95000000	      4.78990844	      2.37209768
    659.00000000	     33.00000000	      4.75662286	      2.38675104
    660.00000000	     33.05000000	      4.76111744	      2.39661626
    661.00000000	     33.10000000	      4.25993680	      2.38850737
    662.00000000	     33.15000000	      4.26606253	      2.39925330
    663.00000000	     33.20000000	      4.14909833	      2.40268925
    664.00000000	     33.25000000	      4.15346435	      2.41361871
    665.00000000	     33.30000000	      3.62840079	      2.40396023
    666.00000000	     33.35000000	      3.63610071	      2.41561016
    667.00000000	     33.40000000	      3.43945012	      2.43239318
    668.00000000	     33.45000000	      3.44607346	      2.44319558
    669.00000000	     33.50000000	      2.85427505	      2.39761633
    670.00000000	     33.55000000	      2.86460182	      2.40918216
    671.00000000	     33.60000000	      2.77927881	      2.44134407
    672.00000000	     33.65000000	      2.78788597	      2.45255144
    673.00000000	     33.70000000	      2.37994276	      2.45217563
    674.00000000	     33.75000000	      2.39197148	      2.46289407
    675.00000000	     33.80000000	      2.28312472	      2.50364392
    676.00000000	     33.85000000	      2.29526159	      2.51407329
    677.00000000	     33.90000000	      2.29846962	      2.53674328
    678.00000000	     33.95000000	      2.30894034	      2.54775328
    679.00000000	     34.00000000	      2.06449336	      2.65077507
    680.00000000	     34.05000000	      2.07770311	      2.66611949
    681.00000000	     34.10000000	      2.09053737	      2.67619223
    682.00000000	     34.15000000	      2.09608336	      2.70449075
    683.00000000	     34.20000000	      2.10812077	      2.71477591
    684.00000000	     34.25000000	      1.90420624	      2.87740613
    685.00000000	     34.30000000	      1.92145864	      2.89248365
    686.00000000	     34.35000000	      1.86951721	      3.00816114
    687.00000000	     34.40000000	      1.88392521	      3.01654924
    688.00000000	     34.45000000	      1.89755575	      3.03045990
    689.00000000	     34.50000000	      1.86368124	      3.18920415
    690.00000000	     34.55000000	      1.87679192	      3.19630855
    691.00000000	     34.60000000	      1.87922507	      3.21089963
    692.00000000	     34.65000000	      1.89144112	      3.21818090
    693.00000000	     34.70000000	      1.85742370	      3.40538583
    694.00000000	     34.75000000	      1.87016333	      3.41119815
    695.00000000	     34.80000000	      1.88331374	      3.41772916
    696.00000000	     34.85000000	      1.87397648	      3.43852998
    697.00000000	     34.90000000	      1.89670759	      3.45141609
    698.00000000	     34.95000000	      1.92056981	      3.46601252
    699.00000000	     35.00000000	      1.95920060	      3.49016549
    700.00000000	     35.05000000	      1.99054814	      3.51094706
    701.00000000	     35.10000000	      2.01680728	      3.52955655
    702.00000000	     35.15000000	      1.79968364	      3.67582443
    703.00000000	     35.20000000	      1.82468510	      3.68847131
    704.00000000	     35.25000000	      1.84274220	      3.69969072
    705.00000000	     35.30000000	      1.85867516	      3.70814154
    706.00000000	     35.35000000	      1.85768906	      3.72384867
    707.00000000	     35.40000000	      1.87197933	      3.73173906
    708.00000000	     35.45000000	      1.83195553	      3.77035742
    709.00000000	     35.50000000	      1.84478264	      3.77725917
    710.00000000	     35.55000000	      1.85458691	      3.79038649
    711.00000000	     35.60000000	      1.80033731	      3.82771511
    712.00000000	     35.65000000	      1.81333204	      3.83408239
    713.00000000	     35.70000000	      1.82677409	      3.84925889
    714.00000000	     35.75000000	      1.82395964	      3.86222019
    715.00000000	     35.80000000	      1.83269786	      3.87098843
    716.00000000	     35.85000000	      1.77161544	      3.88659411
    717.00000000	     35.90000000	      1.77963609	      3.89528626
    718.00000000	     35.95000000	      1.78336439	      3.90566206
    719.00000000	     36.00000000	      1.79736117	      3.91509262
    720.00000000	     36.05000000	      1.68938241	      3.88803250
    721.00000000	     36.10000000	      1.70038250	      3.90035101
    722.00000000	     36.15000000	      1.71084715	      3.90761993
    723.00000000	     36.20000000	      1.71622074	      3.91131919
    724.00000000	     36.25000000	      1.73565687	      3.92064052
    725.00000000	     36.30000000	      1.65775964	      3.80474875
    726.00000000	     36.35000000	      1.67559784	      3.81455701
    727.00000000	     36.40000000	      1.68924121	      3.82016495
    728.00000000	     36.45000000	      1.65165801	      3.71896214
    729.00000000	     36.50000000	      1.67309385	      3.73014975
    730.00000000	     36.55000000	      1.69041836	      3.73592821
    731.00000000	     36.60000000	      1.70475362	      3.73595764
    732.00000000	     36.65000000	      1.71782786	      3.73219440
    733.00000000	     36.70000000	      1.66884210	      3.51808230
    734.00000000	     36.75000000	      1.69078415	      3.52985041
    735.00000000	     36.80000000	      1.70816777	      3.53547381
    736.00000000	     36.85000000	      1.72159756	      3.53222203
    737.00000000	     36.90000000	      1.72953566	      3.52223162
    738.00000000	     36.95000000	      1.65762237	      3.35445762
    739.00000000	     37.00000000	      1.66965633	      3.35843070
    740.00000000	     37.05000000	      1.68474154	      3.36552806
    741.00000000	     37.10000000	      1.69598631	      3.36150373
    742.00000000	     37.15000000	      1.69446764	      3.33677269
    743.00000000	     37.20000000	      1.70761700	      3.34297075
    744.00000000	     37.25000000	      1.71091236	      3.32357897
    745.00000000	     37.30000000	      1.71499928	      3.28921719
    746.00000000	     37.35000000	      1.74053630	      3.16270908
    747.00000000	     37.40000000	      1.74486427	      3.16292977
    748.00000000	     37.45000000	      1.74744796	      3.15816080
    749.00000000	     37.50000000	      1.75607505	      3.16291672
    750.00000000	     37.55000000	      1.76216111	      3.15565300
    751.00000000	     37.60000000	      1.82332975	      3.13103988
    752.00000000	     37.65000000	      1.83018681	      3.13507229
    753.00000000	     37.70000000	      1.82427205	      3.13574742
    754.00000000	     37.75000000	      1.83086248	      3.13960060
    755.00000000	     37.80000000	      1.83938392	      3.14179194
    756.00000000	     37.85000000	      1.84841773	      3.14696436
    757.00000000	     37.90000000	      1.87355210	      3.15207685
    758.00000000	     37.95000000	      1.88364688	      3.15804195
    759.00000000	     38.00000000	      1.96122140	      3.18147712
    760.00000000	     38.05000000	      1.97166233	      3.18810300
    761.00000000	     38.10000000	      1.98738158	      3.19833985
    762.00000000	     38.15000000	      2.04112587	      3.21848420
    763.00000000	     38.20000000	      2.05375817	      3.22854977
    764.00000000	     38.25000000	      2.06938876	      3.24737240
    765.00000000	     38.30000000	      2.08457444	      3.25884885
    766.00000000	     38.35000000	      2.10349892	      3.27494437
    767.00000000	     38.40000000	      2.12102739	      3.28674355
    768.00000000	     38.45000000	      2.13414812	      3.29491706
    769.00000000	     38.50000000	      2.16555591	      3.30464821
    770.00000000	     38.55000000	      2.17422912	      3.30621641
    771.00000000	     38.60000000	      2.18897547	      3.31580470
    772.00000000	     38.65000000	      2.19712081	      3.31016260
    773.00000000	     38.70000000	      2.20927881	      3.31471936
    774.00000000	     38.75000000	      2.21842755	      3.30777820
    775.00000000	     38.80000000	      2.28042199	      3.30575597
    776.00000000	     38.85000000	      2.27973070	      3.30004691
    777.00000000	     38.90000000	      2.28067198	      3.29024522
    778.00000000	     38.95000000	      2.28664644	      3.28306662
    779.00000000	     39.00000000	      2.29462931	      3.27530056
    780.00000000	     39.05000000	      2.30391529	      3.27368829
    781.00000000	     39.10000000	      2.35045321	      3.25822772
    782.00000000	     39.15000000	      2.34121241	      3.24705564
    783.00000000	     39.20000000	      2.33773158	      3.23894522
    784.00000000	     39.25000000	      2.33934126	      3.24591431
    785.00000000	     39.30000000	      2.34947237	      3.25223535
    786.00000000	     39.35000000	      2.33407900	      3.24055192
    787.00000000	     39.40000000	      2.31338591	      3.25220937
    788.00000000	     39.45000000	      2.32937901	      3.26301831
    789.00000000	     39.50000000	      2.32840222	      3.27233333
    790.00000000	     39.55000000	      2.28731527	      3.34392435
    791.00000000	     39.60000000	      2.28714196	      3.34668708
    792.00000000	     39.65000000	      2.25412183	      3.37444958
    793.00000000	     39.70000000	      2.22546341	      3.47334554
    794.00000000	     39.75000000	      2.22187739	      3.48469362
    795.00000000	     39.80000000	      2.22608557	      3.49946119
    796.00000000	     39.85000000	      2.16409959	      3.66534254
    797.00000000	     39.90000000	      2.16112477	      3.68686975
    798.00000000	     39.95000000	      2.14661239	      3.73164978
    799.00000000	     40.00000000	      2.15718838	      3.74781686
    800.00000000	     40.05000000	      2.12122079	      3.84649582
    801.00000000	     40.10000000	      2.13092054	      3.87477526
    802.00000000	     40.15000000	      2.03728813	      4.15909157
    803.00000000	     40.20000000	      2.05358647	      4.17552549
    804.00000000	     40.25000000	      2.06788324	      4.19328951
    805.00000000	     40.30000000	      2.07595323	      4.22279692
    806.00000000	     40.35000000	      2.08292033	      4.25540828
    807.00000000	     40.40000000	      2.09214845	      4.28445284
    808.00000000	     40.45000000	      2.04637557	      4.49092452
    809.00000000	     40.50000000	      2.00099594	      4.77541184
    810.00000000	     40.55000000	      2.03056337	      4.78824492
    811.00000000	     40.60000000	      2.05832017	      4.80172874
    812.00000000	     40.65000000	      2.08833597	      4.92467963
    813.00000000	     40.70000000	      2.10724620	      4.93670652
    814.00000000	     40.75000000	      2.12129741	      4.95309108
    815.00000000	     40.80000000	      2.13522685	      4.96119979
    816.00000000	     40.85000000	      2.16051874	      4.99889049
    817.00000000	     40.90000000	      2.17753973	      5.00804178
    818.00000000	     40.95000000	      2.19844306	      5.06031241
    819.00000000	     41.00000000	      2.21645959	      5.06972243
    820.00000000	     41.05000000	      2.23602577	      5.09363740
    821.00000000	     41.10000000	      2.25423842	      5.10345237
    822.00000000	     41.15000000	      2.25219988	      5.16845068
    823.00000000	     41.20000000	      2.26961320	      5.17687635
    824.00000000	     41.25000000	      2.28482780	      5.19261985
    825.00000000	     41.30000000	      2.26554256	      5.26440323
    826.00000000	     41.35000000	      2.28276695	      5.27248192
    827.00000000	     41.40000000	      2.29091093	      5.27127240
    828.00000000	     41.45000000	      2.30405162	      5.27660733
    829.00000000	     41.50000000	      2.29721043	      5.25470161
    830.00000000	     41.55000000	      2.30447488	      5.25219204
    831.00000000	     41.60000000	      2.22838324	      5.11864450
    832.00000000	     41.65000000	      2.24304539	      5.12546222
    833.00000000	     41.70000000	      2.24493533	      5.10992186
    834.00000000	     41.75000000	      2.21390883	      5.05479876
    835.00000000	     41.80000000	      2.18469135	      4.98690526
    836.00000000	     41.85000000	      2.13073876	      4.83192367
    837.00000000	     41.90000000	      2.13473374	      4.82550312
    838.00000000	     41.95000000	      2.14788935	      4.82129326
    839.00000000	     42.00000000	      2.10724635	      4.66929179
    840.00000000	     42.05000000	      2.11275930	      4.66051305
    841.00000000	     42.10000000	      2.09692444	      4.60538809
    842.00000000	     42.15000000	      2.11510080	      4.60794684
    843.00000000	     42.20000000	      2.10262912	      4.45807037
    844.00000000	     42.25000000	      2.10977391	      4.44788283
    845.00000000	     42.30000000	      2.11559941	      4.40631466
    846.00000000	     42.35000000	      2.13032734	      4.37229490
    847.00000000	     42.40000000	      2.14418031	      4.30588622
    848.00000000	     42.45000000	      2.16009474	      4.29874913
    849.00000000	     42.50000000	      2.17046085	      4.28496380
    850.00000000	     42.55000000	      2.18903753	      4.29418257
    851.00000000	     42.60000000	      2.21713165	      4.22331566
    852.00000000	     42.65000000	      2.23452333	      4.23225714
    853.00000000	     42.70000000	      2.24164366	      4.22463045
    854.00000000	     42.75000000	      2.25801134	      4.23324997
    855.00000000	     42.80000000	      2.27928966	      4.19241013
    856.00000000	     42.85000000	      2.29393753	      4.20051696
    857.00000000	     42.90000000	      2.29469632	      4.17602082
    858.00000000	     42.95000000	      2.30735303	      4.18312744
    859.00000000	     43.00000000	      2.32415054	      4.19915756
    860.00000000	     43.05000000	      2.33629143	      4.20601468
    861.00000000	     43.10000000	      2.34818910	      4.14929181
    862.00000000	     43.15000000	      2.35687839	      4.15763504
    863.00000000	     43.20000000	      2.36962245	      4.16778693
    864.00000000	     43.25000000	      2.37799194	      4.17263616
    865.00000000	     43.30000000	      2.38283931	      4.14262050
    866.00000000	     43.35000000	      2.39124871	      4.14741270
    867.00000000	     43.40000000	      2.40230605	      4.15071660
    868.00000000	     43.45000000	      2.37591235	      4.00367746
    869.00000000	     43.50000000	      2.38550418	      4.00693980
    870.00000000	     43.55000000	      2.39712311	      4.00687724
    871.00000000	     43.60000000	      2.40660158	      4.00046849
    872.00000000	     43.65000000	      2.38291095	      3.84384339
    873.00000000	     43.70000000	      2.39280843	      3.84935131
    874.00000000	     43.75000000	      2.40130607	      3.85258216
    875.00000000	     43.80000000	      2.40993927	      3.85358720
    876.00000000	     43.85000000	      2.41810706	      3.84267718
    877.00000000	     43.90000000	      2.42771103	      3.84775247
    878.00000000	     43.95000000	      2.41093572	      3.64484496
    879.00000000	     44.00000000	      2.42199247	      3.65218766
    880.00000000	     44.05000000	      2.43171755	      3.65617476
    881.00000000	     44.10000000	      2.43371081	      3.63285443
    882.00000000	     44.15000000	      2.44420755	      3.63979693
    883.00000000	     44.20000000	      2.45188962	      3.64160483
    884.00000000	     44.25000000	      2.45827573	      3.64211994
    885.00000000	     44.30000000	      2.46000084	      3.63376115
    886.00000000	     44.35000000	      2.47192339	      3.64552268
    887.00000000	     44.40000000	      2.48344924	      3.76031371
    888.00000000	     44.45000000	      2.49114515	      3.76683731
    889.00000000	     44.50000000	      2.49241010	      3.76924966
    890.00000000	     44.55000000	      2.50349864	      3.77680016
    891.00000000	     44.60000000	      2.48133963	      3.81284018
    892.00000000	     44.65000000	      2.49102959	      3.82013774
    893.00000000	     44.70000000	      2.47762974	      3.91444694
    894.00000000	     44.75000000	      2.48868060	      3.92261863
    895.00000000	     44.80000000	      2.47349690	      3.97563997
    896.00000000	     44.85000000	      2.48495502	      3.98337873
    897.00000000	     44.90000000	      2.45064448	      4.18174265
    898.00000000	     44.95000000	      2.46173919	      4.18854803
    899.00000000	     45.00000000	      2.42035331	      4.38053512
    900.00000000	     45.05000000	      2.43183262	      4.38698549
    901.00000000	     45.10000000	      2.43474811	      4.39608535
    902.00000000	     45.15000000	      2.39768282	      4.45749010
    903.00000000	     45.20000000	      2.40323489	      4.47028819
    904.00000000	     45.25000000	      2.40023007	      4.48525305
    905.00000000	     45.30000000	      2.32698965	      4.67203830
    906.00000000	     45.35000000	      2.33441980	      4.67654071
    907.00000000	     45.40000000	      2.33374112	      4.67848745
    908.00000000	     45.45000000	      2.30222360	      4.67055278
    909.00000000	     45.50000000	      2.31551126	      4.67703101
    910.00000000	     45.55000000	      2.31885439	      4.68517930
    911.00000000	     45.60000000	      2.32988063	      4.69010382
    912.00000000	     45.65000000	      2.27008929	      4.66838569
    913.00000000	     45.70000000	      2.28165423	      4.67393546
    914.00000000	     45.75000000	      2.22018253	      4.65138024
    915.00000000	     45.80000000	      2.23490701	      4.65843851
    916.00000000	     45.85000000	      2.16664044	      4.63736795
    917.00000000	     45.90000000	      2.17600389	      4.64195491
    918.00000000	     45.95000000	      2.17905218	      4.64218064
    919.00000000	     46.00000000	      2.19182492	      4.64822779
    920.00000000	     46.05000000	      2.22181294	      4.66224572
    921.00000000	     46.10000000	      2.25103001	      4.67618007
    922.00000000	     46.15000000	      2.24522650	      4.66432997
    923.00000000	     46.20000000	      2.27101564	      4.67299234
    924.00000000	     46.25000000	      2.29094950	      4.67920775
    925.00000000	     46.30000000	      2.31150567	      4.68755279
    926.00000000	     46.35000000	      2.30924112	      4.65661995
    927.00000000	     46.40000000	      2.33075420	      4.66557099
    928.00000000	     46.45000000	      2.35154963	      4.67511972
    929.00000000	     46.50000000	      2.37194045	      4.68563392
    930.00000000	     46.55000000	      2.39141872	      4.69465774
    931.00000000	     46.60000000	      2.41156561	      4.70398090
    932.00000000	     46.65000000	      2.43232267	      4.71355230
    933.00000000	     46.70000000	      2.44939282	      4.71690639
    934.00000000	     46.75000000	      2.46505519	      4.71774158
    935.00000000	     46.80000000	      2.36225002	      4.53997683
    936.00000000	     46.85000000	      2.37973464	      4.55025174
    937.00000000	     46.90000000	      2.39910389	      4.56154923
    938.00000000	     46.95000000	      2.41088579	      4.56761366
    939.00000000	     47.00000000	      2.43921574	      4.57739835
    940.00000000	     47.05000000	      2.45070169	      4.58289154
    941.00000000	     47.10000000	      2.36821679	      4.35106799
    942.00000000	     47.15000000	      2.37656811	      4.35549381
    943.00000000	     47.20000000	      2.39476511	      4.35903816
    944.00000000	     47.25000000	      2.40307489	      4.36322605
    945.00000000	     47.30000000	      2.37996170	      4.15579524
    946.00000000	     47.35000000	      2.38734462	      4.15988297
    947.00000000	     47.40000000	      2.39863004	      4.16061805
    948.00000000	     47.45000000	      2.40521924	      4.16426855
    949.00000000	     47.50000000	      2.42339737	      4.14349278
    950.00000000	     47.55000000	      2.43061490	      4.14731356
    951.00000000	     47.60000000	      2.43842255	      4.15149623
    952.00000000	     47.65000000	      2.43138582	      3.82939136
    953.00000000	     47.70000000	      2.44330039	      3.83704057
    954.00000000	     47.75000000	      2.45234465	      3.84283517
    955.00000000	     47.80000000	      2.45777526	      3.77621552
    956.00000000	     47.85000000	      2.46879695	      3.78298873
    957.00000000	     47.90000000	      2.48302907	      3.79157924
    958.00000000	     47.95000000	      2.49968898	      3.80117000
    959.00000000	     48.00000000	      2.51893385	      3.81073080
    960.00000000	     48.05000000	      2.49181073	      3.45238551
    961.00000000	     48.10000000	      2.50608473	      3.46210856
    962.00000000	     48.15000000	      2.51997484	      3.47123808
    963.00000000	     48.20000000	      2.53506191	      3.48062836
    964.00000000	     48.25000000	      2.55090951	      3.48971523
    965.00000000	     48.30000000	      2.56994663	      3.50074462
    966.00000000	     48.35000000	      2.50158764	      3.17623456
    967.00000000	     48.40000000	      2.51518459	      3.18659743
    968.00000000	     48.45000000	      2.52801394	      3.19610979
    969.00000000	     48.50000000	      2.54217793	      3.20608970
    970.00000000	     48.55000000	      2.52996470	      3.16271304
    971.00000000	     48.60000000	      2.53871731	      3.16885429
    972.00000000	     48.65000000	      2.55004129	      3.17686965
    973.00000000	     48.70000000	      2.56387728	      3.18677574
    974.00000000	     48.75000000	      2.57605817	      3.19400029
    975.00000000	     48.80000000	      2.58425201	      3.19961935
    976.00000000	     48.85000000	      2.54314555	      3.10199116
    977.00000000	     48.90000000	      2.55144131	      3.10782111
    978.00000000	     48.95000000	      2.56336973	      3.11674678
    979.00000000	     49.00000000	      2.57732483	      3.12709953
    980.00000000	     49.05000000	      2.43979435	      2.88406638
    981.00000000	     49.10000000	      2.44898340	      2.89173870
    982.00000000	     49.15000000	      2.46571939	      2.90611448
    983.00000000	     49.20000000	      2.48777371	      2.92529911
    984.00000000	     49.25000000	      2.50146576	      2.93658647
    985.00000000	     49.30000000	      2.51042537	      2.94356890
    986.00000000	     49.35000000	      2.54107816	      2.96846986
    987.00000000	     49.40000000	      2.54647283	      2.97268106
    988.00000000	     49.45000000	      2.55233145	      2.97714130
    989.00000000	     49.50000000	      2.55851649	      2.98181686
    990.00000000	     49.55000000	      2.51946226	      2.91236639
    991.00000000	     49.60000000	      2.52378871	      2.91579715
    992.00000000	     49.65000000	      2.52909242	      2.91992231
    993.00000000	     49.70000000	      2.48395173	      2.78816466
    994.00000000	     49.75000000	      2.48817335	      2.79191525
    995.00000000	     49.80000000	      2.49362848	      2.79678708
    996.00000000	     49.85000000	      2.49620894	      2.80386478
    997.00000000	     49.90000000	      2.50083588	      2.80826366
    998.00000000	     49.95000000	      2.49763562	      2.83135806
    999.00000000	     50.00000000	      2.50288256	      2.83581166
   1000.00000000	     50.05000000	      2.52237267	      2.90322328
   1001.00000000	     50.10000000	      2.52718799	      2.90733890
   1002.00000000	     50.15000000	      2.53287182	      2.91786533
   1003.00000000	     50.20000000	      2.53751834	      2.92208131
   1004.00000000	     50.25000000	      2.55146529	      2.96091238
   1005.00000000	     50.30000000	      2.55584593	      2.96462548
   1006.00000000	     50.35000000	      2.56133874	      2.96937714
   1007.00000000	     50.40000000	      2.56763289	      2.97499526
   1008.00000000	     50.45000000	      2.57432459	      2.98114695
   1009.00000000	     50.50000000	      2.58130620	      2.98769808
   1010.00000000	     50.55000000	      2.58883503	      2.99484601
   1011.00000000	     50.60000000	      2.55302499	      3.01355800
   1012.00000000	     50.65000000	      2.56115498	      3.02037580
   1013.00000000	     50.70000000	      2.57376930	      3.03093472
   1014.00000000	     50.75000000	      2.59488267	      3.04837499
   1015.00000000	     50.80000000	      2.61389995	      3.06430493
   1016.00000000	     50.85000000	      2.62325968	      3.06763300
   1017.00000000	     50.90000000	      2.63814013	      3.08035455
   1018.00000000	     50.95000000	      2.65718064	      3.09630192
   1019.00000000	     51.00000000	      2.67731485	      3.11303430
   1020.00000000	     51.05000000	      2.69881342	      3.13059112
   1021.00000000	     51.10000000	      2.71734471	      3.14607278
   1022.00000000	     51.15000000	      2.51741195	      2.89804733
   1023.00000000	     51.20000000	      2.53197574	      2.91076772
   1024.00000000	     51.25000000	      2.54777076	      2.92461141
   1025.00000000	     51.30000000	      2.56536239	      2.94007538
   1026.00000000	     51.35000000	      2.58443760	      2.95702788
   1027.00000000	     51.40000000	      2.60551758	      2.97565893
   1028.00000000	     51.45000000	      2.54481279	      2.98451104
   1029.00000000	     51.50000000	      2.55890923	      2.99648159
   1030.00000000	     51.55000000	      2.57382252	      3.00933390
   1031.00000000	     51.60000000	      2.58743247	      3.02254913
   1032.00000000	     51.65000000	      2.60072610	      3.03426977
   1033.00000000	     51.70000000	      2.57556349	      3.04082722
   1034.00000000	     51.75000000	      2.58982040	      3.05387738
   1035.00000000	     51.80000000	      2.60457113	      3.06770644
   1036.00000000	     51.85000000	      2.62015492	      3.08250608
   1037.00000000	     51.90000000	      2.63636425	      3.09826916
   1038.00000000	     51.95000000	      2.65359342	      3.11512115
   1039.00000000	     52.00000000	      2.67127721	      3.13271066
   1040.00000000	     52.05000000	      2.69017556	      3.15168364
   1041.00000000	     52.10000000	      2.70881406	      3.17122087
   1042.00000000	     52.15000000	      2.72851771	      3.19217918
   1043.00000000	     52.20000000	      2.48484578	      3.17566464
   1044.00000000	     52.25000000	      2.50282150	      3.19063597
   1045.00000000	     52.30000000	      2.52213665	      3.20701087
   1046.00000000	     52.35000000	      2.54358740	      3.22528488
   1047.00000000	     52.40000000	      2.56526605	      3.24387488
   1048.00000000	     52.45000000	      2.58704289	      3.26293616
   1049.00000000	     52.50000000	      2.60849871	      3.28193584
   1050.00000000	     52.55000000	      2.58594310	      3.27801346
   1051.00000000	     52.60000000	      2.59971850	      3.28933875
   1052.00000000	     52.65000000	      2.61724579	      3.30350434
   1053.00000000	     52.70000000	      2.63802464	      3.32029308
